<?xml version="1.0" encoding="UTF-8"?>
<kml xmlns="http://www.opengis.net/kml/2.2">
  <Document>
    <name>По течению Яузы</name>
    <description><![CDATA[<a href="https://www.mnogotrop.com/route/77534" target="_blank">Источник: mnogotrop.com/route/77534</a>
<p>Короткий спокойный маршрут вдоль Яузы от Медведкова к Свиблово: парковые дорожки, деревянные мостики, тенистые участки и несколько грунтовых троп.</p>
<p>Подходит для неспешной городской прогулки и как разогрев перед более длинными маршрутами по северо-востоку Москвы.</p>
<p>Особенности: на части пути благоустроенные дорожки сменяются тропами, поэтому после дождя лучше ехать аккуратно.</p>]]></description>
    <Style id="route-line">
      <LineStyle>
        <color>ffd18802</color>
        <width>5</width>
      </LineStyle>
    </Style>
    <Style id="poi-point">
      <IconStyle>
        <color>ff3644db</color>
        <scale>1.0</scale>
        <Icon>
          <href>https://www.gstatic.com/mapspro/images/stock/503-wht-blank_maps.png</href>
        </Icon>
      </IconStyle>
    </Style>
    <Placemark>
      <name>Парк в Медведково</name>
      <description><![CDATA[<p><b>Адрес:</b> МКАД, Москва, Россия, 127224</p>]]></description>
      <styleUrl>#poi-point</styleUrl>
      <Point>
        <coordinates>37.6850467,55.8934094,0.0</coordinates>
      </Point>
    </Placemark>
    <Placemark>
      <name>Благоустройство кончилось</name>
      <description><![CDATA[<p><b>Адрес:</b> Заповедная ул., 20-22, Москва, Россия, 127642</p>]]></description>
      <styleUrl>#poi-point</styleUrl>
      <Point>
        <coordinates>37.6418209,55.8654206,0.0</coordinates>
      </Point>
    </Placemark>
    <Placemark>
      <name>Гидротехническое сооружение</name>
      <description><![CDATA[<p><b>Адрес:</b> Заповедная ул., 52, Москва, Россия, 127081</p>]]></description>
      <styleUrl>#poi-point</styleUrl>
      <Point>
        <coordinates>37.6393533,55.8636205,0.0</coordinates>
      </Point>
    </Placemark>
    <Placemark>
      <name>Она, родимая...</name>
      <description><![CDATA[<p><b>Адрес:</b> Тенистый пр-д, 4, Москва, Россия, 129329</p>]]></description>
      <styleUrl>#poi-point</styleUrl>
      <Point>
        <coordinates>37.6336640,55.8604720,0.0</coordinates>
      </Point>
    </Placemark>
    <Placemark>
      <name>Парк Свиблово</name>
      <description><![CDATA[<p><b>Адрес:</b> Лазоревый пр-д, 19, Москва, Россия, 129323</p>]]></description>
      <styleUrl>#poi-point</styleUrl>
      <Point>
        <coordinates>37.6347610,55.8546680,0.0</coordinates>
      </Point>
    </Placemark>
    <Placemark>
      <name>По течению Яузы</name>
      <styleUrl>#route-line</styleUrl>
      <LineString>
        <tessellate>1</tessellate>
        <altitudeMode>clampToGround</altitudeMode>
        <coordinates>
          37.6850720,55.8940360,0.0
          37.6850720,55.8940360,0.0
          37.6850680,55.8937610,0.0
          37.6850467,55.8934094,0.0
          37.6850380,55.8932650,0.0
          37.6849730,55.8929050,0.0
          37.6849370,55.8925590,0.0
          37.6849030,55.8922360,0.0
          37.6848920,55.8921610,0.0
          37.6848600,55.8920010,0.0
          37.6847840,55.8917700,0.0
          37.6846480,55.8914700,0.0
          37.6845610,55.8912790,0.0
          37.6845150,55.8911780,0.0
          37.6843020,55.8908510,0.0
          37.6842610,55.8907780,0.0
          37.6841870,55.8906790,0.0
          37.6839450,55.8904280,0.0
          37.6835770,55.8900990,0.0
          37.6834580,55.8900250,0.0
          37.6833410,55.8898460,0.0
          37.6831380,55.8895530,0.0
          37.6830960,55.8894920,0.0
          37.6826470,55.8889340,0.0
          37.6822850,55.8885660,0.0
          37.6820510,55.8883320,0.0
          37.6817910,55.8879940,0.0
          37.6815890,55.8877340,0.0
          37.6808960,55.8876850,0.0
          37.6808920,55.8876280,0.0
          37.6808540,55.8875760,0.0
          37.6807850,55.8875220,0.0
          37.6807030,55.8874810,0.0
          37.6805780,55.8874570,0.0
          37.6804220,55.8873450,0.0
          37.6803550,55.8872510,0.0
          37.6803560,55.8871790,0.0
          37.6796410,55.8872100,0.0
          37.6795670,55.8872310,0.0
          37.6795330,55.8871330,0.0
          37.6795070,55.8870680,0.0
          37.6809310,55.8869780,0.0
          37.6809590,55.8868030,0.0
          37.6809810,55.8866710,0.0
          37.6810790,55.8865180,0.0
          37.6810920,55.8864560,0.0
          37.6811090,55.8863790,0.0
          37.6810630,55.8861710,0.0
          37.6810190,55.8858680,0.0
          37.6808930,55.8856260,0.0
          37.6806860,55.8854550,0.0
          37.6804340,55.8852740,0.0
          37.6801230,55.8851020,0.0
          37.6799100,55.8849030,0.0
          37.6798410,55.8847840,0.0
          37.6797430,55.8847380,0.0
          37.6796510,55.8846930,0.0
          37.6795260,55.8846040,0.0
          37.6793750,55.8844910,0.0
          37.6792180,55.8843840,0.0
          37.6791260,55.8843250,0.0
          37.6789080,55.8841600,0.0
          37.6788960,55.8841480,0.0
          37.6788230,55.8840740,0.0
          37.6787560,55.8840270,0.0
          37.6785950,55.8838850,0.0
          37.6784700,55.8837370,0.0
          37.6783510,55.8836150,0.0
          37.6782240,55.8834390,0.0
          37.6781510,55.8833730,0.0
          37.6780500,55.8833370,0.0
          37.6778830,55.8832870,0.0
          37.6777400,55.8832500,0.0
          37.6776040,55.8832230,0.0
          37.6769550,55.8831470,0.0
          37.6768120,55.8831610,0.0
          37.6767020,55.8831880,0.0
          37.6764650,55.8833340,0.0
          37.6762890,55.8834270,0.0
          37.6761330,55.8835270,0.0
          37.6759820,55.8836210,0.0
          37.6758510,55.8836330,0.0
          37.6757440,55.8836490,0.0
          37.6756460,55.8836760,0.0
          37.6755590,55.8837100,0.0
          37.6754910,55.8837580,0.0
          37.6754150,55.8839060,0.0
          37.6753400,55.8840360,0.0
          37.6749516,55.8841094,0.0
          37.6749510,55.8841150,0.0
          37.6747870,55.8840540,0.0
          37.6746460,55.8839830,0.0
          37.6745120,55.8839090,0.0
          37.6744430,55.8838450,0.0
          37.6744030,55.8838010,0.0
          37.6743660,55.8837560,0.0
          37.6743230,55.8837060,0.0
          37.6739216,55.8837604,0.0
          37.6735354,55.8836520,0.0
          37.6732778,55.8834474,0.0
          37.6733100,55.8832729,0.0
          37.6736641,55.8831225,0.0
          37.6737821,55.8830804,0.0
          37.6735032,55.8829059,0.0
          37.6731169,55.8826591,0.0
          37.6723337,55.8824184,0.0
          37.6714969,55.8821777,0.0
          37.6714930,55.8821800,0.0
          37.6707137,55.8821416,0.0
          37.6708520,55.8821120,0.0
          37.6703703,55.8821777,0.0
          37.6691258,55.8820333,0.0
          37.6672804,55.8821536,0.0
          37.6660681,55.8822740,0.0
          37.6657677,55.8823763,0.0
          37.6650059,55.8825568,0.0
          37.6642978,55.8824004,0.0
          37.6642442,55.8822259,0.0
          37.6639008,55.8821597,0.0
          37.6634717,55.8822018,0.0
          37.6626349,55.8820634,0.0
          37.6608109,55.8816060,0.0
          37.6587725,55.8809681,0.0
          37.6587640,55.8809640,0.0
          37.6582570,55.8807150,0.0
          37.6581600,55.8806250,0.0
          37.6577740,55.8803600,0.0
          37.6574310,55.8800110,0.0
          37.6571630,55.8795830,0.0
          37.6569910,55.8790360,0.0
          37.6570550,55.8768890,0.0
          37.6570880,55.8763070,0.0
          37.6570880,55.8759610,0.0
          37.6571280,55.8751440,0.0
          37.6571320,55.8750640,0.0
          37.6569790,55.8748820,0.0
          37.6569690,55.8747400,0.0
          37.6570380,55.8746910,0.0
          37.6569320,55.8745800,0.0
          37.6569100,55.8744960,0.0
          37.6569890,55.8744470,0.0
          37.6574830,55.8744470,0.0
          37.6577480,55.8743130,0.0
          37.6580690,55.8741500,0.0
          37.6582720,55.8740570,0.0
          37.6585080,55.8737980,0.0
          37.6585410,55.8736050,0.0
          37.6584390,55.8733650,0.0
          37.6584150,55.8733080,0.0
          37.6581880,55.8729350,0.0
          37.6572900,55.8722970,0.0
          37.6569840,55.8722450,0.0
          37.6564320,55.8720720,0.0
          37.6569056,55.8718619,0.0
          37.6573455,55.8717596,0.0
          37.6568091,55.8713081,0.0
          37.6559615,55.8712600,0.0
          37.6546419,55.8707904,0.0
          37.6540518,55.8706399,0.0
          37.6535475,55.8706881,0.0
          37.6526463,55.8705015,0.0
          37.6519597,55.8703209,0.0
          37.6514018,55.8699838,0.0
          37.6510692,55.8697430,0.0
          37.6508117,55.8693156,0.0
          37.6503289,55.8684548,0.0
          37.6501358,55.8684006,0.0
          37.6495671,55.8686655,0.0
          37.6487625,55.8685330,0.0
          37.6484942,55.8684427,0.0
          37.6482046,55.8680755,0.0
          37.6482240,55.8680520,0.0
          37.6480030,55.8679110,0.0
          37.6479120,55.8677100,0.0
          37.6479870,55.8674540,0.0
          37.6479770,55.8673640,0.0
          37.6478050,55.8672460,0.0
          37.6477570,55.8671190,0.0
          37.6471660,55.8668870,0.0
          37.6469040,55.8668400,0.0
          37.6467960,55.8668290,0.0
          37.6465170,55.8666560,0.0
          37.6462640,55.8665890,0.0
          37.6459950,55.8664560,0.0
          37.6457420,55.8662590,0.0
          37.6452410,55.8660850,0.0
          37.6452400,55.8660480,0.0
          37.6452520,55.8657080,0.0
          37.6452430,55.8657080,0.0
          37.6429400,55.8657080,0.0
          37.6424754,55.8656795,0.0
          37.6418209,55.8654206,0.0
          37.6413274,55.8653905,0.0
          37.6415527,55.8655290,0.0
          37.6417029,55.8650715,0.0
          37.6413488,55.8649149,0.0
          37.6412094,55.8646199,0.0
          37.6403511,55.8643068,0.0
          37.6394928,55.8638433,0.0
          37.6393533,55.8636205,0.0
          37.6389778,55.8634941,0.0
          37.6386881,55.8632111,0.0
          37.6386237,55.8629462,0.0
          37.6384842,55.8625307,0.0
          37.6384628,55.8623381,0.0
          37.6384680,55.8623320,0.0
          37.6380760,55.8619910,0.0
          37.6378400,55.8616090,0.0
          37.6378440,55.8616090,0.0
          37.6371100,55.8613120,0.0
          37.6365640,55.8610390,0.0
          37.6362930,55.8609520,0.0
          37.6353000,55.8606520,0.0
          37.6353120,55.8606520,0.0
          37.6345570,55.8605450,0.0
          37.6344110,55.8604790,0.0
          37.6341940,55.8602850,0.0
          37.6341170,55.8602960,0.0
          37.6341280,55.8602960,0.0
          37.6340290,55.8603400,0.0
          37.6338600,55.8604100,0.0
          37.6336640,55.8604720,0.0
          37.6335260,55.8605220,0.0
          37.6333880,55.8605680,0.0
          37.6333950,55.8605620,0.0
          37.6333910,55.8604700,0.0
          37.6333740,55.8603460,0.0
          37.6330690,55.8599990,0.0
          37.6329290,55.8597540,0.0
          37.6328710,55.8596380,0.0
          37.6327480,55.8593400,0.0
          37.6326610,55.8591640,0.0
          37.6326520,55.8590330,0.0
          37.6327230,55.8585490,0.0
          37.6327320,55.8584920,0.0
          37.6327990,55.8580310,0.0
          37.6327210,55.8579630,0.0
          37.6327460,55.8578870,0.0
          37.6326150,55.8578550,0.0
          37.6323930,55.8578170,0.0
          37.6321490,55.8577360,0.0
          37.6319280,55.8576480,0.0
          37.6319150,55.8576430,0.0
          37.6322710,55.8575260,0.0
          37.6327260,55.8573330,0.0
          37.6328470,55.8571550,0.0
          37.6329470,55.8569350,0.0
          37.6330000,55.8567840,0.0
          37.6330760,55.8565470,0.0
          37.6333410,55.8563120,0.0
          37.6337870,55.8559420,0.0
          37.6342970,55.8556660,0.0
          37.6346110,55.8554560,0.0
          37.6346840,55.8553610,0.0
          37.6347360,55.8552400,0.0
          37.6347670,55.8550710,0.0
          37.6347370,55.8549250,0.0
          37.6347210,55.8547460,0.0
          37.6347610,55.8546680,0.0
          37.6348770,55.8546420,0.0
          37.6348430,55.8545690,0.0
          37.6349480,55.8544640,0.0
          37.6350890,55.8543400,0.0
          37.6354580,55.8540010,0.0
          37.6356230,55.8538430,0.0
          37.6356720,55.8537960,0.0
          37.6356760,55.8537960,0.0
          37.6356350,55.8537120,0.0
          37.6353990,55.8536510,0.0
          37.6351900,55.8536290,0.0
          37.6349450,55.8535820,0.0
          37.6347090,55.8535570,0.0
          37.6345020,55.8535090,0.0
          37.6343250,55.8535150,0.0
          37.6340640,55.8535650,0.0
          37.6339270,55.8536360,0.0
          37.6337560,55.8536880,0.0
          37.6335440,55.8537240,0.0
          37.6333340,55.8537730,0.0
          37.6330210,55.8538810,0.0
          37.6327670,55.8539730,0.0
          37.6324500,55.8540310,0.0
          37.6322290,55.8540740,0.0
          37.6317940,55.8541650,0.0
          37.6314800,55.8541820,0.0
          37.6312140,55.8541570,0.0
          37.6307140,55.8540140,0.0
          37.6305550,55.8539970,0.0
          37.6304220,55.8540590,0.0
          37.6303060,55.8541290,0.0
          37.6301240,55.8541740,0.0
          37.6299060,55.8541940,0.0
          37.6296700,55.8542420,0.0
          37.6292970,55.8542760,0.0
          37.6291170,55.8542440,0.0
          37.6290380,55.8542120,0.0
          37.6289550,55.8541320,0.0
          37.6289160,55.8540330,0.0
          37.6288940,55.8534770,0.0
          37.6288630,55.8533580,0.0
          37.6287980,55.8531310,0.0
          37.6287280,55.8530100,0.0
          37.6286280,55.8528770,0.0
          37.6285870,55.8527960,0.0
          37.6285970,55.8526940,0.0
          37.6286360,55.8525980,0.0
          37.6286750,55.8525330,0.0
          37.6287040,55.8524560,0.0
        </coordinates>
      </LineString>
    </Placemark>
  </Document>
</kml>
