<?xml version="1.0" encoding="UTF-8"?>
<kml xmlns="http://www.opengis.net/kml/2.2">
  <Document>
    <name>ZV01 по паркам Москвы</name>
    <description><![CDATA[<a href="https://www.mnogotrop.com/route/72927" target="_blank">Источник: mnogotrop.com/route/72927</a>
<p>Маршрут соединяет Сокольники, ВДНХ, Останкино, Свиблово и Лосиный остров, почти не выводя на оживленные дороги.</p>
<p>По пути есть Ростокинский акведук, вантовый мост, ВДНХ, усадьба Свиблово, Храм Воздуха и длинные прямые дорожки Лосиного острова.</p>
<p>Хороший выбор для полноценной городской покатушки на полдня с большим количеством зеленых зон и точек интереса.</p>]]></description>
    <Style id="route-line">
      <LineStyle>
        <color>ffd18802</color>
        <width>5</width>
      </LineStyle>
    </Style>
    <Style id="poi-point">
      <IconStyle>
        <color>ff3644db</color>
        <scale>1.0</scale>
        <Icon>
          <href>https://www.gstatic.com/mapspro/images/stock/503-wht-blank_maps.png</href>
        </Icon>
      </IconStyle>
    </Style>
    <Placemark>
      <name>Метро Сокольники</name>
      <description><![CDATA[<p><b>Адрес:</b> Сокольническая пл., 9к2, Москва, Россия, 107014</p>]]></description>
      <styleUrl>#poi-point</styleUrl>
      <Point>
        <coordinates>37.6795047,55.7896657,0.0</coordinates>
      </Point>
    </Placemark>
    <Placemark>
      <name>Дорожки под ЛЭП</name>
      <description><![CDATA[<p><b>Адрес:</b> Ростокинский пр-д, 3, Москва, Россия, 107014</p>]]></description>
      <styleUrl>#poi-point</styleUrl>
      <Point>
        <coordinates>37.6745719,55.8222033,0.0</coordinates>
      </Point>
    </Placemark>
    <Placemark>
      <name>Акведук</name>
      <description><![CDATA[<p><b>Адрес:</b> ул. Касаткина, 3Ас6, Москва, Россия, 129301</p>]]></description>
      <styleUrl>#poi-point</styleUrl>
      <Point>
        <coordinates>37.6550687,55.8288772,0.0</coordinates>
      </Point>
    </Placemark>
    <Placemark>
      <name>Крутой мостик</name>
      <description><![CDATA[<p><b>Адрес:</b> ул. Сельскохозяйственная, 12к6, Москва, Россия, 129226</p>]]></description>
      <styleUrl>#poi-point</styleUrl>
      <Point>
        <coordinates>37.6508377,55.8364481,0.0</coordinates>
      </Point>
    </Placemark>
    <Placemark>
      <name>ВДНХ</name>
      <description><![CDATA[<p><b>Адрес:</b> пр-т Мира, 119с628, Москва, Россия, 129223</p>]]></description>
      <styleUrl>#poi-point</styleUrl>
      <Point>
        <coordinates>37.6222227,55.8339107,0.0</coordinates>
      </Point>
    </Placemark>
    <Placemark>
      <name>Деревянная скульптура</name>
      <description><![CDATA[<p><b>Адрес:</b> 1-я Останкинская ул., вл7Ас23, Москва, Россия, 129223</p>]]></description>
      <styleUrl>#poi-point</styleUrl>
      <Point>
        <coordinates>37.6144766,55.8279046,0.0</coordinates>
      </Point>
    </Placemark>
    <Placemark>
      <name>Золотой ... колос</name>
      <description><![CDATA[<p><b>Адрес:</b> пр. Мира, 119с585, Москва, Россия, 129223</p>]]></description>
      <styleUrl>#poi-point</styleUrl>
      <Point>
        <coordinates>37.6183695,55.8385524,0.0</coordinates>
      </Point>
    </Placemark>
    <Placemark>
      <name>Усадьба Свиблово</name>
      <description><![CDATA[<p><b>Адрес:</b> Лазоревый пр-д, 18, Москва, Россия, 129323</p>]]></description>
      <styleUrl>#poi-point</styleUrl>
      <Point>
        <coordinates>37.6321634,55.8520974,0.0</coordinates>
      </Point>
    </Placemark>
    <Placemark>
      <name>Храм Воздуха</name>
      <description><![CDATA[<p><b>Адрес:</b> Лазоревый пр-д, 19, Москва, Россия, 129323</p>]]></description>
      <styleUrl>#poi-point</styleUrl>
      <Point>
        <coordinates>37.6348040,55.8545655,0.0</coordinates>
      </Point>
    </Placemark>
    <Placemark>
      <name>Собачья ...</name>
      <description><![CDATA[<p><b>Адрес:</b> Тенистый пр-д, 4, Москва, Россия, 129329</p>]]></description>
      <styleUrl>#poi-point</styleUrl>
      <Point>
        <coordinates>37.6343547,55.8611707,0.0</coordinates>
      </Point>
    </Placemark>
    <Placemark>
      <name>Бумажная просека</name>
      <description><![CDATA[<p><b>Адрес:</b> Бумажная просека, 21, Москва, Россия, 129347</p>]]></description>
      <styleUrl>#poi-point</styleUrl>
      <Point>
        <coordinates>37.7249777,55.8573529,0.0</coordinates>
      </Point>
    </Placemark>
    <Placemark>
      <name>ZV01 по паркам Москвы</name>
      <styleUrl>#route-line</styleUrl>
      <LineString>
        <tessellate>1</tessellate>
        <altitudeMode>clampToGround</altitudeMode>
        <coordinates>
          37.6796360,55.7894410,0.0
          37.6796360,55.7894410,0.0
          37.6795047,55.7896657,0.0
          37.6771402,55.7937122,0.0
          37.6771240,55.7937160,0.0
          37.6771280,55.7937060,0.0
          37.6773660,55.7937610,0.0
          37.6776410,55.7938530,0.0
          37.6778840,55.7939690,0.0
          37.6780910,55.7941050,0.0
          37.6782550,55.7942590,0.0
          37.6783730,55.7944260,0.0
          37.6784400,55.7946020,0.0
          37.6784550,55.7947810,0.0
          37.6784180,55.7949590,0.0
          37.6783160,55.7951360,0.0
          37.6783210,55.7951440,0.0
          37.6781670,55.7953170,0.0
          37.6779610,55.7954720,0.0
          37.6777110,55.7956040,0.0
          37.6775100,55.7956820,0.0
          37.6772930,55.7957440,0.0
          37.6770640,55.7957920,0.0
          37.6768340,55.7958220,0.0
          37.6765980,55.7958360,0.0
          37.6763620,55.7958340,0.0
          37.6759390,55.7957890,0.0
          37.6756450,55.7957230,0.0
          37.6753740,55.7956310,0.0
          37.6743800,55.7963360,0.0
          37.6743840,55.7963360,0.0
          37.6741780,55.7964880,0.0
          37.6707960,55.7989090,0.0
          37.6707350,55.7989540,0.0
          37.6661720,55.8023230,0.0
          37.6659370,55.8024970,0.0
          37.6657910,55.8026040,0.0
          37.6640370,55.8038880,0.0
          37.6633480,55.8044090,0.0
          37.6633400,55.8043960,0.0
          37.6633480,55.8044090,0.0
          37.6635450,55.8046070,0.0
          37.6639320,55.8048000,0.0
          37.6644920,55.8050220,0.0
          37.6646700,55.8051000,0.0
          37.6650440,55.8052600,0.0
          37.6652460,55.8053520,0.0
          37.6660580,55.8057320,0.0
          37.6666570,55.8059650,0.0
          37.6672090,55.8061980,0.0
          37.6674560,55.8062850,0.0
          37.6678440,55.8064370,0.0
          37.6684010,55.8064050,0.0
          37.6685411,55.8064396,0.0
          37.6685320,55.8064200,0.0
          37.6683420,55.8067080,0.0
          37.6682950,55.8068190,0.0
          37.6682400,55.8069470,0.0
          37.6678960,55.8074180,0.0
          37.6675910,55.8078370,0.0
          37.6673440,55.8081760,0.0
          37.6666780,55.8091460,0.0
          37.6657220,55.8105780,0.0
          37.6657320,55.8105720,0.0
          37.6657220,55.8105780,0.0
          37.6662719,55.8107353,0.0
          37.6680958,55.8111634,0.0
          37.6691258,55.8118507,0.0
          37.6700163,55.8122847,0.0
          37.6709712,55.8130142,0.0
          37.6716149,55.8137376,0.0
          37.6721406,55.8138883,0.0
          37.6731920,55.8147202,0.0
          37.6742434,55.8159861,0.0
          37.6746512,55.8164864,0.0
          37.6752734,55.8167577,0.0
          37.6767755,55.8174509,0.0
          37.6771939,55.8175112,0.0
          37.6790285,55.8171676,0.0
          37.6792645,55.8173966,0.0
          37.6802731,55.8170892,0.0
          37.6830196,55.8157751,0.0
          37.6836419,55.8156907,0.0
          37.6850045,55.8160645,0.0
          37.6885879,55.8174449,0.0
          37.6870751,55.8179391,0.0
          37.6870960,55.8179480,0.0
          37.6868284,55.8182948,0.0
          37.6847577,55.8190120,0.0
          37.6836634,55.8190844,0.0
          37.6832235,55.8192230,0.0
          37.6816142,55.8193134,0.0
          37.6777411,55.8201332,0.0
          37.6773333,55.8203200,0.0
          37.6766360,55.8206937,0.0
          37.6745719,55.8222033,0.0
          37.6737928,55.8227731,0.0
          37.6725376,55.8232251,0.0
          37.6710784,55.8243822,0.0
          37.6698339,55.8246233,0.0
          37.6692438,55.8250030,0.0
          37.6692438,55.8256297,0.0
          37.6673555,55.8262324,0.0
          37.6666474,55.8262264,0.0
          37.6660359,55.8265156,0.0
          37.6613367,55.8276064,0.0
          37.6583433,55.8279258,0.0
          37.6557684,55.8284501,0.0
          37.6552427,55.8286851,0.0
          37.6550687,55.8288772,0.0
          37.6549208,55.8290406,0.0
          37.6553178,55.8293118,0.0
          37.6550496,55.8296311,0.0
          37.6551568,55.8300349,0.0
          37.6561010,55.8310171,0.0
          37.6555431,55.8317161,0.0
          37.6554358,55.8323186,0.0
          37.6553392,55.8324391,0.0
          37.6552373,55.8327163,0.0
          37.6547867,55.8331833,0.0
          37.6540840,55.8336804,0.0
          37.6539659,55.8339364,0.0
          37.6538426,55.8342256,0.0
          37.6524103,55.8353252,0.0
          37.6516593,55.8356385,0.0
          37.6511443,55.8360723,0.0
          37.6510584,55.8363043,0.0
          37.6508377,55.8364481,0.0
          37.6507902,55.8364790,0.0
          37.6500177,55.8370935,0.0
          37.6504630,55.8377231,0.0
          37.6502860,55.8380966,0.0
          37.6497334,55.8379912,0.0
          37.6495349,55.8378225,0.0
          37.6488376,55.8377261,0.0
          37.6485479,55.8376327,0.0
          37.6485500,55.8376220,0.0
          37.6484520,55.8377020,0.0
          37.6481280,55.8378800,0.0
          37.6478250,55.8380080,0.0
          37.6470380,55.8382920,0.0
          37.6466010,55.8383610,0.0
          37.6460540,55.8385310,0.0
          37.6458610,55.8385960,0.0
          37.6447300,55.8389760,0.0
          37.6439040,55.8392590,0.0
          37.6438960,55.8392560,0.0
          37.6439600,55.8393890,0.0
          37.6439030,55.8394890,0.0
          37.6436170,55.8400350,0.0
          37.6435370,55.8401380,0.0
          37.6435260,55.8402220,0.0
          37.6435050,55.8403760,0.0
          37.6419660,55.8403640,0.0
          37.6418700,55.8403090,0.0
          37.6417310,55.8402790,0.0
          37.6413950,55.8403350,0.0
          37.6408350,55.8403560,0.0
          37.6402320,55.8404330,0.0
          37.6389800,55.8405040,0.0
          37.6383220,55.8405420,0.0
          37.6368050,55.8406150,0.0
          37.6367000,55.8406200,0.0
          37.6366560,55.8405160,0.0
          37.6365048,55.8403980,0.0
          37.6368320,55.8378406,0.0
          37.6366442,55.8378376,0.0
          37.6366520,55.8378240,0.0
          37.6364860,55.8378720,0.0
          37.6360740,55.8379820,0.0
          37.6358560,55.8380400,0.0
          37.6345120,55.8383920,0.0
          37.6343620,55.8384230,0.0
          37.6337970,55.8384980,0.0
          37.6335890,55.8385110,0.0
          37.6327070,55.8385610,0.0
          37.6323640,55.8386190,0.0
          37.6322160,55.8386650,0.0
          37.6320780,55.8386050,0.0
          37.6318560,55.8385080,0.0
          37.6316350,55.8384120,0.0
          37.6315290,55.8383580,0.0
          37.6308610,55.8380140,0.0
          37.6300810,55.8376170,0.0
          37.6279790,55.8365430,0.0
          37.6277600,55.8366780,0.0
          37.6266500,55.8361010,0.0
          37.6259840,55.8357700,0.0
          37.6258180,55.8357170,0.0
          37.6256750,55.8356710,0.0
          37.6239060,55.8347490,0.0
          37.6236360,55.8349130,0.0
          37.6231150,55.8349210,0.0
          37.6226830,55.8349280,0.0
          37.6223960,55.8347760,0.0
          37.6220440,55.8345890,0.0
          37.6220310,55.8343390,0.0
          37.6220150,55.8340350,0.0
          37.6222227,55.8339107,0.0
          37.6222440,55.8338980,0.0
          37.6216080,55.8335480,0.0
          37.6215450,55.8335180,0.0
          37.6208220,55.8331220,0.0
          37.6201640,55.8327940,0.0
          37.6200970,55.8328260,0.0
          37.6200160,55.8328450,0.0
          37.6199290,55.8328490,0.0
          37.6198440,55.8328380,0.0
          37.6197690,55.8328120,0.0
          37.6197120,55.8327750,0.0
          37.6196780,55.8327290,0.0
          37.6196710,55.8326800,0.0
          37.6197370,55.8325900,0.0
          37.6193690,55.8324030,0.0
          37.6189060,55.8321610,0.0
          37.6187500,55.8320590,0.0
          37.6186640,55.8319720,0.0
          37.6186110,55.8318760,0.0
          37.6185290,55.8316480,0.0
          37.6183580,55.8312520,0.0
          37.6182800,55.8311030,0.0
          37.6181960,55.8309610,0.0
          37.6180130,55.8306830,0.0
          37.6179750,55.8306070,0.0
          37.6179300,55.8304910,0.0
          37.6178820,55.8303150,0.0
          37.6178440,55.8302680,0.0
          37.6178400,55.8302680,0.0
          37.6175830,55.8300430,0.0
          37.6175900,55.8299580,0.0
          37.6173570,55.8299110,0.0
          37.6172820,55.8298670,0.0
          37.6173240,55.8298340,0.0
          37.6173400,55.8297520,0.0
          37.6173310,55.8296640,0.0
          37.6173040,55.8295610,0.0
          37.6172740,55.8294850,0.0
          37.6171730,55.8293300,0.0
          37.6170350,55.8291890,0.0
          37.6169410,55.8291170,0.0
          37.6167060,55.8289430,0.0
          37.6166460,55.8289050,0.0
          37.6165810,55.8288280,0.0
          37.6164730,55.8284380,0.0
          37.6164420,55.8283360,0.0
          37.6164070,55.8282730,0.0
          37.6163680,55.8282260,0.0
          37.6163010,55.8281820,0.0
          37.6161590,55.8281380,0.0
          37.6160660,55.8281320,0.0
          37.6159810,55.8281320,0.0
          37.6158640,55.8281590,0.0
          37.6152670,55.8280470,0.0
          37.6146690,55.8279320,0.0
          37.6145240,55.8279080,0.0
          37.6144766,55.8279046,0.0
          37.6141920,55.8278840,0.0
          37.6140450,55.8278380,0.0
          37.6137970,55.8277720,0.0
          37.6130140,55.8278414,0.0
          37.6124239,55.8277932,0.0
          37.6096344,55.8279077,0.0
          37.6090336,55.8278776,0.0
          37.6078534,55.8282693,0.0
          37.6078440,55.8282640,0.0
          37.6079030,55.8283730,0.0
          37.6079250,55.8285160,0.0
          37.6081500,55.8299760,0.0
          37.6081450,55.8300390,0.0
          37.6081070,55.8301090,0.0
          37.6081290,55.8302830,0.0
          37.6081390,55.8304800,0.0
          37.6080750,55.8306750,0.0
          37.6080110,55.8308140,0.0
          37.6080000,55.8309760,0.0
          37.6079460,55.8310850,0.0
          37.6078930,55.8312900,0.0
          37.6078500,55.8314580,0.0
          37.6077430,55.8318020,0.0
          37.6077430,55.8319040,0.0
          37.6076360,55.8319510,0.0
          37.6099133,55.8336924,0.0
          37.6089477,55.8343311,0.0
          37.6124775,55.8369459,0.0
          37.6124239,55.8363193,0.0
          37.6133895,55.8357590,0.0
          37.6133890,55.8357640,0.0
          37.6142263,55.8359940,0.0
          37.6150417,55.8366146,0.0
          37.6167905,55.8371447,0.0
          37.6187539,55.8381629,0.0
          37.6183695,55.8385524,0.0
          37.6177669,55.8391630,0.0
          37.6198697,55.8395606,0.0
          37.6204812,55.8395907,0.0
          37.6244938,55.8405124,0.0
          37.6250088,55.8404522,0.0
          37.6252878,55.8401148,0.0
          37.6258779,55.8384280,0.0
          37.6278520,55.8398558,0.0
          37.6291609,55.8402353,0.0
          37.6290321,55.8404341,0.0
          37.6308024,55.8416269,0.0
          37.6309526,55.8420245,0.0
          37.6305986,55.8428980,0.0
          37.6297080,55.8438919,0.0
          37.6267683,55.8456809,0.0
          37.6265860,55.8473614,0.0
          37.6272619,55.8473734,0.0
          37.6312959,55.8499452,0.0
          37.6317573,55.8500356,0.0
          37.6315963,55.8502102,0.0
          37.6317573,55.8511618,0.0
          37.6320684,55.8514810,0.0
          37.6321542,55.8520953,0.0
          37.6321634,55.8520974,0.0
          37.6329589,55.8522820,0.0
          37.6345468,55.8530528,0.0
          37.6346433,55.8533961,0.0
          37.6361024,55.8535647,0.0
          37.6370466,55.8538839,0.0
          37.6374650,55.8541127,0.0
          37.6366603,55.8541790,0.0
          37.6366121,55.8542723,0.0
          37.6367730,55.8546848,0.0
          37.6364082,55.8547180,0.0
          37.6360381,55.8551244,0.0
          37.6356304,55.8552810,0.0
          37.6348043,55.8562114,0.0
          37.6344287,55.8563920,0.0
          37.6333880,55.8560880,0.0
          37.6330286,55.8561060,0.0
          37.6330018,55.8559645,0.0
          37.6335490,55.8550251,0.0
          37.6334202,55.8547722,0.0
          37.6330555,55.8544711,0.0
          37.6331627,55.8542904,0.0
          37.6334846,55.8542753,0.0
          37.6336992,55.8541880,0.0
          37.6339996,55.8542151,0.0
          37.6343268,55.8543928,0.0
          37.6343320,55.8543920,0.0
          37.6342680,55.8544520,0.0
          37.6342190,55.8545210,0.0
          37.6342000,55.8546100,0.0
          37.6342250,55.8546960,0.0
          37.6342800,55.8547660,0.0
          37.6343740,55.8548320,0.0
          37.6345010,55.8548840,0.0
          37.6346500,55.8549140,0.0
          37.6347370,55.8549250,0.0
          37.6347280,55.8548320,0.0
          37.6347210,55.8547460,0.0
          37.6347750,55.8546770,0.0
          37.6348520,55.8546610,0.0
          37.6348860,55.8546200,0.0
          37.6348580,55.8545760,0.0
          37.6348040,55.8545655,0.0
          37.6347550,55.8545560,0.0
          37.6346900,55.8545860,0.0
          37.6346790,55.8546380,0.0
          37.6347750,55.8546770,0.0
          37.6347210,55.8547460,0.0
          37.6347370,55.8549250,0.0
          37.6347600,55.8551090,0.0
          37.6347360,55.8552400,0.0
          37.6346840,55.8553610,0.0
          37.6346110,55.8554560,0.0
          37.6342970,55.8556660,0.0
          37.6337870,55.8559420,0.0
          37.6333410,55.8563120,0.0
          37.6330760,55.8565470,0.0
          37.6329470,55.8569350,0.0
          37.6328470,55.8571550,0.0
          37.6327000,55.8573430,0.0
          37.6327080,55.8573430,0.0
          37.6322710,55.8575260,0.0
          37.6319150,55.8576430,0.0
          37.6321490,55.8577360,0.0
          37.6323930,55.8578170,0.0
          37.6326150,55.8578550,0.0
          37.6327460,55.8578870,0.0
          37.6327210,55.8579630,0.0
          37.6327990,55.8580310,0.0
          37.6327870,55.8580960,0.0
          37.6327230,55.8585490,0.0
          37.6326520,55.8590330,0.0
          37.6326610,55.8591640,0.0
          37.6327480,55.8593400,0.0
          37.6328710,55.8596380,0.0
          37.6329290,55.8597540,0.0
          37.6330690,55.8599990,0.0
          37.6333740,55.8603460,0.0
          37.6333910,55.8604700,0.0
          37.6333950,55.8605620,0.0
          37.6337530,55.8607910,0.0
          37.6339930,55.8609450,0.0
          37.6339937,55.8609454,0.0
          37.6343547,55.8611707,0.0
          37.6345940,55.8613200,0.0
          37.6344120,55.8615000,0.0
          37.6331800,55.8627000,0.0
          37.6332325,55.8630877,0.0
          37.6334578,55.8633014,0.0
          37.6342142,55.8636566,0.0
          37.6345629,55.8636897,0.0
          37.6345682,55.8638944,0.0
          37.6357269,55.8640871,0.0
          37.6357010,55.8640710,0.0
          37.6363277,55.8645838,0.0
          37.6377869,55.8655621,0.0
          37.6399970,55.8667120,0.0
          37.6407534,55.8668474,0.0
          37.6409197,55.8668805,0.0
          37.6409160,55.8668800,0.0
          37.6410320,55.8668560,0.0
          37.6411090,55.8667750,0.0
          37.6412070,55.8667110,0.0
          37.6413580,55.8667450,0.0
          37.6418920,55.8666200,0.0
          37.6419120,55.8666080,0.0
          37.6424410,55.8664950,0.0
          37.6429540,55.8664340,0.0
          37.6435210,55.8665030,0.0
          37.6440370,55.8666190,0.0
          37.6441200,55.8666350,0.0
          37.6442590,55.8666440,0.0
          37.6452380,55.8665910,0.0
          37.6453180,55.8666470,0.0
          37.6453600,55.8667210,0.0
          37.6453930,55.8667810,0.0
          37.6459070,55.8669330,0.0
          37.6465420,55.8669960,0.0
          37.6466900,55.8670570,0.0
          37.6467500,55.8671710,0.0
          37.6467100,55.8674420,0.0
          37.6471430,55.8674670,0.0
          37.6473240,55.8674960,0.0
          37.6475960,55.8675750,0.0
          37.6477270,55.8676640,0.0
          37.6478900,55.8678800,0.0
          37.6482570,55.8682430,0.0
          37.6485280,55.8685180,0.0
          37.6488590,55.8688370,0.0
          37.6490720,55.8688960,0.0
          37.6492720,55.8687920,0.0
          37.6493930,55.8687470,0.0
          37.6495920,55.8686730,0.0
          37.6498080,55.8685790,0.0
          37.6498770,55.8685390,0.0
          37.6501230,55.8684050,0.0
          37.6502120,55.8684380,0.0
          37.6503280,55.8684840,0.0
          37.6504000,55.8685880,0.0
          37.6506980,55.8690630,0.0
          37.6507860,55.8692790,0.0
          37.6511710,55.8695030,0.0
          37.6514850,55.8696240,0.0
          37.6519300,55.8696980,0.0
          37.6523660,55.8697500,0.0
          37.6526940,55.8698460,0.0
          37.6529000,55.8699840,0.0
          37.6531110,55.8702250,0.0
          37.6534540,55.8704450,0.0
          37.6535880,55.8705000,0.0
          37.6535760,55.8704880,0.0
          37.6539720,55.8706470,0.0
          37.6542550,55.8706870,0.0
          37.6545130,55.8707650,0.0
          37.6549940,55.8709340,0.0
          37.6556390,55.8712240,0.0
          37.6558720,55.8712520,0.0
          37.6559930,55.8712680,0.0
          37.6563660,55.8712840,0.0
          37.6566660,55.8712990,0.0
          37.6568810,55.8713820,0.0
          37.6569720,55.8714440,0.0
          37.6571670,55.8715760,0.0
          37.6573450,55.8717680,0.0
          37.6576550,55.8719890,0.0
          37.6582080,55.8724330,0.0
          37.6583230,55.8725860,0.0
          37.6586700,55.8729210,0.0
          37.6589680,55.8731480,0.0
          37.6591010,55.8733150,0.0
          37.6591540,55.8734580,0.0
          37.6590870,55.8737320,0.0
          37.6590900,55.8739990,0.0
          37.6589590,55.8742890,0.0
          37.6589340,55.8746160,0.0
          37.6589220,55.8747140,0.0
          37.6589480,55.8749120,0.0
          37.6589760,55.8751300,0.0
          37.6589440,55.8753250,0.0
          37.6590510,55.8757200,0.0
          37.6589440,55.8762490,0.0
          37.6589630,55.8764890,0.0
          37.6589890,55.8767930,0.0
          37.6589760,55.8768520,0.0
          37.6589580,55.8769530,0.0
          37.6589540,55.8770540,0.0
          37.6589660,55.8771880,0.0
          37.6590050,55.8773390,0.0
          37.6591910,55.8777040,0.0
          37.6594050,55.8780180,0.0
          37.6592350,55.8782200,0.0
          37.6593560,55.8783170,0.0
          37.6595400,55.8785480,0.0
          37.6596810,55.8787300,0.0
          37.6598410,55.8790450,0.0
          37.6598290,55.8792270,0.0
          37.6597560,55.8794160,0.0
          37.6597820,55.8795380,0.0
          37.6600910,55.8801210,0.0
          37.6601570,55.8801950,0.0
          37.6602210,55.8802610,0.0
          37.6603770,55.8803470,0.0
          37.6605530,55.8804090,0.0
          37.6606920,55.8804240,0.0
          37.6608770,55.8804020,0.0
          37.6610460,55.8804690,0.0
          37.6615080,55.8806480,0.0
          37.6616210,55.8806462,0.0
          37.6625490,55.8797495,0.0
          37.6633805,55.8791236,0.0
          37.6633880,55.8791200,0.0
          37.6638955,55.8792560,0.0
          37.6640830,55.8793120,0.0
          37.6642360,55.8793840,0.0
          37.6643720,55.8793930,0.0
          37.6643050,55.8794890,0.0
          37.6643020,55.8795370,0.0
          37.6643800,55.8796010,0.0
          37.6644190,55.8796570,0.0
          37.6643960,55.8797080,0.0
          37.6643200,55.8798630,0.0
          37.6641110,55.8802730,0.0
          37.6640020,55.8804110,0.0
          37.6636290,55.8805630,0.0
          37.6638840,55.8806400,0.0
          37.6642174,55.8810494,0.0
          37.6645285,55.8811968,0.0
          37.6655638,55.8812931,0.0
          37.6657516,55.8814104,0.0
          37.6659071,55.8814405,0.0
          37.6658696,55.8818437,0.0
          37.6667011,55.8818227,0.0
          37.6670283,55.8817504,0.0
          37.6675004,55.8817986,0.0
          37.6691473,55.8817354,0.0
          37.6699144,55.8817986,0.0
          37.6702845,55.8818979,0.0
          37.6714164,55.8819490,0.0
          37.6720118,55.8819370,0.0
          37.6731116,55.8822740,0.0
          37.6744902,55.8830473,0.0
          37.6748389,55.8831074,0.0
          37.6749140,55.8832880,0.0
          37.6747745,55.8835467,0.0
          37.6743239,55.8837182,0.0
          37.6745439,55.8839288,0.0
          37.6749945,55.8841364,0.0
          37.6754719,55.8840883,0.0
          37.6754740,55.8840730,0.0
          37.6755810,55.8840760,0.0
          37.6756730,55.8840820,0.0
          37.6758760,55.8840710,0.0
          37.6760800,55.8840630,0.0
          37.6762050,55.8840500,0.0
          37.6763170,55.8840360,0.0
          37.6764180,55.8840260,0.0
          37.6765710,55.8840050,0.0
          37.6766890,55.8839760,0.0
          37.6768300,55.8839240,0.0
          37.6770790,55.8839060,0.0
          37.6774090,55.8839550,0.0
          37.6775810,55.8839990,0.0
          37.6777780,55.8840970,0.0
          37.6781150,55.8842530,0.0
          37.6783590,55.8843640,0.0
          37.6786380,55.8844390,0.0
          37.6788440,55.8845060,0.0
          37.6789150,55.8845380,0.0
          37.6792900,55.8847150,0.0
          37.6795430,55.8848540,0.0
          37.6796640,55.8848670,0.0
          37.6798690,55.8847980,0.0
          37.6801230,55.8847200,0.0
          37.6803480,55.8847260,0.0
          37.6804550,55.8847420,0.0
          37.6805700,55.8847980,0.0
          37.6806880,55.8848590,0.0
          37.6808520,55.8849800,0.0
          37.6809740,55.8850840,0.0
          37.6812320,55.8852830,0.0
          37.6813770,55.8854420,0.0
          37.6815440,55.8857030,0.0
          37.6815930,55.8857810,0.0
          37.6817240,55.8859910,0.0
          37.6818100,55.8860980,0.0
          37.6819970,55.8861550,0.0
          37.6821610,55.8864970,0.0
          37.6823400,55.8866480,0.0
          37.6824800,55.8867670,0.0
          37.6825160,55.8868380,0.0
          37.6829610,55.8867690,0.0
          37.6833100,55.8867050,0.0
          37.6834960,55.8866720,0.0
          37.6835650,55.8866360,0.0
          37.6835110,55.8865610,0.0
          37.6834240,55.8864700,0.0
          37.6831430,55.8862940,0.0
          37.6831480,55.8862030,0.0
          37.6836200,55.8860540,0.0
          37.6837330,55.8859760,0.0
          37.6837710,55.8859030,0.0
          37.6841720,55.8859100,0.0
          37.6856640,55.8855680,0.0
          37.6858740,55.8854650,0.0
          37.6858480,55.8853480,0.0
          37.6858440,55.8853480,0.0
          37.6856589,55.8850691,0.0
          37.6862758,55.8849368,0.0
          37.6863188,55.8848315,0.0
          37.6861095,55.8845516,0.0
          37.6864743,55.8844794,0.0
          37.6864520,55.8844740,0.0
          37.6868160,55.8850120,0.0
          37.6869440,55.8851850,0.0
          37.6870390,55.8853140,0.0
          37.6872710,55.8856170,0.0
          37.6875690,55.8860340,0.0
          37.6876880,55.8861840,0.0
          37.6878120,55.8863130,0.0
          37.6879250,55.8864030,0.0
          37.6880520,55.8864760,0.0
          37.6882720,55.8865770,0.0
          37.6885090,55.8866620,0.0
          37.6906460,55.8872640,0.0
          37.6908590,55.8872930,0.0
          37.6911910,55.8873140,0.0
          37.6924100,55.8872950,0.0
          37.6926210,55.8872880,0.0
          37.6932430,55.8872780,0.0
          37.6933460,55.8872760,0.0
          37.6934610,55.8872730,0.0
          37.6935850,55.8872700,0.0
          37.6942600,55.8872540,0.0
          37.6946840,55.8872440,0.0
          37.6947770,55.8872410,0.0
          37.6952570,55.8872310,0.0
          37.6963270,55.8872160,0.0
          37.6964590,55.8872130,0.0
          37.6972220,55.8871970,0.0
          37.6986130,55.8871670,0.0
          37.6997670,55.8871480,0.0
          37.7007890,55.8871230,0.0
          37.7010450,55.8871170,0.0
          37.7011960,55.8871130,0.0
          37.7016540,55.8871010,0.0
          37.7020910,55.8870890,0.0
          37.7030740,55.8870650,0.0
          37.7032310,55.8870610,0.0
          37.7044710,55.8870300,0.0
          37.7049480,55.8870160,0.0
          37.7056400,55.8869980,0.0
          37.7059500,55.8869840,0.0
          37.7061260,55.8869640,0.0
          37.7062670,55.8869320,0.0
          37.7064340,55.8868690,0.0
          37.7065730,55.8867970,0.0
          37.7074920,55.8863080,0.0
          37.7074800,55.8863080,0.0
          37.7081060,55.8859820,0.0
          37.7082080,55.8859290,0.0
          37.7088160,55.8856130,0.0
          37.7090990,55.8854660,0.0
          37.7098790,55.8850610,0.0
          37.7102700,55.8848630,0.0
          37.7105600,55.8847160,0.0
          37.7110450,55.8844710,0.0
          37.7116120,55.8841830,0.0
          37.7121030,55.8839330,0.0
          37.7124720,55.8837460,0.0
          37.7127750,55.8835920,0.0
          37.7130880,55.8834380,0.0
          37.7131540,55.8834020,0.0
          37.7132820,55.8833330,0.0
          37.7136750,55.8831340,0.0
          37.7140860,55.8829210,0.0
          37.7142130,55.8828360,0.0
          37.7142570,55.8827640,0.0
          37.7142010,55.8826770,0.0
          37.7142920,55.8826050,0.0
          37.7143620,55.8825700,0.0
          37.7144810,55.8825390,0.0
          37.7149540,55.8823140,0.0
          37.7149550,55.8822630,0.0
          37.7150230,55.8822330,0.0
          37.7151430,55.8822490,0.0
          37.7153530,55.8821350,0.0
          37.7155000,55.8820570,0.0
          37.7172000,55.8812700,0.0
          37.7182490,55.8807810,0.0
          37.7193330,55.8800960,0.0
          37.7199220,55.8797240,0.0
          37.7200440,55.8796470,0.0
          37.7200160,55.8796280,0.0
          37.7201361,55.8795358,0.0
          37.7201199,55.8794847,0.0
          37.7206564,55.8791356,0.0
          37.7189773,55.8777815,0.0
          37.7191168,55.8778958,0.0
          37.7201468,55.8774836,0.0
          37.7198732,55.8772489,0.0
          37.7201414,55.8774264,0.0
          37.7178401,55.8754402,0.0
          37.7158606,55.8737098,0.0
          37.7123630,55.8707784,0.0
          37.7148414,55.8698634,0.0
          37.7152169,55.8696467,0.0
          37.7239180,55.8656133,0.0
          37.7249777,55.8573529,0.0
          37.7268696,55.8426024,0.0
          37.7288532,55.8271303,0.0
          37.7085114,55.8261420,0.0
          37.7079427,55.8260456,0.0
          37.7078354,55.8257623,0.0
          37.7065265,55.8260395,0.0
          37.7064514,55.8261721,0.0
          37.7056146,55.8260938,0.0
          37.6919782,55.8256297,0.0
          37.6919800,55.8256290,0.0
          37.6918470,55.8252300,0.0
          37.6917810,55.8250360,0.0
          37.6917700,55.8249640,0.0
          37.6917870,55.8241440,0.0
          37.6917950,55.8237350,0.0
          37.6915710,55.8229230,0.0
          37.6914150,55.8222750,0.0
          37.6914200,55.8221810,0.0
          37.6914260,55.8220710,0.0
          37.6914920,55.8218820,0.0
          37.6915490,55.8217500,0.0
          37.6916440,55.8216170,0.0
          37.6919010,55.8213930,0.0
          37.6921210,55.8212380,0.0
          37.6927000,55.8208300,0.0
          37.6927440,55.8207910,0.0
          37.6929040,55.8206520,0.0
          37.6930080,55.8205450,0.0
          37.6930830,55.8204230,0.0
          37.6931270,55.8202890,0.0
          37.6931510,55.8201550,0.0
          37.6931720,55.8198630,0.0
          37.6931050,55.8195570,0.0
          37.6928630,55.8189730,0.0
          37.6927610,55.8187740,0.0
          37.6925020,55.8181900,0.0
          37.6920760,55.8180320,0.0
          37.6918990,55.8179730,0.0
          37.6912800,55.8178630,0.0
          37.6890080,55.8175150,0.0
          37.6889200,55.8174850,0.0
          37.6887990,55.8174380,0.0
          37.6886370,55.8173750,0.0
          37.6885250,55.8173330,0.0
          37.6883650,55.8172780,0.0
          37.6882160,55.8172240,0.0
          37.6880090,55.8171570,0.0
          37.6879330,55.8171290,0.0
          37.6875040,55.8169580,0.0
          37.6872960,55.8168750,0.0
          37.6869040,55.8167120,0.0
          37.6858770,55.8163200,0.0
          37.6851200,55.8159920,0.0
          37.6850280,55.8158590,0.0
          37.6849480,55.8157080,0.0
          37.6849440,55.8157080,0.0
          37.6848900,55.8156030,0.0
          37.6848340,55.8153890,0.0
          37.6848100,55.8152730,0.0
          37.6840420,55.8134190,0.0
          37.6837800,55.8127160,0.0
          37.6831650,55.8110780,0.0
          37.6825270,55.8095510,0.0
          37.6815130,55.8071270,0.0
          37.6814720,55.8070270,0.0
          37.6814480,55.8069770,0.0
          37.6813260,55.8066730,0.0
          37.6811200,55.8061440,0.0
          37.6811240,55.8061440,0.0
          37.6807960,55.8053330,0.0
          37.6799710,55.8032940,0.0
          37.6797370,55.8026910,0.0
          37.6789310,55.8007540,0.0
          37.6788530,55.8005670,0.0
          37.6786980,55.8001950,0.0
          37.6774360,55.7967940,0.0
          37.6770640,55.7957920,0.0
          37.6769880,55.7958080,0.0
          37.6768340,55.7958220,0.0
          37.6765980,55.7958360,0.0
          37.6763620,55.7958340,0.0
          37.6759390,55.7957890,0.0
          37.6756450,55.7957230,0.0
          37.6753740,55.7956310,0.0
          37.6751180,55.7955070,0.0
          37.6749040,55.7953600,0.0
          37.6747780,55.7952410,0.0
          37.6746800,55.7951130,0.0
          37.6746110,55.7949800,0.0
          37.6745700,55.7948190,0.0
          37.6745720,55.7947000,0.0
          37.6746150,55.7944960,0.0
          37.6747020,55.7943400,0.0
          37.6748440,55.7941790,0.0
          37.6750310,55.7940330,0.0
          37.6752580,55.7939060,0.0
          37.6755190,55.7938020,0.0
          37.6757710,55.7937310,0.0
          37.6760390,55.7936820,0.0
          37.6763170,55.7936550,0.0
          37.6765990,55.7936510,0.0
          37.6768790,55.7936690,0.0
          37.6771280,55.7937060,0.0
          37.6773560,55.7933040,0.0
          37.6773600,55.7933040,0.0
          37.6795971,55.7894176,0.0
        </coordinates>
      </LineString>
    </Placemark>
  </Document>
</kml>
