<?xml version="1.0" encoding="UTF-8"?>
<kml xmlns="http://www.opengis.net/kml/2.2">
  <Document>
    <name>Набережные Москвы-реки</name>
    <description><![CDATA[<a href="https://www.mnogotrop.com/route/76189" target="_blank">Источник: mnogotrop.com/route/76189</a>
<p>Центральный маршрут по набережным Москвы-реки с видами на Кремль, Красный Октябрь, Парк Горького, Лужники и Воробьевы горы.</p>
<p>Большая часть пути проходит по асфальту и велодорожкам у воды, поэтому маршрут удобен для спокойной городской прогулки.</p>
<p>Особенности: в центре и у популярных парков может быть много пешеходов, скорость лучше держать прогулочную.</p>]]></description>
    <Style id="route-line">
      <LineStyle>
        <color>ffd18802</color>
        <width>5</width>
      </LineStyle>
    </Style>
    <Style id="poi-point">
      <IconStyle>
        <color>ff3644db</color>
        <scale>1.0</scale>
        <Icon>
          <href>https://www.gstatic.com/mapspro/images/stock/503-wht-blank_maps.png</href>
        </Icon>
      </IconStyle>
    </Style>
    <Placemark>
      <name>Точка маршрута</name>
      <description><![CDATA[<p><b>Адрес:</b> Верхняя Сыромятническая ул., Москва, Россия, 105064</p>]]></description>
      <styleUrl>#poi-point</styleUrl>
      <Point>
        <coordinates>37.6572960,55.7545680,0.0</coordinates>
      </Point>
    </Placemark>
    <Placemark>
      <name>Точка маршрута</name>
      <description><![CDATA[<p><b>Адрес:</b> ул. Воронцово Поле, 2, Москва, Россия, 109028</p>]]></description>
      <styleUrl>#poi-point</styleUrl>
      <Point>
        <coordinates>37.6474360,55.7528720,0.0</coordinates>
      </Point>
    </Placemark>
    <Placemark>
      <name>Точка маршрута</name>
      <description><![CDATA[<p><b>Адрес:</b> Москворецкая наб., 9, Москва, Россия, 109240</p>]]></description>
      <styleUrl>#poi-point</styleUrl>
      <Point>
        <coordinates>37.6387760,55.7480880,0.0</coordinates>
      </Point>
    </Placemark>
    <Placemark>
      <name>Без названия</name>
      <description><![CDATA[<p><b>Адрес:</b> Москворецкая наб., Москва, Россия, 115035</p>]]></description>
      <styleUrl>#poi-point</styleUrl>
      <Point>
        <coordinates>37.6252160,55.7497560,0.0</coordinates>
      </Point>
    </Placemark>
    <Placemark>
      <name>Точка маршрута</name>
      <description><![CDATA[<p><b>Адрес:</b> Кремлевская наб., 2, Москва, Россия, 111395</p>]]></description>
      <styleUrl>#poi-point</styleUrl>
      <Point>
        <coordinates>37.6133800,55.7480080,0.0</coordinates>
      </Point>
    </Placemark>
    <Placemark>
      <name>Точка маршрута</name>
      <description><![CDATA[<p><b>Адрес:</b> Пречистенская наб., 45/1с1, Москва, Россия, 119019</p>]]></description>
      <styleUrl>#poi-point</styleUrl>
      <Point>
        <coordinates>37.6081800,55.7448120,0.0</coordinates>
      </Point>
    </Placemark>
    <Placemark>
      <name>Точка маршрута</name>
      <description><![CDATA[<p><b>Адрес:</b> Пречистенская наб., 17/19, Москва, Россия, 119034</p>]]></description>
      <styleUrl>#poi-point</styleUrl>
      <Point>
        <coordinates>37.6060160,55.7396360,0.0</coordinates>
      </Point>
    </Placemark>
    <Placemark>
      <name>Точка маршрута</name>
      <description><![CDATA[<p><b>Адрес:</b> Крымский пр-д, Москва, Россия</p>]]></description>
      <styleUrl>#poi-point</styleUrl>
      <Point>
        <coordinates>37.5950040,55.7349080,0.0</coordinates>
      </Point>
    </Placemark>
    <Placemark>
      <name>Точка маршрута</name>
      <description><![CDATA[<p><b>Адрес:</b> ул. Крымский Вал, 9с1, Москва, Россия, 119049</p>]]></description>
      <styleUrl>#poi-point</styleUrl>
      <Point>
        <coordinates>37.6042690,55.7321040,0.0</coordinates>
      </Point>
    </Placemark>
    <Placemark>
      <name>Точка маршрута</name>
      <description><![CDATA[<p><b>Адрес:</b> ул. Крымский Вал, 9с64, Москва, Россия, 119049</p>]]></description>
      <styleUrl>#poi-point</styleUrl>
      <Point>
        <coordinates>37.5980960,55.7301400,0.0</coordinates>
      </Point>
    </Placemark>
    <Placemark>
      <name>Точка маршрута</name>
      <description><![CDATA[<p><b>Адрес:</b> Пушкинская наб., Москва, Россия, 119049</p>]]></description>
      <styleUrl>#poi-point</styleUrl>
      <Point>
        <coordinates>37.5954000,55.7265320,0.0</coordinates>
      </Point>
    </Placemark>
    <Placemark>
      <name>Точка маршрута</name>
      <description><![CDATA[<p><b>Адрес:</b> Пушкинская наб., Москва, Россия</p>]]></description>
      <styleUrl>#poi-point</styleUrl>
      <Point>
        <coordinates>37.5919640,55.7229000,0.0</coordinates>
      </Point>
    </Placemark>
    <Placemark>
      <name>Точка маршрута</name>
      <description><![CDATA[<p><b>Адрес:</b> Пушкинская наб., Москва, Россия</p>]]></description>
      <styleUrl>#poi-point</styleUrl>
      <Point>
        <coordinates>37.5877520,55.7197040,0.0</coordinates>
      </Point>
    </Placemark>
    <Placemark>
      <name>Точка маршрута</name>
      <description><![CDATA[<p><b>Адрес:</b> Пушкинская наб., 8А, Москва, Россия, 119334</p>]]></description>
      <styleUrl>#poi-point</styleUrl>
      <Point>
        <coordinates>37.5826560,55.7157040,0.0</coordinates>
      </Point>
    </Placemark>
    <Placemark>
      <name>Точка маршрута</name>
      <description><![CDATA[<p><b>Адрес:</b> Андреевская наб., 1, Москва, Россия, 119334</p>]]></description>
      <styleUrl>#poi-point</styleUrl>
      <Point>
        <coordinates>37.5772160,55.7132560,0.0</coordinates>
      </Point>
    </Placemark>
    <Placemark>
      <name>Точка маршрута</name>
      <description><![CDATA[<p><b>Адрес:</b> Андреевская наб., 2с5, Москва, Россия, 119334</p>]]></description>
      <styleUrl>#poi-point</styleUrl>
      <Point>
        <coordinates>37.5713400,55.7113160,0.0</coordinates>
      </Point>
    </Placemark>
    <Placemark>
      <name>Точка маршрута</name>
      <description><![CDATA[<p><b>Адрес:</b> Андреевская наб., 2с5, Москва, Россия, 119334</p>]]></description>
      <styleUrl>#poi-point</styleUrl>
      <Point>
        <coordinates>37.5658440,55.7099480,0.0</coordinates>
      </Point>
    </Placemark>
    <Placemark>
      <name>Точка маршрута</name>
      <description><![CDATA[<p><b>Адрес:</b> Андреевская наб., Москва, Россия, 119270</p>]]></description>
      <styleUrl>#poi-point</styleUrl>
      <Point>
        <coordinates>37.5590560,55.7095960,0.0</coordinates>
      </Point>
    </Placemark>
    <Placemark>
      <name>Точка маршрута</name>
      <description><![CDATA[<p><b>Адрес:</b> Лужнецкая наб., 24с20, Москва, Россия, 119270</p>]]></description>
      <styleUrl>#poi-point</styleUrl>
      <Point>
        <coordinates>37.5599810,55.7113160,0.0</coordinates>
      </Point>
    </Placemark>
    <Placemark>
      <name>Без названия</name>
      <description><![CDATA[<p><b>Адрес:</b> Лужнецкая наб., 24с18, Москва, Россия, 119270</p>]]></description>
      <styleUrl>#poi-point</styleUrl>
      <Point>
        <coordinates>37.5455040,55.7162320,0.0</coordinates>
      </Point>
    </Placemark>
    <Placemark>
      <name>Без названия</name>
      <description><![CDATA[<p><b>Адрес:</b> Лужнецкая наб., Москва, Россия, 119270</p>]]></description>
      <styleUrl>#poi-point</styleUrl>
      <Point>
        <coordinates>37.5427760,55.7221320,0.0</coordinates>
      </Point>
    </Placemark>
    <Placemark>
      <name>Точка маршрута</name>
      <description><![CDATA[<p><b>Адрес:</b> Саввинская наб., 27, Москва, Россия, 119435</p>]]></description>
      <styleUrl>#poi-point</styleUrl>
      <Point>
        <coordinates>37.5573640,55.7308360,0.0</coordinates>
      </Point>
    </Placemark>
    <Placemark>
      <name>Точка маршрута</name>
      <description><![CDATA[<p><b>Адрес:</b> Большая Пироговская ул., 37/43кА, Москва, Россия, 119435</p>]]></description>
      <styleUrl>#poi-point</styleUrl>
      <Point>
        <coordinates>37.5650320,55.7289640,0.0</coordinates>
      </Point>
    </Placemark>
    <Placemark>
      <name>Точка маршрута</name>
      <description><![CDATA[<p><b>Адрес:</b> ул. Тимура Фрунзе, 36, Москва, Россия, 119121</p>]]></description>
      <styleUrl>#poi-point</styleUrl>
      <Point>
        <coordinates>37.5843560,55.7376120,0.0</coordinates>
      </Point>
    </Placemark>
    <Placemark>
      <name>Набережные Москвы-реки</name>
      <styleUrl>#route-line</styleUrl>
      <LineString>
        <tessellate>1</tessellate>
        <altitudeMode>clampToGround</altitudeMode>
        <coordinates>
          37.6590760,55.7547400,0.0
          37.6590760,55.7547400,0.0
          37.6588050,55.7547750,0.0
          37.6576800,55.7548870,0.0
          37.6575770,55.7548970,0.0
          37.6574850,55.7549250,0.0
          37.6574150,55.7549600,0.0
          37.6573610,55.7550020,0.0
          37.6573320,55.7550590,0.0
          37.6573270,55.7551510,0.0
          37.6574970,55.7556220,0.0
          37.6576810,55.7556170,0.0
          37.6575230,55.7551850,0.0
          37.6574700,55.7550280,0.0
          37.6573600,55.7547530,0.0
          37.6573400,55.7546900,0.0
          37.6573210,55.7546350,0.0
          37.6572960,55.7545680,0.0
          37.6573210,55.7546350,0.0
          37.6573400,55.7546900,0.0
          37.6573600,55.7547530,0.0
          37.6566780,55.7547400,0.0
          37.6567150,55.7548610,0.0
          37.6567560,55.7549980,0.0
          37.6569470,55.7555980,0.0
          37.6571380,55.7555790,0.0
          37.6570410,55.7552700,0.0
          37.6568670,55.7547380,0.0
          37.6560670,55.7547070,0.0
          37.6557880,55.7546590,0.0
          37.6551730,55.7545530,0.0
          37.6543410,55.7543590,0.0
          37.6541090,55.7542060,0.0
          37.6538350,55.7540260,0.0
          37.6531940,55.7537110,0.0
          37.6524530,55.7534940,0.0
          37.6523320,55.7534660,0.0
          37.6521940,55.7534350,0.0
          37.6508500,55.7531540,0.0
          37.6500580,55.7530210,0.0
          37.6493980,55.7529440,0.0
          37.6487140,55.7529800,0.0
          37.6481990,55.7530040,0.0
          37.6475570,55.7530290,0.0
          37.6474360,55.7528720,0.0
          37.6475570,55.7530290,0.0
          37.6474340,55.7530250,0.0
          37.6470100,55.7530170,0.0
          37.6468690,55.7529960,0.0
          37.6468100,55.7529320,0.0
          37.6462470,55.7521890,0.0
          37.6456510,55.7514170,0.0
          37.6449940,55.7510900,0.0
          37.6442570,55.7509370,0.0
          37.6440710,55.7509040,0.0
          37.6438640,55.7508670,0.0
          37.6429880,55.7506990,0.0
          37.6428540,55.7506680,0.0
          37.6425980,55.7505960,0.0
          37.6425150,55.7505670,0.0
          37.6423910,55.7505140,0.0
          37.6422590,55.7504350,0.0
          37.6421230,55.7503370,0.0
          37.6419560,55.7501730,0.0
          37.6417730,55.7499730,0.0
          37.6415300,55.7496880,0.0
          37.6413900,55.7495260,0.0
          37.6413600,55.7494800,0.0
          37.6414660,55.7489820,0.0
          37.6415010,55.7489120,0.0
          37.6415370,55.7488400,0.0
          37.6415580,55.7487280,0.0
          37.6410470,55.7483330,0.0
          37.6408550,55.7481360,0.0
          37.6407310,55.7480100,0.0
          37.6402300,55.7476680,0.0
          37.6400910,55.7475660,0.0
          37.6399310,55.7476390,0.0
          37.6392520,55.7478600,0.0
          37.6389250,55.7479680,0.0
          37.6390010,55.7480470,0.0
          37.6387760,55.7480880,0.0
          37.6390010,55.7480470,0.0
          37.6389250,55.7479680,0.0
          37.6383980,55.7481120,0.0
          37.6383030,55.7481380,0.0
          37.6374610,55.7483650,0.0
          37.6340040,55.7492980,0.0
          37.6331900,55.7494810,0.0
          37.6328650,55.7495370,0.0
          37.6323630,55.7496130,0.0
          37.6316510,55.7496830,0.0
          37.6311830,55.7497250,0.0
          37.6306740,55.7497660,0.0
          37.6296990,55.7498330,0.0
          37.6293260,55.7498590,0.0
          37.6285940,55.7499000,0.0
          37.6280570,55.7499280,0.0
          37.6273630,55.7499390,0.0
          37.6263960,55.7498980,0.0
          37.6256530,55.7498630,0.0
          37.6251960,55.7498370,0.0
          37.6252160,55.7497560,0.0
          37.6251960,55.7498370,0.0
          37.6249480,55.7498140,0.0
          37.6247310,55.7498460,0.0
          37.6244940,55.7498490,0.0
          37.6242490,55.7498540,0.0
          37.6241380,55.7498590,0.0
          37.6240180,55.7498680,0.0
          37.6239470,55.7498870,0.0
          37.6238750,55.7499600,0.0
          37.6237920,55.7499530,0.0
          37.6236600,55.7499420,0.0
          37.6233490,55.7499170,0.0
          37.6232690,55.7499100,0.0
          37.6234610,55.7497720,0.0
          37.6233790,55.7496870,0.0
          37.6232680,55.7496910,0.0
          37.6231560,55.7497120,0.0
          37.6226990,55.7496900,0.0
          37.6222830,55.7496550,0.0
          37.6217020,55.7496020,0.0
          37.6211070,55.7495430,0.0
          37.6205900,55.7494690,0.0
          37.6204150,55.7494440,0.0
          37.6199250,55.7493720,0.0
          37.6197330,55.7493440,0.0
          37.6190110,55.7492350,0.0
          37.6186350,55.7491780,0.0
          37.6182990,55.7491280,0.0
          37.6173270,55.7489820,0.0
          37.6171370,55.7489540,0.0
          37.6169960,55.7489350,0.0
          37.6166020,55.7488650,0.0
          37.6163500,55.7488040,0.0
          37.6162580,55.7487790,0.0
          37.6161250,55.7487470,0.0
          37.6160230,55.7487220,0.0
          37.6149050,55.7484280,0.0
          37.6142570,55.7482460,0.0
          37.6140640,55.7481870,0.0
          37.6139350,55.7481500,0.0
          37.6138510,55.7481180,0.0
          37.6137930,55.7480780,0.0
          37.6137370,55.7480480,0.0
          37.6136550,55.7480270,0.0
          37.6134280,55.7480080,0.0
          37.6133800,55.7480080,0.0
          37.6129300,55.7479650,0.0
          37.6127830,55.7479480,0.0
          37.6126770,55.7479260,0.0
          37.6127180,55.7478590,0.0
          37.6127860,55.7477700,0.0
          37.6122750,55.7476530,0.0
          37.6119930,55.7475730,0.0
          37.6117590,55.7474960,0.0
          37.6115110,55.7474190,0.0
          37.6113090,55.7473520,0.0
          37.6110940,55.7472650,0.0
          37.6109110,55.7471670,0.0
          37.6108050,55.7471070,0.0
          37.6106970,55.7470380,0.0
          37.6105130,55.7469240,0.0
          37.6103220,55.7467940,0.0
          37.6099940,55.7465500,0.0
          37.6098930,55.7464660,0.0
          37.6097500,55.7463410,0.0
          37.6094810,55.7460840,0.0
          37.6090130,55.7455830,0.0
          37.6088140,55.7453560,0.0
          37.6086210,55.7454150,0.0
          37.6085600,55.7453410,0.0
          37.6085680,55.7452580,0.0
          37.6081920,55.7448120,0.0
          37.6081800,55.7448120,0.0
          37.6077540,55.7443260,0.0
          37.6074430,55.7439520,0.0
          37.6073060,55.7438070,0.0
          37.6072520,55.7437460,0.0
          37.6071850,55.7436570,0.0
          37.6070780,55.7435050,0.0
          37.6070330,55.7434150,0.0
          37.6071530,55.7433810,0.0
          37.6070820,55.7432190,0.0
          37.6070500,55.7430380,0.0
          37.6069900,55.7425940,0.0
          37.6069900,55.7424480,0.0
          37.6069970,55.7423480,0.0
          37.6069950,55.7422330,0.0
          37.6069790,55.7420550,0.0
          37.6068750,55.7417920,0.0
          37.6066620,55.7412600,0.0
          37.6063930,55.7405860,0.0
          37.6061140,55.7398860,0.0
          37.6060160,55.7396360,0.0
          37.6058640,55.7392630,0.0
          37.6058210,55.7391700,0.0
          37.6057310,55.7390050,0.0
          37.6056200,55.7388310,0.0
          37.6055600,55.7387590,0.0
          37.6054590,55.7386530,0.0
          37.6052920,55.7385060,0.0
          37.6051950,55.7384290,0.0
          37.6050820,55.7383580,0.0
          37.6049570,55.7382820,0.0
          37.6048200,55.7382080,0.0
          37.6045420,55.7380710,0.0
          37.6044610,55.7380330,0.0
          37.6020930,55.7369200,0.0
          37.5997470,55.7358600,0.0
          37.5991900,55.7355810,0.0
          37.5984650,55.7352150,0.0
          37.5981270,55.7350270,0.0
          37.5979830,55.7349410,0.0
          37.5978720,55.7348660,0.0
          37.5976630,55.7346890,0.0
          37.5971790,55.7342160,0.0
          37.5970070,55.7342730,0.0
          37.5964740,55.7344480,0.0
          37.5963830,55.7345190,0.0
          37.5963020,55.7345590,0.0
          37.5955460,55.7348070,0.0
          37.5954970,55.7347570,0.0
          37.5953980,55.7347890,0.0
          37.5950040,55.7349080,0.0
          37.5945610,55.7350590,0.0
          37.5943280,55.7350900,0.0
          37.5943820,55.7351880,0.0
          37.5943700,55.7352000,0.0
          37.5945040,55.7352660,0.0
          37.5970970,55.7344430,0.0
          37.6007500,55.7332770,0.0
          37.6038440,55.7322840,0.0
          37.6039440,55.7322160,0.0
          37.6040730,55.7321750,0.0
          37.6041570,55.7321480,0.0
          37.6042410,55.7321220,0.0
          37.6042690,55.7321040,0.0
          37.6042410,55.7321220,0.0
          37.6041570,55.7321480,0.0
          37.6040730,55.7321750,0.0
          37.6039440,55.7322160,0.0
          37.6037930,55.7322330,0.0
          37.6015480,55.7329510,0.0
          37.6011230,55.7330840,0.0
          37.6009950,55.7329570,0.0
          37.6005760,55.7330940,0.0
          37.6001280,55.7326520,0.0
          37.6000070,55.7325340,0.0
          37.5998060,55.7324700,0.0
          37.5992300,55.7318590,0.0
          37.5988000,55.7314030,0.0
          37.5985070,55.7310110,0.0
          37.5983050,55.7307390,0.0
          37.5981540,55.7304560,0.0
          37.5978710,55.7299060,0.0
          37.5979620,55.7298810,0.0
          37.5981000,55.7301400,0.0
          37.5980960,55.7301400,0.0
          37.5979620,55.7298810,0.0
          37.5979590,55.7298070,0.0
          37.5975430,55.7291970,0.0
          37.5975460,55.7291380,0.0
          37.5976990,55.7290740,0.0
          37.5977730,55.7290450,0.0
          37.5973040,55.7286100,0.0
          37.5969920,55.7282790,0.0
          37.5966220,55.7278880,0.0
          37.5964760,55.7277330,0.0
          37.5963870,55.7277240,0.0
          37.5961340,55.7274270,0.0
          37.5957540,55.7269610,0.0
          37.5954000,55.7265320,0.0
          37.5949910,55.7260530,0.0
          37.5948790,55.7259310,0.0
          37.5947760,55.7258110,0.0
          37.5945400,55.7255450,0.0
          37.5944340,55.7254250,0.0
          37.5942650,55.7252200,0.0
          37.5939540,55.7248360,0.0
          37.5937620,55.7246000,0.0
          37.5936490,55.7243650,0.0
          37.5929320,55.7237440,0.0
          37.5924090,55.7231810,0.0
          37.5919680,55.7229000,0.0
          37.5919640,55.7229000,0.0
          37.5909070,55.7222390,0.0
          37.5900390,55.7214150,0.0
          37.5900410,55.7213930,0.0
          37.5896970,55.7211380,0.0
          37.5894010,55.7209160,0.0
          37.5890380,55.7206440,0.0
          37.5883200,55.7201050,0.0
          37.5880340,55.7199020,0.0
          37.5877520,55.7197040,0.0
          37.5875090,55.7195380,0.0
          37.5873430,55.7193310,0.0
          37.5872920,55.7191890,0.0
          37.5872380,55.7190560,0.0
          37.5871630,55.7189790,0.0
          37.5870760,55.7189040,0.0
          37.5870130,55.7188540,0.0
          37.5867320,55.7186820,0.0
          37.5864470,55.7185260,0.0
          37.5862060,55.7183730,0.0
          37.5859950,55.7182090,0.0
          37.5858240,55.7180750,0.0
          37.5851640,55.7175610,0.0
          37.5844420,55.7169990,0.0
          37.5833290,55.7161990,0.0
          37.5831640,55.7160810,0.0
          37.5828080,55.7158290,0.0
          37.5826560,55.7157040,0.0
          37.5826520,55.7157040,0.0
          37.5824760,55.7155640,0.0
          37.5822730,55.7153840,0.0
          37.5820180,55.7152200,0.0
          37.5817930,55.7150900,0.0
          37.5815940,55.7150280,0.0
          37.5812720,55.7149310,0.0
          37.5810530,55.7148390,0.0
          37.5791640,55.7138140,0.0
          37.5790110,55.7137610,0.0
          37.5786560,55.7136370,0.0
          37.5785790,55.7136130,0.0
          37.5777330,55.7133280,0.0
          37.5777170,55.7133410,0.0
          37.5774500,55.7133380,0.0
          37.5772160,55.7132560,0.0
          37.5753660,55.7125340,0.0
          37.5732100,55.7118690,0.0
          37.5727540,55.7116940,0.0
          37.5727000,55.7116400,0.0
          37.5720350,55.7114550,0.0
          37.5718150,55.7114550,0.0
          37.5713400,55.7113160,0.0
          37.5694010,55.7108000,0.0
          37.5694490,55.7107210,0.0
          37.5683520,55.7104570,0.0
          37.5679720,55.7103590,0.0
          37.5675200,55.7102680,0.0
          37.5662120,55.7100180,0.0
          37.5658440,55.7099480,0.0
          37.5658720,55.7099480,0.0
          37.5654600,55.7098890,0.0
          37.5650010,55.7098120,0.0
          37.5644430,55.7097050,0.0
          37.5635080,55.7095950,0.0
          37.5633000,55.7095710,0.0
          37.5615540,55.7095310,0.0
          37.5613600,55.7095300,0.0
          37.5605830,55.7095230,0.0
          37.5595160,55.7095220,0.0
          37.5596060,55.7096040,0.0
          37.5592050,55.7095980,0.0
          37.5590560,55.7095960,0.0
          37.5579710,55.7095920,0.0
          37.5579290,55.7095530,0.0
          37.5578810,55.7095090,0.0
          37.5576700,55.7093680,0.0
          37.5577150,55.7093470,0.0
          37.5577600,55.7093770,0.0
          37.5580700,55.7096120,0.0
          37.5603120,55.7113100,0.0
          37.5604670,55.7114230,0.0
          37.5603880,55.7114600,0.0
          37.5601860,55.7113100,0.0
          37.5599810,55.7113160,0.0
          37.5598180,55.7113200,0.0
          37.5594470,55.7113300,0.0
          37.5593650,55.7113330,0.0
          37.5576840,55.7114080,0.0
          37.5570400,55.7114740,0.0
          37.5564280,55.7115490,0.0
          37.5558650,55.7116330,0.0
          37.5553260,55.7117310,0.0
          37.5544770,55.7118990,0.0
          37.5541320,55.7119670,0.0
          37.5536660,55.7120730,0.0
          37.5531640,55.7121960,0.0
          37.5523960,55.7124260,0.0
          37.5514900,55.7127400,0.0
          37.5511150,55.7128880,0.0
          37.5506370,55.7130820,0.0
          37.5504110,55.7131800,0.0
          37.5499170,55.7134130,0.0
          37.5491640,55.7137960,0.0
          37.5485510,55.7141540,0.0
          37.5481590,55.7143930,0.0
          37.5474970,55.7148070,0.0
          37.5466640,55.7153580,0.0
          37.5462580,55.7156470,0.0
          37.5458790,55.7159370,0.0
          37.5455040,55.7162320,0.0
          37.5453600,55.7163760,0.0
          37.5448460,55.7168390,0.0
          37.5443060,55.7174310,0.0
          37.5439920,55.7178600,0.0
          37.5438930,55.7179930,0.0
          37.5437480,55.7182060,0.0
          37.5435750,55.7184810,0.0
          37.5433490,55.7189350,0.0
          37.5431210,55.7195540,0.0
          37.5430310,55.7198670,0.0
          37.5430000,55.7199750,0.0
          37.5429400,55.7203370,0.0
          37.5428970,55.7207170,0.0
          37.5428830,55.7211140,0.0
          37.5428910,55.7213750,0.0
          37.5429280,55.7217550,0.0
          37.5427510,55.7217670,0.0
          37.5424750,55.7217850,0.0
          37.5425470,55.7221200,0.0
          37.5425420,55.7221640,0.0
          37.5427760,55.7221320,0.0
          37.5428200,55.7221420,0.0
          37.5427820,55.7219760,0.0
          37.5427510,55.7217670,0.0
          37.5429280,55.7217550,0.0
          37.5429650,55.7220060,0.0
          37.5431090,55.7225650,0.0
          37.5431730,55.7227660,0.0
          37.5432490,55.7229740,0.0
          37.5434320,55.7233860,0.0
          37.5436470,55.7237720,0.0
          37.5439270,55.7242240,0.0
          37.5442200,55.7246290,0.0
          37.5446260,55.7250870,0.0
          37.5448190,55.7252890,0.0
          37.5449960,55.7254620,0.0
          37.5450930,55.7255440,0.0
          37.5451850,55.7256220,0.0
          37.5455180,55.7258660,0.0
          37.5456830,55.7259810,0.0
          37.5460350,55.7262060,0.0
          37.5466210,55.7265630,0.0
          37.5468120,55.7266570,0.0
          37.5468900,55.7266940,0.0
          37.5469730,55.7267320,0.0
          37.5473700,55.7268910,0.0
          37.5476550,55.7269910,0.0
          37.5477870,55.7270370,0.0
          37.5483230,55.7272080,0.0
          37.5491130,55.7274360,0.0
          37.5493320,55.7274910,0.0
          37.5505810,55.7277680,0.0
          37.5511280,55.7279110,0.0
          37.5516630,55.7280620,0.0
          37.5522380,55.7282350,0.0
          37.5525930,55.7283500,0.0
          37.5530330,55.7285010,0.0
          37.5537700,55.7287740,0.0
          37.5545860,55.7291160,0.0
          37.5550960,55.7293560,0.0
          37.5556700,55.7296460,0.0
          37.5561800,55.7299340,0.0
          37.5564220,55.7300810,0.0
          37.5566360,55.7302260,0.0
          37.5567530,55.7303130,0.0
          37.5566320,55.7303790,0.0
          37.5573800,55.7308360,0.0
          37.5573640,55.7308360,0.0
          37.5586060,55.7315940,0.0
          37.5587870,55.7315540,0.0
          37.5589450,55.7314940,0.0
          37.5601570,55.7309950,0.0
          37.5608270,55.7307590,0.0
          37.5614880,55.7305260,0.0
          37.5628510,55.7302530,0.0
          37.5629880,55.7302300,0.0
          37.5632300,55.7301780,0.0
          37.5633510,55.7300940,0.0
          37.5640130,55.7296300,0.0
          37.5645730,55.7292370,0.0
          37.5647020,55.7291400,0.0
          37.5647860,55.7290860,0.0
          37.5648510,55.7291130,0.0
          37.5649290,55.7290530,0.0
          37.5649780,55.7290140,0.0
          37.5650280,55.7289640,0.0
          37.5650320,55.7289640,0.0
          37.5649780,55.7290140,0.0
          37.5649290,55.7290530,0.0
          37.5648510,55.7291130,0.0
          37.5650780,55.7292110,0.0
          37.5652180,55.7292710,0.0
          37.5653120,55.7293120,0.0
          37.5661290,55.7296640,0.0
          37.5661990,55.7296950,0.0
          37.5671180,55.7300910,0.0
          37.5672550,55.7301510,0.0
          37.5697090,55.7312100,0.0
          37.5700950,55.7313770,0.0
          37.5702210,55.7314310,0.0
          37.5712680,55.7318810,0.0
          37.5724170,55.7323760,0.0
          37.5726610,55.7324830,0.0
          37.5729080,55.7325920,0.0
          37.5736670,55.7329270,0.0
          37.5747790,55.7334100,0.0
          37.5754440,55.7336980,0.0
          37.5756160,55.7337820,0.0
          37.5757960,55.7338590,0.0
          37.5769270,55.7343500,0.0
          37.5777840,55.7347230,0.0
          37.5779210,55.7347840,0.0
          37.5782020,55.7349130,0.0
          37.5787760,55.7351760,0.0
          37.5791720,55.7353580,0.0
          37.5799240,55.7357010,0.0
          37.5800760,55.7357710,0.0
          37.5815820,55.7364690,0.0
          37.5818700,55.7366030,0.0
          37.5822770,55.7367890,0.0
          37.5823590,55.7367220,0.0
          37.5824710,55.7367360,0.0
          37.5825430,55.7367680,0.0
          37.5826470,55.7368150,0.0
          37.5828510,55.7369190,0.0
          37.5841670,55.7375210,0.0
          37.5842790,55.7375740,0.0
          37.5843560,55.7376120,0.0
          37.5842790,55.7375740,0.0
          37.5848610,55.7372080,0.0
          37.5849300,55.7371540,0.0
          37.5858400,55.7365970,0.0
          37.5867280,55.7360410,0.0
          37.5866500,55.7360050,0.0
          37.5877230,55.7353190,0.0
          37.5877920,55.7352720,0.0
          37.5875650,55.7351550,0.0
          37.5878820,55.7349390,0.0
          37.5877570,55.7348810,0.0
          37.5872090,55.7346270,0.0
          37.5868850,55.7344760,0.0
          37.5869850,55.7344110,0.0
          37.5865480,55.7342100,0.0
          37.5868150,55.7340250,0.0
          37.5869640,55.7339080,0.0
        </coordinates>
      </LineString>
    </Placemark>
  </Document>
</kml>
