<?xml version="1.0" encoding="UTF-8"?>
<kml xmlns="http://www.opengis.net/kml/2.2">
  <Document>
    <name>Москва Живописная</name>
    <description><![CDATA[<a href="https://www.mnogotrop.com/route/81805" target="_blank">Источник: mnogotrop.com/route/81805</a>
<p>Живописная городская петля от МГУ через смотровую площадку, набережные, Парк Горького, Храм Христа Спасителя, Замоскворечье, Тверскую и Китай-город.</p>
<p>Маршрут хорошо подходит для вечерней поездки по центральной Москве, когда хочется собрать главные виды в одну связную линию.</p>
<p>Особенности: по данным источника доля велодорожек невысокая, поэтому на центральных улицах нужно внимательно выбирать темп и траекторию.</p>]]></description>
    <Style id="route-line">
      <LineStyle>
        <color>ffd18802</color>
        <width>5</width>
      </LineStyle>
    </Style>
    <Style id="poi-point">
      <IconStyle>
        <color>ff3644db</color>
        <scale>1.0</scale>
        <Icon>
          <href>https://www.gstatic.com/mapspro/images/stock/503-wht-blank_maps.png</href>
        </Icon>
      </IconStyle>
    </Style>
    <Placemark>
      <name>Точка маршрута</name>
      <description><![CDATA[<p><b>Адрес:</b> Университетская пл., Москва, Россия, 119234</p>]]></description>
      <styleUrl>#poi-point</styleUrl>
      <Point>
        <coordinates>37.5381260,55.7062000,0.0</coordinates>
      </Point>
    </Placemark>
    <Placemark>
      <name>Точка маршрута</name>
      <description><![CDATA[<p><b>Адрес:</b> ул. Косыгина, 28, Москва, Россия, 119234</p>]]></description>
      <styleUrl>#poi-point</styleUrl>
      <Point>
        <coordinates>37.5427200,55.7088350,0.0</coordinates>
      </Point>
    </Placemark>
    <Placemark>
      <name>Точка маршрута</name>
      <description><![CDATA[<p><b>Адрес:</b> ул. Косыгина, 30с2, Москва, Россия, 119285</p>]]></description>
      <styleUrl>#poi-point</styleUrl>
      <Point>
        <coordinates>37.5389600,55.7110880,0.0</coordinates>
      </Point>
    </Placemark>
    <Placemark>
      <name>Точка маршрута</name>
      <description><![CDATA[<p><b>Адрес:</b> ул. Косыгина, 32, Москва, Россия, 119285</p>]]></description>
      <styleUrl>#poi-point</styleUrl>
      <Point>
        <coordinates>37.5354860,55.7187710,0.0</coordinates>
      </Point>
    </Placemark>
    <Placemark>
      <name>Точка маршрута</name>
      <description><![CDATA[<p><b>Адрес:</b> ул. Косыгина, 40, Москва, Россия, 119285</p>]]></description>
      <styleUrl>#poi-point</styleUrl>
      <Point>
        <coordinates>37.5350320,55.7262110,0.0</coordinates>
      </Point>
    </Placemark>
    <Placemark>
      <name>Точка маршрута</name>
      <description><![CDATA[<p><b>Адрес:</b> Воробьевское ш., 42, Москва, Россия, 119136</p>]]></description>
      <styleUrl>#poi-point</styleUrl>
      <Point>
        <coordinates>37.5400010,55.7278940,0.0</coordinates>
      </Point>
    </Placemark>
    <Placemark>
      <name>Точка маршрута</name>
      <description><![CDATA[<p><b>Адрес:</b> Воробьевская наб., Москва, Россия, 119136</p>]]></description>
      <styleUrl>#poi-point</styleUrl>
      <Point>
        <coordinates>37.5414880,55.7279700,0.0</coordinates>
      </Point>
    </Placemark>
    <Placemark>
      <name>Точка маршрута</name>
      <description><![CDATA[<p><b>Адрес:</b> Воробьевская наб., Москва, Россия</p>]]></description>
      <styleUrl>#poi-point</styleUrl>
      <Point>
        <coordinates>37.5424590,55.7272700,0.0</coordinates>
      </Point>
    </Placemark>
    <Placemark>
      <name>Точка маршрута</name>
      <description><![CDATA[<p><b>Адрес:</b> Воробьевская наб., Москва, Россия</p>]]></description>
      <styleUrl>#poi-point</styleUrl>
      <Point>
        <coordinates>37.5398920,55.7236630,0.0</coordinates>
      </Point>
    </Placemark>
    <Placemark>
      <name>Точка маршрута</name>
      <description><![CDATA[<p><b>Адрес:</b> Воробьевская наб., Москва, Россия</p>]]></description>
      <styleUrl>#poi-point</styleUrl>
      <Point>
        <coordinates>37.5398540,55.7173190,0.0</coordinates>
      </Point>
    </Placemark>
    <Placemark>
      <name>Точка маршрута</name>
      <description><![CDATA[<p><b>Адрес:</b> Воробьевская наб., Москва, Россия</p>]]></description>
      <styleUrl>#poi-point</styleUrl>
      <Point>
        <coordinates>37.5415840,55.7144400,0.0</coordinates>
      </Point>
    </Placemark>
    <Placemark>
      <name>Точка маршрута</name>
      <description><![CDATA[<p><b>Адрес:</b> Воробьевская наб., Москва, Россия, 119270</p>]]></description>
      <styleUrl>#poi-point</styleUrl>
      <Point>
        <coordinates>37.5471610,55.7112310,0.0</coordinates>
      </Point>
    </Placemark>
    <Placemark>
      <name>Точка маршрута</name>
      <description><![CDATA[<p><b>Адрес:</b> Воробьевская наб., Москва, Россия</p>]]></description>
      <styleUrl>#poi-point</styleUrl>
      <Point>
        <coordinates>37.5550030,55.7095900,0.0</coordinates>
      </Point>
    </Placemark>
    <Placemark>
      <name>Точка маршрута</name>
      <description><![CDATA[<p><b>Адрес:</b> Андреевская наб., 2с5, Москва, Россия, 119334</p>]]></description>
      <styleUrl>#poi-point</styleUrl>
      <Point>
        <coordinates>37.5652220,55.7098490,0.0</coordinates>
      </Point>
    </Placemark>
    <Placemark>
      <name>Точка маршрута</name>
      <description><![CDATA[<p><b>Адрес:</b> Пушкинская наб., 8с3, Москва, Россия, 119334</p>]]></description>
      <styleUrl>#poi-point</styleUrl>
      <Point>
        <coordinates>37.5792780,55.7139400,0.0</coordinates>
      </Point>
    </Placemark>
    <Placemark>
      <name>Точка маршрута</name>
      <description><![CDATA[<p><b>Адрес:</b> Пушкинская наб., Москва, Россия, 119146</p>]]></description>
      <styleUrl>#poi-point</styleUrl>
      <Point>
        <coordinates>37.5881900,55.7200170,0.0</coordinates>
      </Point>
    </Placemark>
    <Placemark>
      <name>Точка маршрута</name>
      <description><![CDATA[<p><b>Адрес:</b> Крымская наб., Москва, Россия</p>]]></description>
      <styleUrl>#poi-point</styleUrl>
      <Point>
        <coordinates>37.6011170,55.7337950,0.0</coordinates>
      </Point>
    </Placemark>
    <Placemark>
      <name>Точка маршрута</name>
      <description><![CDATA[<p><b>Адрес:</b> ул. Крымский Вал, 8к2, Москва, Россия, 119049</p>]]></description>
      <styleUrl>#poi-point</styleUrl>
      <Point>
        <coordinates>37.6064470,55.7320460,0.0</coordinates>
      </Point>
    </Placemark>
    <Placemark>
      <name>Точка маршрута</name>
      <description><![CDATA[<p><b>Адрес:</b> Зубовский б-р, 2с7, Москва, Россия, 119034</p>]]></description>
      <styleUrl>#poi-point</styleUrl>
      <Point>
        <coordinates>37.5944170,55.7355420,0.0</coordinates>
      </Point>
    </Placemark>
    <Placemark>
      <name>Точка маршрута</name>
      <description><![CDATA[<p><b>Адрес:</b> Соймоновский пр-д, 7с1, Москва, Россия, 119034</p>]]></description>
      <styleUrl>#poi-point</styleUrl>
      <Point>
        <coordinates>37.6028570,55.7446030,0.0</coordinates>
      </Point>
    </Placemark>
    <Placemark>
      <name>Точка маршрута</name>
      <description><![CDATA[<p><b>Адрес:</b> Никитский бул., 5, Москва, Россия, 119019</p>]]></description>
      <styleUrl>#poi-point</styleUrl>
      <Point>
        <coordinates>37.6010940,55.7531770,0.0</coordinates>
      </Point>
    </Placemark>
    <Placemark>
      <name>Точка маршрута</name>
      <description><![CDATA[<p><b>Адрес:</b> Страстной бул., 4с4, Москва, Россия, 125009</p>]]></description>
      <styleUrl>#poi-point</styleUrl>
      <Point>
        <coordinates>37.6058380,55.7647040,0.0</coordinates>
      </Point>
    </Placemark>
    <Placemark>
      <name>Точка маршрута</name>
      <description><![CDATA[<p><b>Адрес:</b> Садовая-Триумфальная ул., 30, Москва, Россия, 125047</p>]]></description>
      <styleUrl>#poi-point</styleUrl>
      <Point>
        <coordinates>37.5968060,55.7696150,0.0</coordinates>
      </Point>
    </Placemark>
    <Placemark>
      <name>Точка маршрута</name>
      <description><![CDATA[<p><b>Адрес:</b> Краснопролетарская ул., 4, Москва, Россия, 127006</p>]]></description>
      <styleUrl>#poi-point</styleUrl>
      <Point>
        <coordinates>37.6091270,55.7730540,0.0</coordinates>
      </Point>
    </Placemark>
    <Placemark>
      <name>Точка маршрута</name>
      <description><![CDATA[<p><b>Адрес:</b> пл. Революции, Москва, Россия, 109012</p>]]></description>
      <styleUrl>#poi-point</styleUrl>
      <Point>
        <coordinates>37.6202400,55.7587100,0.0</coordinates>
      </Point>
    </Placemark>
    <Placemark>
      <name>Точка маршрута</name>
      <description><![CDATA[<p><b>Адрес:</b> Лубянский пр-д, Москва, Россия, 107031</p>]]></description>
      <styleUrl>#poi-point</styleUrl>
      <Point>
        <coordinates>37.6269930,55.7602880,0.0</coordinates>
      </Point>
    </Placemark>
    <Placemark>
      <name>Точка маршрута</name>
      <description><![CDATA[<p><b>Адрес:</b> Большая Сухаревская пл., 2, Москва, Россия, 129090</p>]]></description>
      <styleUrl>#poi-point</styleUrl>
      <Point>
        <coordinates>37.6325580,55.7726030,0.0</coordinates>
      </Point>
    </Placemark>
    <Placemark>
      <name>Точка маршрута</name>
      <description><![CDATA[<p><b>Адрес:</b> ул. Земляной Вал, 2, Москва, Россия, 105064</p>]]></description>
      <styleUrl>#poi-point</styleUrl>
      <Point>
        <coordinates>37.6562290,55.7639480,0.0</coordinates>
      </Point>
    </Placemark>
    <Placemark>
      <name>Точка маршрута</name>
      <description><![CDATA[<p><b>Адрес:</b> ул. Маросейка, 6, Москва, Россия, 101000</p>]]></description>
      <styleUrl>#poi-point</styleUrl>
      <Point>
        <coordinates>37.6342210,55.7575870,0.0</coordinates>
      </Point>
    </Placemark>
    <Placemark>
      <name>Точка маршрута</name>
      <description><![CDATA[<p><b>Адрес:</b> ул. Солянка, 2/6, Москва, Россия, 101000</p>]]></description>
      <styleUrl>#poi-point</styleUrl>
      <Point>
        <coordinates>37.6371570,55.7540590,0.0</coordinates>
      </Point>
    </Placemark>
    <Placemark>
      <name>Точка маршрута</name>
      <description><![CDATA[<p><b>Адрес:</b> Яузская ул., 1/15с1, Москва, Россия, 109028</p>]]></description>
      <styleUrl>#poi-point</styleUrl>
      <Point>
        <coordinates>37.6426960,55.7503150,0.0</coordinates>
      </Point>
    </Placemark>
    <Placemark>
      <name>Точка маршрута</name>
      <description><![CDATA[<p><b>Адрес:</b> ул. Большой Устьинский мост, Москва, Россия</p>]]></description>
      <styleUrl>#poi-point</styleUrl>
      <Point>
        <coordinates>37.6394110,55.7477190,0.0</coordinates>
      </Point>
    </Placemark>
    <Placemark>
      <name>Точка маршрута</name>
      <description><![CDATA[<p><b>Адрес:</b> Большой Каменный Мост, Москва, Россия, 119019</p>]]></description>
      <styleUrl>#poi-point</styleUrl>
      <Point>
        <coordinates>37.6108260,55.7469650,0.0</coordinates>
      </Point>
    </Placemark>
    <Placemark>
      <name>Точка маршрута</name>
      <description><![CDATA[<p><b>Адрес:</b> Фрунзенская наб., 4, Москва, Россия, 119021</p>]]></description>
      <styleUrl>#poi-point</styleUrl>
      <Point>
        <coordinates>37.5969040,55.7339480,0.0</coordinates>
      </Point>
    </Placemark>
    <Placemark>
      <name>Точка маршрута</name>
      <description><![CDATA[<p><b>Адрес:</b> ул. Крымский Вал, 9с45, Москва, Россия, 119049</p>]]></description>
      <styleUrl>#poi-point</styleUrl>
      <Point>
        <coordinates>37.6013890,55.7324330,0.0</coordinates>
      </Point>
    </Placemark>
    <Placemark>
      <name>Точка маршрута</name>
      <description><![CDATA[<p><b>Адрес:</b> ул. Крымский Вал, 9, Москва, Россия, 119049</p>]]></description>
      <styleUrl>#poi-point</styleUrl>
      <Point>
        <coordinates>37.6034210,55.7312180,0.0</coordinates>
      </Point>
    </Placemark>
    <Placemark>
      <name>Москва Живописная</name>
      <styleUrl>#route-line</styleUrl>
      <LineString>
        <tessellate>1</tessellate>
        <altitudeMode>clampToGround</altitudeMode>
        <coordinates>
          37.5362860,55.7058860,0.0
          37.5362860,55.7058860,0.0
          37.5367760,55.7056040,0.0
          37.5376270,55.7060710,0.0
          37.5377650,55.7061290,0.0
          37.5378790,55.7060640,0.0
          37.5381290,55.7062020,0.0
          37.5381260,55.7062000,0.0
          37.5392090,55.7068070,0.0
          37.5404520,55.7075020,0.0
          37.5418800,55.7083000,0.0
          37.5421860,55.7084690,0.0
          37.5422920,55.7085250,0.0
          37.5423620,55.7085640,0.0
          37.5425980,55.7087060,0.0
          37.5427200,55.7087810,0.0
          37.5427200,55.7088350,0.0
          37.5427200,55.7087810,0.0
          37.5425810,55.7088510,0.0
          37.5420850,55.7091330,0.0
          37.5415190,55.7094560,0.0
          37.5412230,55.7096200,0.0
          37.5408170,55.7098490,0.0
          37.5402860,55.7101890,0.0
          37.5397900,55.7105530,0.0
          37.5394540,55.7108190,0.0
          37.5391060,55.7111370,0.0
          37.5389650,55.7110900,0.0
          37.5389600,55.7110880,0.0
          37.5391060,55.7111370,0.0
          37.5387440,55.7115100,0.0
          37.5384620,55.7117940,0.0
          37.5382460,55.7120480,0.0
          37.5376570,55.7128110,0.0
          37.5372410,55.7134070,0.0
          37.5371270,55.7135710,0.0
          37.5367700,55.7141510,0.0
          37.5365700,55.7145980,0.0
          37.5364380,55.7149980,0.0
          37.5363150,55.7153720,0.0
          37.5362530,55.7156550,0.0
          37.5362270,55.7157380,0.0
          37.5357110,55.7174000,0.0
          37.5355600,55.7179890,0.0
          37.5355110,55.7185150,0.0
          37.5354860,55.7187710,0.0
          37.5354230,55.7194430,0.0
          37.5353630,55.7206110,0.0
          37.5353580,55.7207150,0.0
          37.5351380,55.7249830,0.0
          37.5351040,55.7252580,0.0
          37.5350870,55.7254770,0.0
          37.5350930,55.7256270,0.0
          37.5351040,55.7257380,0.0
          37.5351430,55.7258490,0.0
          37.5351070,55.7260150,0.0
          37.5350490,55.7260830,0.0
          37.5349570,55.7261460,0.0
          37.5350320,55.7262110,0.0
          37.5352860,55.7264470,0.0
          37.5354830,55.7266010,0.0
          37.5356900,55.7267460,0.0
          37.5359080,55.7266050,0.0
          37.5360330,55.7265390,0.0
          37.5367770,55.7269330,0.0
          37.5378950,55.7273930,0.0
          37.5388000,55.7276690,0.0
          37.5397220,55.7278550,0.0
          37.5400010,55.7278940,0.0
          37.5405260,55.7279670,0.0
          37.5410690,55.7280260,0.0
          37.5413030,55.7280570,0.0
          37.5415420,55.7280820,0.0
          37.5414740,55.7280420,0.0
          37.5414860,55.7279720,0.0
          37.5414880,55.7279700,0.0
          37.5416780,55.7278780,0.0
          37.5422950,55.7276170,0.0
          37.5423780,55.7275710,0.0
          37.5424360,55.7275010,0.0
          37.5424810,55.7274240,0.0
          37.5424900,55.7273640,0.0
          37.5424590,55.7272700,0.0
          37.5424900,55.7273640,0.0
          37.5428050,55.7278680,0.0
          37.5428930,55.7277760,0.0
          37.5429640,55.7276440,0.0
          37.5431500,55.7271750,0.0
          37.5428880,55.7269860,0.0
          37.5427790,55.7270290,0.0
          37.5426270,55.7269060,0.0
          37.5421870,55.7270330,0.0
          37.5421310,55.7269540,0.0
          37.5418950,55.7266260,0.0
          37.5415630,55.7261860,0.0
          37.5411740,55.7256620,0.0
          37.5407180,55.7251110,0.0
          37.5404350,55.7247200,0.0
          37.5402290,55.7243570,0.0
          37.5400830,55.7240490,0.0
          37.5400570,55.7239990,0.0
          37.5398920,55.7236650,0.0
          37.5398920,55.7236630,0.0
          37.5398510,55.7235840,0.0
          37.5398010,55.7234780,0.0
          37.5396020,55.7230570,0.0
          37.5394910,55.7225150,0.0
          37.5394650,55.7223240,0.0
          37.5393920,55.7217990,0.0
          37.5393280,55.7213360,0.0
          37.5393050,55.7208100,0.0
          37.5392930,55.7205430,0.0
          37.5392900,55.7204790,0.0
          37.5392720,55.7201730,0.0
          37.5392680,55.7200980,0.0
          37.5392250,55.7196000,0.0
          37.5392680,55.7192620,0.0
          37.5393710,55.7187250,0.0
          37.5395250,55.7181450,0.0
          37.5398540,55.7173190,0.0
          37.5399720,55.7170330,0.0
          37.5403060,55.7163080,0.0
          37.5404570,55.7160120,0.0
          37.5406410,55.7156500,0.0
          37.5407060,55.7155430,0.0
          37.5409160,55.7151960,0.0
          37.5412110,55.7148260,0.0
          37.5413360,55.7146690,0.0
          37.5415840,55.7144400,0.0
          37.5413360,55.7146690,0.0
          37.5412110,55.7148260,0.0
          37.5409160,55.7151960,0.0
          37.5407060,55.7155430,0.0
          37.5406410,55.7156500,0.0
          37.5404570,55.7160120,0.0
          37.5405070,55.7160210,0.0
          37.5406150,55.7157980,0.0
          37.5409690,55.7152150,0.0
          37.5413720,55.7146950,0.0
          37.5419780,55.7141420,0.0
          37.5422680,55.7139440,0.0
          37.5432920,55.7132440,0.0
          37.5451220,55.7122170,0.0
          37.5471580,55.7112330,0.0
          37.5471610,55.7112310,0.0
          37.5473260,55.7111530,0.0
          37.5486690,55.7106700,0.0
          37.5494770,55.7103790,0.0
          37.5492770,55.7103960,0.0
          37.5494360,55.7103420,0.0
          37.5512230,55.7099500,0.0
          37.5515980,55.7098890,0.0
          37.5529190,55.7097260,0.0
          37.5547610,55.7095980,0.0
          37.5550030,55.7095900,0.0
          37.5560820,55.7095520,0.0
          37.5570670,55.7095270,0.0
          37.5578810,55.7095090,0.0
          37.5585990,55.7095110,0.0
          37.5593740,55.7095200,0.0
          37.5595160,55.7095220,0.0
          37.5605830,55.7095230,0.0
          37.5613600,55.7095300,0.0
          37.5615540,55.7095310,0.0
          37.5633000,55.7095710,0.0
          37.5635080,55.7095950,0.0
          37.5644430,55.7097050,0.0
          37.5650010,55.7098120,0.0
          37.5652240,55.7098490,0.0
          37.5652220,55.7098490,0.0
          37.5655270,55.7099000,0.0
          37.5662120,55.7100180,0.0
          37.5675200,55.7102680,0.0
          37.5679720,55.7103590,0.0
          37.5683520,55.7104570,0.0
          37.5694490,55.7107210,0.0
          37.5695930,55.7107560,0.0
          37.5714030,55.7111860,0.0
          37.5717120,55.7112730,0.0
          37.5726790,55.7115510,0.0
          37.5729640,55.7116330,0.0
          37.5741610,55.7119660,0.0
          37.5757340,55.7124630,0.0
          37.5775240,55.7132580,0.0
          37.5777330,55.7133280,0.0
          37.5785790,55.7136130,0.0
          37.5787560,55.7136940,0.0
          37.5789700,55.7137890,0.0
          37.5791150,55.7138530,0.0
          37.5792780,55.7139400,0.0
          37.5797750,55.7142180,0.0
          37.5809990,55.7148500,0.0
          37.5812750,55.7149710,0.0
          37.5817640,55.7151230,0.0
          37.5820500,55.7152850,0.0
          37.5822220,55.7154040,0.0
          37.5825310,55.7157110,0.0
          37.5839200,55.7166760,0.0
          37.5844810,55.7171260,0.0
          37.5853800,55.7178370,0.0
          37.5857600,55.7181010,0.0
          37.5859440,55.7182280,0.0
          37.5859950,55.7182090,0.0
          37.5862060,55.7183730,0.0
          37.5864470,55.7185260,0.0
          37.5867320,55.7186820,0.0
          37.5870130,55.7188540,0.0
          37.5870760,55.7189040,0.0
          37.5870960,55.7189200,0.0
          37.5871630,55.7189790,0.0
          37.5872380,55.7190560,0.0
          37.5872920,55.7191890,0.0
          37.5873430,55.7193310,0.0
          37.5875090,55.7195380,0.0
          37.5880340,55.7199020,0.0
          37.5881900,55.7200170,0.0
          37.5883200,55.7201050,0.0
          37.5890380,55.7206440,0.0
          37.5894010,55.7209160,0.0
          37.5896970,55.7211380,0.0
          37.5898340,55.7212660,0.0
          37.5899880,55.7214240,0.0
          37.5902150,55.7216970,0.0
          37.5909320,55.7222300,0.0
          37.5915070,55.7226050,0.0
          37.5924110,55.7231650,0.0
          37.5930920,55.7238640,0.0
          37.5936010,55.7243540,0.0
          37.5938170,55.7246520,0.0
          37.5939540,55.7248360,0.0
          37.5942650,55.7252200,0.0
          37.5944340,55.7254250,0.0
          37.5945400,55.7255450,0.0
          37.5947760,55.7258110,0.0
          37.5948790,55.7259310,0.0
          37.5949910,55.7260530,0.0
          37.5954020,55.7265420,0.0
          37.5957540,55.7269610,0.0
          37.5961340,55.7274270,0.0
          37.5963870,55.7277240,0.0
          37.5965500,55.7279090,0.0
          37.5968960,55.7283090,0.0
          37.5970390,55.7284740,0.0
          37.5973620,55.7287980,0.0
          37.5974650,55.7291940,0.0
          37.5978710,55.7299060,0.0
          37.5981540,55.7304560,0.0
          37.5983050,55.7307390,0.0
          37.5985070,55.7310110,0.0
          37.5988000,55.7314030,0.0
          37.5992300,55.7318590,0.0
          37.5998060,55.7324700,0.0
          37.6000070,55.7325340,0.0
          37.6001280,55.7326520,0.0
          37.6005760,55.7330940,0.0
          37.6005080,55.7331400,0.0
          37.6006330,55.7332680,0.0
          37.6009990,55.7336440,0.0
          37.6011170,55.7337950,0.0
          37.6011810,55.7338810,0.0
          37.6012440,55.7337470,0.0
          37.6013340,55.7336440,0.0
          37.6014410,55.7335790,0.0
          37.6015790,55.7335080,0.0
          37.6018100,55.7334150,0.0
          37.6021200,55.7333090,0.0
          37.6036660,55.7328100,0.0
          37.6037990,55.7329040,0.0
          37.6038740,55.7329500,0.0
          37.6043700,55.7327880,0.0
          37.6044820,55.7327510,0.0
          37.6049050,55.7326150,0.0
          37.6058780,55.7323020,0.0
          37.6064490,55.7320460,0.0
          37.6064470,55.7320460,0.0
          37.6058780,55.7323020,0.0
          37.6049050,55.7326150,0.0
          37.6048410,55.7325510,0.0
          37.6047110,55.7325920,0.0
          37.6046270,55.7326190,0.0
          37.6044740,55.7324660,0.0
          37.6041570,55.7321480,0.0
          37.6040730,55.7321750,0.0
          37.6039440,55.7322160,0.0
          37.6038440,55.7322840,0.0
          37.6007500,55.7332770,0.0
          37.5971340,55.7344470,0.0
          37.5945710,55.7352690,0.0
          37.5944050,55.7351790,0.0
          37.5941500,55.7351050,0.0
          37.5942350,55.7350860,0.0
          37.5943520,55.7350570,0.0
          37.5944760,55.7350270,0.0
          37.5941580,55.7344780,0.0
          37.5940570,55.7342900,0.0
          37.5937690,55.7337530,0.0
          37.5935640,55.7333860,0.0
          37.5934010,55.7334150,0.0
          37.5933090,55.7333700,0.0
          37.5931900,55.7331600,0.0
          37.5929550,55.7327620,0.0
          37.5927750,55.7327940,0.0
          37.5929820,55.7331280,0.0
          37.5931360,55.7334280,0.0
          37.5933230,55.7337290,0.0
          37.5937710,55.7344480,0.0
          37.5942160,55.7351840,0.0
          37.5944190,55.7355460,0.0
          37.5944170,55.7355420,0.0
          37.5944520,55.7356030,0.0
          37.5946110,55.7359160,0.0
          37.5947500,55.7362140,0.0
          37.5948660,55.7364800,0.0
          37.5951230,55.7370960,0.0
          37.5951520,55.7371860,0.0
          37.5951990,55.7373530,0.0
          37.5952000,55.7374560,0.0
          37.5952070,55.7375220,0.0
          37.5953170,55.7378420,0.0
          37.5953860,55.7380230,0.0
          37.5954080,55.7380980,0.0
          37.5955850,55.7383930,0.0
          37.5957160,55.7385950,0.0
          37.5957760,55.7386930,0.0
          37.5958650,55.7388380,0.0
          37.5960040,55.7390560,0.0
          37.5961410,55.7392890,0.0
          37.5961720,55.7393400,0.0
          37.5963230,55.7395710,0.0
          37.5964600,55.7397940,0.0
          37.5965060,55.7398620,0.0
          37.5965690,55.7399280,0.0
          37.5966490,55.7399890,0.0
          37.5972270,55.7403420,0.0
          37.5973290,55.7404070,0.0
          37.5975360,55.7405380,0.0
          37.5982200,55.7409730,0.0
          37.5983760,55.7410720,0.0
          37.5986260,55.7412260,0.0
          37.5988700,55.7413780,0.0
          37.5992790,55.7416430,0.0
          37.5993630,55.7417020,0.0
          37.5994360,55.7417590,0.0
          37.5999270,55.7422370,0.0
          37.6000080,55.7423070,0.0
          37.6004090,55.7426800,0.0
          37.6004520,55.7427240,0.0
          37.6005630,55.7428250,0.0
          37.6006590,55.7429130,0.0
          37.6009290,55.7431570,0.0
          37.6013850,55.7435900,0.0
          37.6014530,55.7436560,0.0
          37.6018440,55.7440090,0.0
          37.6020720,55.7442180,0.0
          37.6022420,55.7443370,0.0
          37.6023500,55.7443610,0.0
          37.6024490,55.7443960,0.0
          37.6027020,55.7445380,0.0
          37.6027640,55.7445880,0.0
          37.6028040,55.7446450,0.0
          37.6028570,55.7446030,0.0
          37.6028040,55.7446450,0.0
          37.6025690,55.7448090,0.0
          37.6024800,55.7448710,0.0
          37.6023990,55.7449190,0.0
          37.6021370,55.7450580,0.0
          37.6020540,55.7450940,0.0
          37.6015040,55.7453290,0.0
          37.6013590,55.7453920,0.0
          37.6010050,55.7455280,0.0
          37.6008130,55.7456100,0.0
          37.6006880,55.7457030,0.0
          37.6006250,55.7457890,0.0
          37.6005150,55.7459610,0.0
          37.6003350,55.7462410,0.0
          37.6002080,55.7464310,0.0
          37.6001030,55.7465890,0.0
          37.6000770,55.7466400,0.0
          37.6000630,55.7466850,0.0
          37.6000550,55.7467430,0.0
          37.6000590,55.7467930,0.0
          37.6001060,55.7470160,0.0
          37.6001580,55.7472690,0.0
          37.6002010,55.7474810,0.0
          37.6002240,55.7475960,0.0
          37.6003670,55.7483070,0.0
          37.6003950,55.7484480,0.0
          37.6004740,55.7488370,0.0
          37.6004850,55.7488930,0.0
          37.6008170,55.7504400,0.0
          37.6009020,55.7509350,0.0
          37.6009040,55.7510130,0.0
          37.6008900,55.7511510,0.0
          37.6008590,55.7512580,0.0
          37.6008420,55.7513290,0.0
          37.6008070,55.7515770,0.0
          37.6008370,55.7519070,0.0
          37.6008550,55.7522600,0.0
          37.6008740,55.7526330,0.0
          37.6008720,55.7526910,0.0
          37.6008530,55.7532070,0.0
          37.6008370,55.7536460,0.0
          37.6008290,55.7538180,0.0
          37.6007180,55.7545820,0.0
          37.6007330,55.7546490,0.0
          37.6008240,55.7547100,0.0
          37.6009150,55.7547030,0.0
          37.6009770,55.7546600,0.0
          37.6010050,55.7546020,0.0
          37.6010250,55.7545350,0.0
          37.6010330,55.7543540,0.0
          37.6010850,55.7532670,0.0
          37.6010940,55.7531770,0.0
          37.6010850,55.7532670,0.0
          37.6010330,55.7543540,0.0
          37.6010870,55.7543550,0.0
          37.6010820,55.7544840,0.0
          37.6010660,55.7545640,0.0
          37.6010290,55.7546450,0.0
          37.6009360,55.7547850,0.0
          37.6008090,55.7549780,0.0
          37.6006270,55.7551980,0.0
          37.6005120,55.7553370,0.0
          37.5999600,55.7560060,0.0
          37.5997930,55.7562150,0.0
          37.5996780,55.7563580,0.0
          37.5996010,55.7564510,0.0
          37.5993710,55.7567420,0.0
          37.5989260,55.7572060,0.0
          37.5988760,55.7572830,0.0
          37.5988600,55.7573680,0.0
          37.5988610,55.7574520,0.0
          37.5988620,55.7575460,0.0
          37.5988900,55.7576800,0.0
          37.5993700,55.7581680,0.0
          37.5999250,55.7587330,0.0
          37.6001730,55.7589830,0.0
          37.6003110,55.7591270,0.0
          37.6009300,55.7597640,0.0
          37.6011810,55.7600180,0.0
          37.6013830,55.7602220,0.0
          37.6019950,55.7608420,0.0
          37.6022290,55.7610770,0.0
          37.6025840,55.7614420,0.0
          37.6027240,55.7615870,0.0
          37.6034470,55.7623210,0.0
          37.6036370,55.7625140,0.0
          37.6037560,55.7626300,0.0
          37.6042750,55.7631660,0.0
          37.6049860,55.7638970,0.0
          37.6055330,55.7644360,0.0
          37.6056400,55.7645300,0.0
          37.6057600,55.7646350,0.0
          37.6058360,55.7647020,0.0
          37.6058380,55.7647040,0.0
          37.6057600,55.7646350,0.0
          37.6056740,55.7646880,0.0
          37.6054160,55.7648390,0.0
          37.6053400,55.7648790,0.0
          37.6044030,55.7653670,0.0
          37.6036920,55.7657550,0.0
          37.6034160,55.7659060,0.0
          37.6032700,55.7659850,0.0
          37.6026530,55.7663230,0.0
          37.6017040,55.7668420,0.0
          37.6007020,55.7673890,0.0
          37.6001770,55.7676780,0.0
          37.6000480,55.7677500,0.0
          37.5993100,55.7681590,0.0
          37.5981800,55.7687880,0.0
          37.5977210,55.7690440,0.0
          37.5968910,55.7695070,0.0
          37.5967570,55.7695940,0.0
          37.5968060,55.7696150,0.0
          37.5968970,55.7696540,0.0
          37.5973440,55.7698630,0.0
          37.5977260,55.7700400,0.0
          37.5978460,55.7700970,0.0
          37.5980830,55.7701940,0.0
          37.5985170,55.7703910,0.0
          37.5999590,55.7709850,0.0
          37.6000840,55.7710320,0.0
          37.6007310,55.7712850,0.0
          37.6010280,55.7713800,0.0
          37.6014100,55.7714990,0.0
          37.6018060,55.7716090,0.0
          37.6023700,55.7717740,0.0
          37.6031940,55.7720140,0.0
          37.6038910,55.7722180,0.0
          37.6041310,55.7722880,0.0
          37.6044520,55.7723660,0.0
          37.6049920,55.7724680,0.0
          37.6053640,55.7725380,0.0
          37.6058610,55.7726180,0.0
          37.6062260,55.7726740,0.0
          37.6063660,55.7726960,0.0
          37.6075950,55.7728760,0.0
          37.6084200,55.7729840,0.0
          37.6086970,55.7730120,0.0
          37.6091300,55.7730540,0.0
          37.6091270,55.7730540,0.0
          37.6105100,55.7731770,0.0
          37.6107970,55.7731980,0.0
          37.6111610,55.7732190,0.0
          37.6114910,55.7732390,0.0
          37.6116110,55.7732450,0.0
          37.6123780,55.7732900,0.0
          37.6123800,55.7731070,0.0
          37.6123580,55.7712160,0.0
          37.6123500,55.7711370,0.0
          37.6123160,55.7710640,0.0
          37.6122330,55.7709940,0.0
          37.6115800,55.7706270,0.0
          37.6113720,55.7705640,0.0
          37.6117050,55.7702120,0.0
          37.6117750,55.7701370,0.0
          37.6126550,55.7692080,0.0
          37.6127360,55.7691150,0.0
          37.6127990,55.7690310,0.0
          37.6128950,55.7688920,0.0
          37.6130420,55.7686880,0.0
          37.6131120,55.7686070,0.0
          37.6133410,55.7683240,0.0
          37.6136280,55.7680020,0.0
          37.6136780,55.7679500,0.0
          37.6137690,55.7678540,0.0
          37.6140090,55.7676200,0.0
          37.6144060,55.7672210,0.0
          37.6151860,55.7664380,0.0
          37.6155660,55.7660660,0.0
          37.6156500,55.7659840,0.0
          37.6159270,55.7656480,0.0
          37.6160760,55.7654670,0.0
          37.6161370,55.7653920,0.0
          37.6164280,55.7650380,0.0
          37.6165730,55.7648630,0.0
          37.6166740,55.7647390,0.0
          37.6168190,55.7645290,0.0
          37.6171320,55.7640600,0.0
          37.6171570,55.7640190,0.0
          37.6173990,55.7635470,0.0
          37.6174110,55.7634850,0.0
          37.6174770,55.7633690,0.0
          37.6175240,55.7632770,0.0
          37.6176710,55.7629660,0.0
          37.6177420,55.7628210,0.0
          37.6177770,55.7627540,0.0
          37.6182280,55.7619200,0.0
          37.6183380,55.7617180,0.0
          37.6184020,55.7616020,0.0
          37.6184830,55.7615300,0.0
          37.6185420,55.7614940,0.0
          37.6186270,55.7614310,0.0
          37.6189220,55.7609160,0.0
          37.6193580,55.7601170,0.0
          37.6199580,55.7590920,0.0
          37.6200680,55.7588950,0.0
          37.6203330,55.7589400,0.0
          37.6204400,55.7587440,0.0
          37.6202420,55.7587100,0.0
          37.6202400,55.7587100,0.0
          37.6204400,55.7587440,0.0
          37.6205260,55.7587580,0.0
          37.6206620,55.7587960,0.0
          37.6208650,55.7588330,0.0
          37.6222490,55.7590790,0.0
          37.6221560,55.7592640,0.0
          37.6226840,55.7593280,0.0
          37.6227480,55.7593360,0.0
          37.6237900,55.7594560,0.0
          37.6239450,55.7594710,0.0
          37.6247990,55.7595520,0.0
          37.6257780,55.7597450,0.0
          37.6259090,55.7597880,0.0
          37.6260140,55.7598350,0.0
          37.6261160,55.7599100,0.0
          37.6261810,55.7599840,0.0
          37.6265960,55.7604690,0.0
          37.6266660,55.7605440,0.0
          37.6269910,55.7602900,0.0
          37.6269930,55.7602880,0.0
          37.6266660,55.7605440,0.0
          37.6267070,55.7605900,0.0
          37.6274830,55.7614490,0.0
          37.6275490,55.7615200,0.0
          37.6277870,55.7616940,0.0
          37.6280690,55.7621200,0.0
          37.6281020,55.7621710,0.0
          37.6281370,55.7622260,0.0
          37.6283900,55.7626410,0.0
          37.6286610,55.7630860,0.0
          37.6287310,55.7631740,0.0
          37.6291220,55.7636870,0.0
          37.6296320,55.7643110,0.0
          37.6297360,55.7644390,0.0
          37.6300890,55.7648890,0.0
          37.6301910,55.7649780,0.0
          37.6302960,55.7650470,0.0
          37.6307380,55.7653970,0.0
          37.6308580,55.7655190,0.0
          37.6309680,55.7656720,0.0
          37.6312890,55.7662700,0.0
          37.6313080,55.7663350,0.0
          37.6313270,55.7663990,0.0
          37.6314250,55.7667900,0.0
          37.6314390,55.7668490,0.0
          37.6314540,55.7669000,0.0
          37.6314910,55.7670250,0.0
          37.6315220,55.7671310,0.0
          37.6316290,55.7674940,0.0
          37.6316510,55.7675690,0.0
          37.6317980,55.7680720,0.0
          37.6318180,55.7681560,0.0
          37.6319170,55.7685780,0.0
          37.6319800,55.7688420,0.0
          37.6319940,55.7689030,0.0
          37.6320240,55.7690230,0.0
          37.6321440,55.7694290,0.0
          37.6321640,55.7694960,0.0
          37.6322780,55.7698880,0.0
          37.6323190,55.7700300,0.0
          37.6323430,55.7701190,0.0
          37.6323830,55.7703110,0.0
          37.6324540,55.7706510,0.0
          37.6324660,55.7707420,0.0
          37.6324530,55.7712650,0.0
          37.6324360,55.7714220,0.0
          37.6323990,55.7718160,0.0
          37.6323990,55.7718770,0.0
          37.6323980,55.7720840,0.0
          37.6323940,55.7726250,0.0
          37.6325580,55.7726030,0.0
          37.6332560,55.7725120,0.0
          37.6341470,55.7724140,0.0
          37.6357800,55.7722190,0.0
          37.6365550,55.7721120,0.0
          37.6372390,55.7720010,0.0
          37.6380250,55.7718630,0.0
          37.6385330,55.7717540,0.0
          37.6391040,55.7716040,0.0
          37.6394550,55.7714980,0.0
          37.6397700,55.7714020,0.0
          37.6400900,55.7713060,0.0
          37.6415410,55.7708580,0.0
          37.6423910,55.7705980,0.0
          37.6432080,55.7703540,0.0
          37.6434540,55.7702810,0.0
          37.6437200,55.7702110,0.0
          37.6441070,55.7700930,0.0
          37.6442520,55.7700500,0.0
          37.6443910,55.7700090,0.0
          37.6454410,55.7696950,0.0
          37.6456780,55.7696240,0.0
          37.6458920,55.7695600,0.0
          37.6461070,55.7695040,0.0
          37.6481820,55.7689480,0.0
          37.6484100,55.7688770,0.0
          37.6490440,55.7686780,0.0
          37.6497310,55.7684120,0.0
          37.6499130,55.7683180,0.0
          37.6500890,55.7682020,0.0
          37.6503750,55.7680090,0.0
          37.6519510,55.7669470,0.0
          37.6525790,55.7665380,0.0
          37.6528560,55.7663360,0.0
          37.6538390,55.7656610,0.0
          37.6548840,55.7649310,0.0
          37.6552690,55.7646530,0.0
          37.6553500,55.7645930,0.0
          37.6555560,55.7644520,0.0
          37.6558380,55.7642740,0.0
          37.6560230,55.7641500,0.0
          37.6561000,55.7640870,0.0
          37.6561500,55.7640400,0.0
          37.6562290,55.7639480,0.0
          37.6562600,55.7638990,0.0
          37.6565170,55.7633890,0.0
          37.6566190,55.7631810,0.0
          37.6564600,55.7631590,0.0
          37.6562690,55.7635230,0.0
          37.6561250,55.7637570,0.0
          37.6560480,55.7638500,0.0
          37.6559590,55.7638760,0.0
          37.6555310,55.7637100,0.0
          37.6551820,55.7635650,0.0
          37.6549970,55.7634870,0.0
          37.6543500,55.7631750,0.0
          37.6542100,55.7631000,0.0
          37.6535880,55.7627850,0.0
          37.6532250,55.7625950,0.0
          37.6530130,55.7624840,0.0
          37.6528960,55.7624540,0.0
          37.6528180,55.7624090,0.0
          37.6527630,55.7623440,0.0
          37.6524360,55.7621570,0.0
          37.6522020,55.7620230,0.0
          37.6519350,55.7618800,0.0
          37.6516460,55.7616850,0.0
          37.6515670,55.7616140,0.0
          37.6510320,55.7612570,0.0
          37.6508350,55.7611200,0.0
          37.6507380,55.7610470,0.0
          37.6506740,55.7609990,0.0
          37.6506160,55.7609570,0.0
          37.6505120,55.7608880,0.0
          37.6501290,55.7606280,0.0
          37.6500430,55.7605930,0.0
          37.6499320,55.7605230,0.0
          37.6496890,55.7603490,0.0
          37.6495980,55.7602980,0.0
          37.6493230,55.7601490,0.0
          37.6491040,55.7600430,0.0
          37.6488810,55.7599390,0.0
          37.6487650,55.7598740,0.0
          37.6486840,55.7598430,0.0
          37.6485970,55.7598100,0.0
          37.6485120,55.7597780,0.0
          37.6481630,55.7596720,0.0
          37.6475530,55.7595320,0.0
          37.6474670,55.7594970,0.0
          37.6474040,55.7594840,0.0
          37.6472780,55.7594580,0.0
          37.6465710,55.7593570,0.0
          37.6464860,55.7593450,0.0
          37.6463370,55.7593290,0.0
          37.6462000,55.7593150,0.0
          37.6460560,55.7592970,0.0
          37.6455830,55.7592380,0.0
          37.6455290,55.7592040,0.0
          37.6454120,55.7591910,0.0
          37.6453460,55.7591850,0.0
          37.6451150,55.7591750,0.0
          37.6444120,55.7590980,0.0
          37.6433400,55.7589830,0.0
          37.6432620,55.7589540,0.0
          37.6431810,55.7589510,0.0
          37.6431010,55.7589490,0.0
          37.6421020,55.7587830,0.0
          37.6416550,55.7587160,0.0
          37.6415770,55.7587040,0.0
          37.6415060,55.7586820,0.0
          37.6408570,55.7585740,0.0
          37.6407700,55.7585720,0.0
          37.6404820,55.7585240,0.0
          37.6403950,55.7585080,0.0
          37.6402500,55.7584810,0.0
          37.6400420,55.7584330,0.0
          37.6398840,55.7583930,0.0
          37.6398100,55.7583720,0.0
          37.6389070,55.7581570,0.0
          37.6387800,55.7581280,0.0
          37.6387020,55.7581070,0.0
          37.6386160,55.7580860,0.0
          37.6384850,55.7580540,0.0
          37.6381180,55.7579670,0.0
          37.6377490,55.7578870,0.0
          37.6372120,55.7577720,0.0
          37.6370490,55.7577410,0.0
          37.6368040,55.7576930,0.0
          37.6367410,55.7576870,0.0
          37.6368210,55.7574660,0.0
          37.6367310,55.7574580,0.0
          37.6353050,55.7573550,0.0
          37.6350210,55.7572270,0.0
          37.6346720,55.7571480,0.0
          37.6345200,55.7571140,0.0
          37.6344420,55.7570960,0.0
          37.6342860,55.7573140,0.0
          37.6341760,55.7575040,0.0
          37.6341390,55.7575830,0.0
          37.6342210,55.7575870,0.0
          37.6341390,55.7575830,0.0
          37.6341760,55.7575040,0.0
          37.6342860,55.7573140,0.0
          37.6344420,55.7570960,0.0
          37.6345350,55.7569770,0.0
          37.6346210,55.7568640,0.0
          37.6347780,55.7566710,0.0
          37.6348250,55.7566120,0.0
          37.6351730,55.7561840,0.0
          37.6352870,55.7560440,0.0
          37.6354430,55.7557320,0.0
          37.6356290,55.7554020,0.0
          37.6356710,55.7553290,0.0
          37.6358500,55.7550940,0.0
          37.6361470,55.7548600,0.0
          37.6361980,55.7548200,0.0
          37.6362660,55.7547660,0.0
          37.6365480,55.7545420,0.0
          37.6368870,55.7542720,0.0
          37.6369880,55.7541980,0.0
          37.6370920,55.7541140,0.0
          37.6371570,55.7540590,0.0
          37.6373690,55.7538910,0.0
          37.6376200,55.7536960,0.0
          37.6377900,55.7535970,0.0
          37.6379430,55.7536670,0.0
          37.6381050,55.7536030,0.0
          37.6390680,55.7532820,0.0
          37.6395560,55.7531670,0.0
          37.6397320,55.7531340,0.0
          37.6406760,55.7530260,0.0
          37.6411950,55.7529650,0.0
          37.6412970,55.7529500,0.0
          37.6420300,55.7528390,0.0
          37.6426270,55.7527540,0.0
          37.6427960,55.7527470,0.0
          37.6427750,55.7527030,0.0
          37.6429010,55.7526860,0.0
          37.6436580,55.7515300,0.0
          37.6438330,55.7512640,0.0
          37.6440490,55.7509370,0.0
          37.6440710,55.7509040,0.0
          37.6438640,55.7508670,0.0
          37.6429880,55.7506990,0.0
          37.6428540,55.7506680,0.0
          37.6425980,55.7505960,0.0
          37.6425120,55.7505650,0.0
          37.6425170,55.7504820,0.0
          37.6425730,55.7503900,0.0
          37.6426980,55.7503150,0.0
          37.6426960,55.7503150,0.0
          37.6425730,55.7503900,0.0
          37.6425170,55.7504820,0.0
          37.6425120,55.7505650,0.0
          37.6423910,55.7505140,0.0
          37.6422420,55.7504230,0.0
          37.6421230,55.7503370,0.0
          37.6417730,55.7499730,0.0
          37.6415300,55.7496880,0.0
          37.6413900,55.7495260,0.0
          37.6413600,55.7494800,0.0
          37.6412490,55.7492830,0.0
          37.6412160,55.7492230,0.0
          37.6411290,55.7490740,0.0
          37.6410290,55.7489470,0.0
          37.6405810,55.7486010,0.0
          37.6401760,55.7482960,0.0
          37.6394130,55.7477190,0.0
          37.6394110,55.7477190,0.0
          37.6401760,55.7482960,0.0
          37.6405810,55.7486010,0.0
          37.6410290,55.7489470,0.0
          37.6411290,55.7490740,0.0
          37.6412160,55.7492230,0.0
          37.6412490,55.7492830,0.0
          37.6413070,55.7491880,0.0
          37.6413350,55.7491410,0.0
          37.6414060,55.7490250,0.0
          37.6414820,55.7489030,0.0
          37.6415230,55.7488300,0.0
          37.6415480,55.7487880,0.0
          37.6415360,55.7487110,0.0
          37.6410470,55.7483330,0.0
          37.6408550,55.7481360,0.0
          37.6407310,55.7480100,0.0
          37.6402300,55.7476680,0.0
          37.6400910,55.7475660,0.0
          37.6399310,55.7476390,0.0
          37.6392520,55.7478600,0.0
          37.6389250,55.7479680,0.0
          37.6383980,55.7481120,0.0
          37.6383030,55.7481380,0.0
          37.6374610,55.7483650,0.0
          37.6351350,55.7490320,0.0
          37.6338750,55.7493750,0.0
          37.6335170,55.7494600,0.0
          37.6332470,55.7495140,0.0
          37.6331330,55.7495370,0.0
          37.6328030,55.7495970,0.0
          37.6325630,55.7496320,0.0
          37.6323830,55.7496560,0.0
          37.6322330,55.7496710,0.0
          37.6321310,55.7496820,0.0
          37.6303940,55.7498030,0.0
          37.6292940,55.7498800,0.0
          37.6290800,55.7498950,0.0
          37.6283580,55.7499380,0.0
          37.6279130,55.7499560,0.0
          37.6275450,55.7499610,0.0
          37.6272380,55.7499590,0.0
          37.6268880,55.7499460,0.0
          37.6258060,55.7498950,0.0
          37.6254590,55.7498780,0.0
          37.6252990,55.7498670,0.0
          37.6250750,55.7498480,0.0
          37.6249330,55.7498350,0.0
          37.6247870,55.7498220,0.0
          37.6243870,55.7497840,0.0
          37.6241240,55.7497540,0.0
          37.6237040,55.7496980,0.0
          37.6234160,55.7496590,0.0
          37.6232120,55.7496320,0.0
          37.6229640,55.7496040,0.0
          37.6223040,55.7495400,0.0
          37.6217340,55.7494830,0.0
          37.6211610,55.7494130,0.0
          37.6206470,55.7493380,0.0
          37.6204730,55.7493120,0.0
          37.6199880,55.7492400,0.0
          37.6198010,55.7492130,0.0
          37.6190700,55.7491030,0.0
          37.6186980,55.7490470,0.0
          37.6183560,55.7489950,0.0
          37.6173880,55.7488480,0.0
          37.6172010,55.7488210,0.0
          37.6170610,55.7487980,0.0
          37.6166820,55.7487280,0.0
          37.6164430,55.7486740,0.0
          37.6162200,55.7486210,0.0
          37.6161130,55.7485940,0.0
          37.6149960,55.7483070,0.0
          37.6144120,55.7481570,0.0
          37.6141080,55.7480780,0.0
          37.6136170,55.7479580,0.0
          37.6130320,55.7478250,0.0
          37.6129250,55.7478010,0.0
          37.6127860,55.7477700,0.0
          37.6122750,55.7476530,0.0
          37.6122240,55.7475780,0.0
          37.6121570,55.7475210,0.0
          37.6120800,55.7474850,0.0
          37.6117620,55.7473790,0.0
          37.6115940,55.7473230,0.0
          37.6114110,55.7472540,0.0
          37.6112130,55.7471710,0.0
          37.6110340,55.7470850,0.0
          37.6108260,55.7469650,0.0
          37.6106430,55.7468550,0.0
          37.6104570,55.7467350,0.0
          37.6101200,55.7464940,0.0
          37.6099940,55.7465500,0.0
          37.6098930,55.7464660,0.0
          37.6097500,55.7463410,0.0
          37.6094810,55.7460840,0.0
          37.6094080,55.7460050,0.0
          37.6090130,55.7455830,0.0
          37.6088140,55.7453560,0.0
          37.6081820,55.7446360,0.0
          37.6075430,55.7439080,0.0
          37.6074190,55.7437670,0.0
          37.6073800,55.7437250,0.0
          37.6073130,55.7436360,0.0
          37.6072070,55.7434840,0.0
          37.6071530,55.7433810,0.0
          37.6070820,55.7432190,0.0
          37.6070500,55.7430380,0.0
          37.6069900,55.7425940,0.0
          37.6069900,55.7424480,0.0
          37.6069970,55.7423480,0.0
          37.6069950,55.7422330,0.0
          37.6069790,55.7420550,0.0
          37.6068750,55.7417920,0.0
          37.6066620,55.7412600,0.0
          37.6063930,55.7405860,0.0
          37.6061140,55.7398860,0.0
          37.6058640,55.7392630,0.0
          37.6058210,55.7391700,0.0
          37.6057310,55.7390050,0.0
          37.6056200,55.7388310,0.0
          37.6055600,55.7387590,0.0
          37.6054590,55.7386530,0.0
          37.6052920,55.7385060,0.0
          37.6051950,55.7384290,0.0
          37.6050820,55.7383580,0.0
          37.6049570,55.7382820,0.0
          37.6048200,55.7382080,0.0
          37.6045420,55.7380710,0.0
          37.6044610,55.7380330,0.0
          37.6020930,55.7369200,0.0
          37.6013460,55.7365830,0.0
          37.5997470,55.7358600,0.0
          37.5991900,55.7355810,0.0
          37.5984650,55.7352150,0.0
          37.5981270,55.7350270,0.0
          37.5979710,55.7349410,0.0
          37.5978720,55.7348660,0.0
          37.5976630,55.7346890,0.0
          37.5971790,55.7342160,0.0
          37.5970130,55.7340530,0.0
          37.5969810,55.7340220,0.0
          37.5969040,55.7339480,0.0
          37.5962640,55.7333210,0.0
          37.5959190,55.7334170,0.0
          37.5965310,55.7340870,0.0
          37.5965980,55.7341650,0.0
          37.5967360,55.7341240,0.0
          37.5968090,55.7340890,0.0
          37.5968780,55.7341240,0.0
          37.5969680,55.7342110,0.0
          37.5970170,55.7342620,0.0
          37.5970900,55.7343430,0.0
          37.5966510,55.7345270,0.0
          37.5967100,55.7345100,0.0
          37.5970290,55.7344120,0.0
          37.5971340,55.7344470,0.0
          37.6007500,55.7332770,0.0
          37.6007560,55.7332060,0.0
          37.6010870,55.7330950,0.0
          37.6011230,55.7330840,0.0
          37.6015480,55.7329510,0.0
          37.6013550,55.7327650,0.0
          37.6016530,55.7326700,0.0
          37.6016040,55.7326240,0.0
          37.6015450,55.7325690,0.0
          37.6013890,55.7324330,0.0
          37.6015450,55.7325690,0.0
          37.6016040,55.7326240,0.0
          37.6016530,55.7326700,0.0
          37.6028580,55.7322860,0.0
          37.6035330,55.7321060,0.0
          37.6038050,55.7317920,0.0
          37.6034630,55.7314680,0.0
          37.6033340,55.7313430,0.0
          37.6032540,55.7312730,0.0
          37.6034210,55.7312180,0.0
          37.6032540,55.7312730,0.0
          37.6027420,55.7314500,0.0
          37.6026160,55.7313520,0.0
          37.6019520,55.7308360,0.0
          37.6018900,55.7307880,0.0
          37.6018020,55.7307200,0.0
          37.6016130,55.7305560,0.0
          37.6015750,55.7304830,0.0
          37.6007330,55.7297380,0.0
          37.6003690,55.7294160,0.0
          37.6003410,55.7293210,0.0
          37.6000610,55.7290650,0.0
          37.5998210,55.7289940,0.0
          37.5999820,55.7285700,0.0
          37.6000290,55.7284480,0.0
          37.5997470,55.7281870,0.0
          37.5993070,55.7278000,0.0
          37.5992370,55.7277370,0.0
          37.5989690,55.7275040,0.0
          37.5985150,55.7271100,0.0
          37.5983950,55.7270010,0.0
          37.5980280,55.7266830,0.0
          37.5978700,55.7267390,0.0
          37.5976890,55.7265760,0.0
        </coordinates>
      </LineString>
    </Placemark>
  </Document>
</kml>
