<?xml version="1.0" encoding="UTF-8"?>
<kml xmlns="http://www.opengis.net/kml/2.2">
  <Document>
    <name>Речной</name>
    <description><![CDATA[<a href="https://www.mnogotrop.com/route/974" target="_blank">Источник: mnogotrop.com/route/974</a>
<p>Длинный северо-западный маршрут от Строгино через набережные, Строгинскую пойму, Крылатскую велотрассу, гребной канал, Филевский парк и Серебряный бор.</p>
<p>По пути много водных видов и спортивных объектов, а дистанция делает маршрут хорошим вариантом для тренировки выходного дня.</p>
<p>Особенности: Крылатская велотрасса холмистая, а в парковых зонах могут быть пешеходы; неподготовленным велосипедистам лучше ехать без гонки.</p>]]></description>
    <Style id="route-line">
      <LineStyle>
        <color>ffd18802</color>
        <width>5</width>
      </LineStyle>
    </Style>
    <Style id="poi-point">
      <IconStyle>
        <color>ff3644db</color>
        <scale>1.0</scale>
        <Icon>
          <href>https://www.gstatic.com/mapspro/images/stock/503-wht-blank_maps.png</href>
        </Icon>
      </IconStyle>
    </Style>
    <Placemark>
      <name>Старт</name>
      <description><![CDATA[<p><b>Адрес:</b> Строгинский бул., 12, Москва</p>]]></description>
      <styleUrl>#poi-point</styleUrl>
      <Point>
        <coordinates>37.4009770,55.8040650,0.0</coordinates>
      </Point>
    </Placemark>
    <Placemark>
      <name>Набережная</name>
      <description><![CDATA[<p><b>Адрес:</b> ал. дор. Жизни, Москва</p>]]></description>
      <styleUrl>#poi-point</styleUrl>
      <Point>
        <coordinates>37.4243330,55.8091690,0.0</coordinates>
      </Point>
    </Placemark>
    <Placemark>
      <name>Залив</name>
      <description><![CDATA[<p><b>Адрес:</b> ул. Маршала Катукова, 35 строение 2, Москва</p>]]></description>
      <styleUrl>#poi-point</styleUrl>
      <Point>
        <coordinates>37.4256700,55.8031050,0.0</coordinates>
      </Point>
    </Placemark>
    <Placemark>
      <name>Танк</name>
      <description><![CDATA[<p><b>Адрес:</b> ул. Маршала Катукова, 28МоскваРоссия</p>]]></description>
      <styleUrl>#poi-point</styleUrl>
      <Point>
        <coordinates>37.4193150,55.8038090,0.0</coordinates>
      </Point>
    </Placemark>
    <Placemark>
      <name>Причал Троице-Лыково</name>
      <description><![CDATA[<p><b>Адрес:</b> Туркменский пр., 21, Москва</p>]]></description>
      <styleUrl>#poi-point</styleUrl>
      <Point>
        <coordinates>37.4094670,55.7921180,0.0</coordinates>
      </Point>
    </Placemark>
    <Placemark>
      <name>Велотрасса в Крылатском</name>
      <description><![CDATA[<p><b>Адрес:</b> Олимпийская велотрасса, Москва</p>]]></description>
      <styleUrl>#poi-point</styleUrl>
      <Point>
        <coordinates>37.4158920,55.7695190,0.0</coordinates>
      </Point>
    </Placemark>
    <Placemark>
      <name>Гребной канал</name>
      <description><![CDATA[<p><b>Адрес:</b> Крылатская ул., 2 строение 2, Москва</p>]]></description>
      <styleUrl>#poi-point</styleUrl>
      <Point>
        <coordinates>37.4356290,55.7534040,0.0</coordinates>
      </Point>
    </Placemark>
    <Placemark>
      <name>Филевский парк</name>
      <description><![CDATA[<p><b>Адрес:</b> Филевская наб., Москва</p>]]></description>
      <styleUrl>#poi-point</styleUrl>
      <Point>
        <coordinates>37.4733460,55.7468720,0.0</coordinates>
      </Point>
    </Placemark>
    <Placemark>
      <name>Байк центр</name>
      <description><![CDATA[<p><b>Адрес:</b> ул. Нижние Мневники, 110, Москва</p>]]></description>
      <styleUrl>#poi-point</styleUrl>
      <Point>
        <coordinates>37.4725840,55.7657170,0.0</coordinates>
      </Point>
    </Placemark>
    <Placemark>
      <name>Въезд в Серебряный бор</name>
      <description><![CDATA[<p><b>Адрес:</b> Хорошевский мост, Москва</p>]]></description>
      <styleUrl>#poi-point</styleUrl>
      <Point>
        <coordinates>37.4489480,55.7795460,0.0</coordinates>
      </Point>
    </Placemark>
    <Placemark>
      <name>Речной</name>
      <styleUrl>#route-line</styleUrl>
      <LineString>
        <tessellate>1</tessellate>
        <altitudeMode>clampToGround</altitudeMode>
        <coordinates>
          37.4009770,55.8040650,0.0
          37.4009770,55.8040650,0.0
          37.4006580,55.8041500,0.0
          37.4003050,55.8042840,0.0
          37.3993740,55.8044420,0.0
          37.3990150,55.8045170,0.0
          37.3986830,55.8045580,0.0
          37.3983570,55.8046160,0.0
          37.3980280,55.8046840,0.0
          37.3977240,55.8047460,0.0
          37.3973860,55.8048520,0.0
          37.3970320,55.8049300,0.0
          37.3967140,55.8050030,0.0
          37.3963940,55.8050760,0.0
          37.3960610,55.8051400,0.0
          37.3957160,55.8052350,0.0
          37.3953860,55.8053580,0.0
          37.3950330,55.8054630,0.0
          37.3947120,55.8055230,0.0
          37.3944770,55.8056510,0.0
          37.3943890,55.8058510,0.0
          37.3945100,55.8060270,0.0
          37.3946330,55.8062340,0.0
          37.3947790,55.8064160,0.0
          37.3949310,55.8066140,0.0
          37.3950710,55.8068000,0.0
          37.3951890,55.8069770,0.0
          37.3953100,55.8071750,0.0
          37.3954790,55.8073610,0.0
          37.3955930,55.8075450,0.0
          37.3957280,55.8077270,0.0
          37.3958350,55.8078960,0.0
          37.3959770,55.8080730,0.0
          37.3960780,55.8082510,0.0
          37.3961770,55.8084570,0.0
          37.3962960,55.8086580,0.0
          37.3964510,55.8088680,0.0
          37.3966140,55.8090870,0.0
          37.3967400,55.8092650,0.0
          37.3968650,55.8094450,0.0
          37.3969940,55.8096320,0.0
          37.3971000,55.8098140,0.0
          37.3972160,55.8099970,0.0
          37.3973310,55.8101900,0.0
          37.3974490,55.8103760,0.0
          37.3975760,55.8105730,0.0
          37.3977160,55.8107650,0.0
          37.3978540,55.8109760,0.0
          37.3980010,55.8111660,0.0
          37.3981230,55.8113600,0.0
          37.3982510,55.8115460,0.0
          37.3981440,55.8117170,0.0
          37.3978650,55.8118040,0.0
          37.3978110,55.8119810,0.0
          37.3974960,55.8120660,0.0
          37.3973000,55.8122470,0.0
          37.3971000,55.8124400,0.0
          37.3969230,55.8126070,0.0
          37.3969540,55.8128020,0.0
          37.3966110,55.8128820,0.0
          37.3962820,55.8129580,0.0
          37.3959810,55.8130220,0.0
          37.3956560,55.8130910,0.0
          37.3953360,55.8131510,0.0
          37.3950000,55.8132240,0.0
          37.3946660,55.8133050,0.0
          37.3942870,55.8133690,0.0
          37.3939750,55.8134310,0.0
          37.3936130,55.8135140,0.0
          37.3932890,55.8135970,0.0
          37.3929990,55.8136940,0.0
          37.3928530,55.8138620,0.0
          37.3929120,55.8140460,0.0
          37.3929770,55.8142590,0.0
          37.3930360,55.8144780,0.0
          37.3931130,55.8146720,0.0
          37.3931760,55.8148810,0.0
          37.3932480,55.8150900,0.0
          37.3933090,55.8152990,0.0
          37.3933900,55.8155170,0.0
          37.3934640,55.8157400,0.0
          37.3935250,55.8159630,0.0
          37.3935730,55.8161500,0.0
          37.3936210,55.8163600,0.0
          37.3936850,55.8166010,0.0
          37.3937500,55.8168510,0.0
          37.3938090,55.8171030,0.0
          37.3938770,55.8173630,0.0
          37.3939580,55.8176200,0.0
          37.3940310,55.8178500,0.0
          37.3941000,55.8180500,0.0
          37.3942090,55.8182540,0.0
          37.3940830,55.8184230,0.0
          37.3938240,55.8185420,0.0
          37.3934770,55.8185980,0.0
          37.3934100,55.8187770,0.0
          37.3932550,55.8189640,0.0
          37.3931810,55.8191400,0.0
          37.3930540,55.8193600,0.0
          37.3931100,55.8195960,0.0
          37.3931970,55.8198190,0.0
          37.3933480,55.8200660,0.0
          37.3935210,55.8202850,0.0
          37.3936190,55.8204570,0.0
          37.3938800,55.8206570,0.0
          37.3941800,55.8208640,0.0
          37.3945850,55.8209970,0.0
          37.3949900,55.8210450,0.0
          37.3953480,55.8211030,0.0
          37.3957060,55.8211620,0.0
          37.3960820,55.8211650,0.0
          37.3964640,55.8211020,0.0
          37.3967980,55.8210450,0.0
          37.3971180,55.8209850,0.0
          37.3974380,55.8209560,0.0
          37.3977570,55.8209430,0.0
          37.3981350,55.8209160,0.0
          37.3985020,55.8208420,0.0
          37.3988750,55.8207570,0.0
          37.3991840,55.8206110,0.0
          37.3994610,55.8204710,0.0
          37.3996690,55.8203110,0.0
          37.3998690,55.8201660,0.0
          37.4000900,55.8200320,0.0
          37.4002760,55.8198760,0.0
          37.4004720,55.8197210,0.0
          37.4006240,55.8195620,0.0
          37.4009970,55.8195190,0.0
          37.4013150,55.8194670,0.0
          37.4016280,55.8194180,0.0
          37.4019610,55.8193140,0.0
          37.4022880,55.8192230,0.0
          37.4025980,55.8191370,0.0
          37.4029330,55.8190550,0.0
          37.4032730,55.8190210,0.0
          37.4035500,55.8189310,0.0
          37.4038660,55.8188180,0.0
          37.4041360,55.8187220,0.0
          37.4044220,55.8186120,0.0
          37.4046730,55.8184930,0.0
          37.4049700,55.8183510,0.0
          37.4052590,55.8182380,0.0
          37.4055790,55.8181290,0.0
          37.4058780,55.8180210,0.0
          37.4061940,55.8178880,0.0
          37.4064050,55.8177290,0.0
          37.4066260,55.8175820,0.0
          37.4067880,55.8173840,0.0
          37.4069260,55.8171970,0.0
          37.4070890,55.8170010,0.0
          37.4073370,55.8168310,0.0
          37.4076250,55.8167060,0.0
          37.4079130,55.8165920,0.0
          37.4082800,55.8164950,0.0
          37.4085660,55.8163960,0.0
          37.4088590,55.8162660,0.0
          37.4091400,55.8161280,0.0
          37.4093870,55.8159850,0.0
          37.4096030,55.8158010,0.0
          37.4098160,55.8156400,0.0
          37.4098150,55.8154540,0.0
          37.4096760,55.8152470,0.0
          37.4095360,55.8150320,0.0
          37.4094970,55.8148230,0.0
          37.4096340,55.8146080,0.0
          37.4097250,55.8143970,0.0
          37.4098620,55.8142200,0.0
          37.4099090,55.8140210,0.0
          37.4100220,55.8138430,0.0
          37.4101960,55.8136740,0.0
          37.4100080,55.8135000,0.0
          37.4099500,55.8133080,0.0
          37.4102060,55.8131970,0.0
          37.4103830,55.8130410,0.0
          37.4107040,55.8130690,0.0
          37.4110080,55.8131640,0.0
          37.4112940,55.8130480,0.0
          37.4116250,55.8129350,0.0
          37.4118610,55.8127970,0.0
          37.4121690,55.8127040,0.0
          37.4125270,55.8126110,0.0
          37.4128920,55.8125460,0.0
          37.4132070,55.8125060,0.0
          37.4135490,55.8124110,0.0
          37.4138650,55.8123340,0.0
          37.4141460,55.8122170,0.0
          37.4144490,55.8121030,0.0
          37.4147860,55.8119930,0.0
          37.4151060,55.8118690,0.0
          37.4154250,55.8117530,0.0
          37.4157520,55.8116270,0.0
          37.4160610,55.8115080,0.0
          37.4163180,55.8113980,0.0
          37.4165980,55.8112880,0.0
          37.4169230,55.8111580,0.0
          37.4171930,55.8110580,0.0
          37.4174880,55.8109570,0.0
          37.4177670,55.8108520,0.0
          37.4180430,55.8107480,0.0
          37.4183310,55.8106340,0.0
          37.4186790,55.8105520,0.0
          37.4190040,55.8105980,0.0
          37.4193340,55.8105600,0.0
          37.4196470,55.8104670,0.0
          37.4199800,55.8103930,0.0
          37.4202850,55.8103340,0.0
          37.4206120,55.8102680,0.0
          37.4209460,55.8101850,0.0
          37.4212320,55.8101040,0.0
          37.4215700,55.8099900,0.0
          37.4218630,55.8098920,0.0
          37.4221780,55.8097860,0.0
          37.4224780,55.8096660,0.0
          37.4227440,55.8095640,0.0
          37.4230490,55.8094730,0.0
          37.4233700,55.8094110,0.0
          37.4236760,55.8093310,0.0
          37.4240050,55.8092330,0.0
          37.4243330,55.8091690,0.0
          37.4244890,55.8089930,0.0
          37.4248270,55.8089270,0.0
          37.4251710,55.8088700,0.0
          37.4254760,55.8087770,0.0
          37.4257810,55.8087020,0.0
          37.4260850,55.8086450,0.0
          37.4264130,55.8085540,0.0
          37.4267680,55.8084930,0.0
          37.4270800,55.8084370,0.0
          37.4274290,55.8083930,0.0
          37.4277760,55.8083500,0.0
          37.4281100,55.8083000,0.0
          37.4284530,55.8082220,0.0
          37.4287930,55.8081720,0.0
          37.4291040,55.8081120,0.0
          37.4294140,55.8080410,0.0
          37.4297210,55.8079620,0.0
          37.4300560,55.8079030,0.0
          37.4304090,55.8078540,0.0
          37.4306910,55.8077680,0.0
          37.4308260,55.8075920,0.0
          37.4310150,55.8074430,0.0
          37.4313710,55.8073980,0.0
          37.4312960,55.8072180,0.0
          37.4311800,55.8070110,0.0
          37.4311270,55.8068190,0.0
          37.4309060,55.8066690,0.0
          37.4306390,55.8065650,0.0
          37.4302950,55.8064890,0.0
          37.4300450,55.8063670,0.0
          37.4297260,55.8062560,0.0
          37.4294420,55.8061660,0.0
          37.4291290,55.8060630,0.0
          37.4289010,55.8059220,0.0
          37.4285800,55.8058380,0.0
          37.4282400,55.8057560,0.0
          37.4279200,55.8056770,0.0
          37.4275820,55.8056480,0.0
          37.4272490,55.8055370,0.0
          37.4269530,55.8054700,0.0
          37.4265930,55.8054070,0.0
          37.4263830,55.8052710,0.0
          37.4262360,55.8051040,0.0
          37.4262890,55.8048910,0.0
          37.4264220,55.8047240,0.0
          37.4263310,55.8045390,0.0
          37.4263430,55.8043390,0.0
          37.4263680,55.8041310,0.0
          37.4264060,55.8039330,0.0
          37.4264620,55.8037490,0.0
          37.4264780,55.8035610,0.0
          37.4245580,55.8042430,0.0
          37.4256700,55.8031050,0.0
          37.4256940,55.8029140,0.0
          37.4256410,55.8030940,0.0
          37.4254380,55.8032420,0.0
          37.4250820,55.8032750,0.0
          37.4246950,55.8032890,0.0
          37.4243180,55.8032930,0.0
          37.4239600,55.8032880,0.0
          37.4236370,55.8032860,0.0
          37.4232280,55.8033130,0.0
          37.4229090,55.8033660,0.0
          37.4225440,55.8034040,0.0
          37.4221570,55.8034050,0.0
          37.4217880,55.8033990,0.0
          37.4214010,55.8034230,0.0
          37.4210590,55.8034370,0.0
          37.4206940,55.8034420,0.0
          37.4203630,55.8034130,0.0
          37.4199890,55.8033720,0.0
          37.4196780,55.8033310,0.0
          37.4193100,55.8032770,0.0
          37.4191000,55.8034280,0.0
          37.4191500,55.8036370,0.0
          37.4193150,55.8038090,0.0
          37.4190280,55.8038940,0.0
          37.4192470,55.8046660,0.0
          37.4191640,55.8037770,0.0
          37.4188710,55.8047500,0.0
          37.4191810,55.8038910,0.0
          37.4198950,55.8045040,0.0
          37.4193330,55.8038380,0.0
          37.4193110,55.8036380,0.0
          37.4191800,55.8034590,0.0
          37.4190710,55.8032790,0.0
          37.4192950,55.8031430,0.0
          37.4195290,55.8030050,0.0
          37.4198100,55.8031070,0.0
          37.4199660,55.8032860,0.0
          37.4202470,55.8033770,0.0
          37.4199240,55.8033990,0.0
          37.4200600,55.8032230,0.0
          37.4198420,55.8033760,0.0
          37.4195250,55.8033530,0.0
          37.4191520,55.8032990,0.0
          37.4188250,55.8031940,0.0
          37.4186960,55.8029820,0.0
          37.4185940,55.8027910,0.0
          37.4185120,55.8025780,0.0
          37.4184270,55.8023990,0.0
          37.4183210,55.8022030,0.0
          37.4181720,55.8020320,0.0
          37.4180460,55.8018260,0.0
          37.4179050,55.8016510,0.0
          37.4177950,55.8014600,0.0
          37.4176560,55.8012710,0.0
          37.4174980,55.8010940,0.0
          37.4173510,55.8009260,0.0
          37.4171450,55.8007680,0.0
          37.4169530,55.8006060,0.0
          37.4167640,55.8004360,0.0
          37.4165690,55.8002870,0.0
          37.4163060,55.8001240,0.0
          37.4160900,55.7999630,0.0
          37.4158880,55.7997790,0.0
          37.4157050,55.7996320,0.0
          37.4154830,55.7994860,0.0
          37.4152590,55.7993320,0.0
          37.4150760,55.7991680,0.0
          37.4148730,55.7990110,0.0
          37.4146660,55.7988430,0.0
          37.4144330,55.7986580,0.0
          37.4142110,55.7984780,0.0
          37.4139990,55.7983140,0.0
          37.4137580,55.7981450,0.0
          37.4134970,55.7979780,0.0
          37.4132380,55.7978440,0.0
          37.4129920,55.7977150,0.0
          37.4128610,55.7975490,0.0
          37.4127070,55.7973810,0.0
          37.4125530,55.7971930,0.0
          37.4123270,55.7970340,0.0
          37.4120780,55.7968950,0.0
          37.4119270,55.7967270,0.0
          37.4116720,55.7965560,0.0
          37.4114760,55.7964100,0.0
          37.4112430,55.7962290,0.0
          37.4110840,55.7960580,0.0
          37.4109360,55.7958950,0.0
          37.4107980,55.7956810,0.0
          37.4106550,55.7954570,0.0
          37.4105260,55.7952920,0.0
          37.4103900,55.7951240,0.0
          37.4102640,55.7949470,0.0
          37.4101400,55.7947280,0.0
          37.4100020,55.7945450,0.0
          37.4099440,55.7943550,0.0
          37.4100440,55.7941490,0.0
          37.4100980,55.7939540,0.0
          37.4100140,55.7937760,0.0
          37.4098790,55.7935940,0.0
          37.4097540,55.7934150,0.0
          37.4096580,55.7932270,0.0
          37.4095170,55.7930360,0.0
          37.4094200,55.7928630,0.0
          37.4093880,55.7926560,0.0
          37.4093110,55.7924780,0.0
          37.4093970,55.7923020,0.0
          37.4094670,55.7921180,0.0
          37.4091360,55.7920590,0.0
          37.4089840,55.7918800,0.0
          37.4089160,55.7916750,0.0
          37.4088440,55.7914770,0.0
          37.4087600,55.7912990,0.0
          37.4086990,55.7910870,0.0
          37.4086390,55.7908680,0.0
          37.4085830,55.7906880,0.0
          37.4085780,55.7904910,0.0
          37.4084860,55.7903080,0.0
          37.4084850,55.7900970,0.0
          37.4084430,55.7899060,0.0
          37.4083540,55.7897070,0.0
          37.4082940,55.7895220,0.0
          37.4082730,55.7892990,0.0
          37.4082170,55.7891010,0.0
          37.4081640,55.7889220,0.0
          37.4080300,55.7887200,0.0
          37.4079240,55.7885260,0.0
          37.4078020,55.7883320,0.0
          37.4076710,55.7881480,0.0
          37.4075890,55.7879510,0.0
          37.4074060,55.7877970,0.0
          37.4072520,55.7876200,0.0
          37.4071250,55.7874300,0.0
          37.4069860,55.7872360,0.0
          37.4068380,55.7870230,0.0
          37.4066860,55.7868280,0.0
          37.4065510,55.7866490,0.0
          37.4064040,55.7864880,0.0
          37.4062000,55.7862760,0.0
          37.4060200,55.7861140,0.0
          37.4058060,55.7859180,0.0
          37.4056650,55.7857010,0.0
          37.4055390,55.7854960,0.0
          37.4053650,55.7853160,0.0
          37.4051970,55.7851390,0.0
          37.4049700,55.7849490,0.0
          37.4047640,55.7847610,0.0
          37.4045300,55.7845770,0.0
          37.4043900,55.7844130,0.0
          37.4042230,55.7842580,0.0
          37.4039070,55.7841760,0.0
          37.4037030,55.7840270,0.0
          37.4033800,55.7839040,0.0
          37.4030550,55.7838140,0.0
          37.4027380,55.7837930,0.0
          37.4023530,55.7838150,0.0
          37.4020350,55.7838530,0.0
          37.4017030,55.7838290,0.0
          37.4013700,55.7839170,0.0
          37.4010490,55.7839920,0.0
          37.4007330,55.7840580,0.0
          37.4004340,55.7842060,0.0
          37.4001870,55.7843230,0.0
          37.3999310,55.7844560,0.0
          37.3996780,55.7845930,0.0
          37.3994640,55.7847400,0.0
          37.3992260,55.7848620,0.0
          37.3989950,55.7849960,0.0
          37.3987240,55.7851140,0.0
          37.3984010,55.7851960,0.0
          37.3982220,55.7850430,0.0
          37.3981260,55.7848500,0.0
          37.3980310,55.7846760,0.0
          37.3979130,55.7845060,0.0
          37.3977990,55.7843000,0.0
          37.3977040,55.7840870,0.0
          37.3976550,55.7839040,0.0
          37.3975680,55.7837200,0.0
          37.3975510,55.7835000,0.0
          37.3975320,55.7833160,0.0
          37.3973910,55.7831180,0.0
          37.3972350,55.7829540,0.0
          37.3970890,55.7827930,0.0
          37.3969600,55.7826240,0.0
          37.3968320,55.7824120,0.0
          37.3967320,55.7822240,0.0
          37.3965970,55.7820440,0.0
          37.3964540,55.7818670,0.0
          37.3963070,55.7816860,0.0
          37.3961080,55.7814790,0.0
          37.3959460,55.7812890,0.0
          37.3957980,55.7811050,0.0
          37.3956270,55.7808910,0.0
          37.3954920,55.7806840,0.0
          37.3953500,55.7804980,0.0
          37.3951320,55.7803140,0.0
          37.3949380,55.7801450,0.0
          37.3947240,55.7799720,0.0
          37.3945330,55.7797780,0.0
          37.3943560,55.7795970,0.0
          37.3940880,55.7794340,0.0
          37.3938910,55.7792760,0.0
          37.3937360,55.7791110,0.0
          37.3935070,55.7789850,0.0
          37.3933080,55.7788360,0.0
          37.3931150,55.7786630,0.0
          37.3928610,55.7785060,0.0
          37.3925840,55.7783370,0.0
          37.3924080,55.7781350,0.0
          37.3922260,55.7779420,0.0
          37.3920850,55.7777380,0.0
          37.3919080,55.7775380,0.0
          37.3917560,55.7773280,0.0
          37.3915080,55.7771530,0.0
          37.3913030,55.7769730,0.0
          37.3911220,55.7768020,0.0
          37.3909210,55.7766410,0.0
          37.3907080,55.7764620,0.0
          37.3905120,55.7762940,0.0
          37.3904790,55.7760900,0.0
          37.3903290,55.7759220,0.0
          37.3901500,55.7757440,0.0
          37.3900170,55.7755460,0.0
          37.3898210,55.7753630,0.0
          37.3896040,55.7752270,0.0
          37.3893100,55.7750880,0.0
          37.3890380,55.7749460,0.0
          37.3887620,55.7748260,0.0
          37.3887420,55.7746360,0.0
          37.3884220,55.7747280,0.0
          37.3880860,55.7747280,0.0
          37.3878270,55.7746100,0.0
          37.3875700,55.7744550,0.0
          37.3873650,55.7743080,0.0
          37.3872510,55.7740580,0.0
          37.3872070,55.7738720,0.0
          37.3872620,55.7736510,0.0
          37.3874610,55.7734630,0.0
          37.3876480,55.7733170,0.0
          37.3878910,55.7731890,0.0
          37.3881710,55.7730790,0.0
          37.3884390,55.7729200,0.0
          37.3886270,55.7727280,0.0
          37.3888330,55.7725720,0.0
          37.3890690,55.7724040,0.0
          37.3892540,55.7722460,0.0
          37.3894720,55.7720340,0.0
          37.3896770,55.7718720,0.0
          37.3898520,55.7716780,0.0
          37.3900320,55.7715160,0.0
          37.3902120,55.7713670,0.0
          37.3903880,55.7711840,0.0
          37.3905480,55.7710080,0.0
          37.3907960,55.7708940,0.0
          37.3912000,55.7709200,0.0
          37.3915730,55.7709860,0.0
          37.3918980,55.7710020,0.0
          37.3922160,55.7710230,0.0
          37.3926400,55.7710220,0.0
          37.3930430,55.7710220,0.0
          37.3934470,55.7710190,0.0
          37.3938200,55.7710260,0.0
          37.3941980,55.7710330,0.0
          37.3945910,55.7710300,0.0
          37.3949220,55.7710480,0.0
          37.3952840,55.7710310,0.0
          37.3956460,55.7710010,0.0
          37.3960520,55.7709690,0.0
          37.3963980,55.7709560,0.0
          37.3967540,55.7709520,0.0
          37.3971040,55.7709730,0.0
          37.3974320,55.7709940,0.0
          37.3977590,55.7710140,0.0
          37.3981690,55.7710320,0.0
          37.3984980,55.7710520,0.0
          37.3988220,55.7710810,0.0
          37.3992130,55.7711170,0.0
          37.3996010,55.7711560,0.0
          37.3999410,55.7711960,0.0
          37.4002830,55.7711980,0.0
          37.4006650,55.7712220,0.0
          37.4010290,55.7712410,0.0
          37.4013860,55.7712550,0.0
          37.4017700,55.7712600,0.0
          37.4020980,55.7712740,0.0
          37.4024260,55.7712760,0.0
          37.4027670,55.7712920,0.0
          37.4030990,55.7713080,0.0
          37.4034340,55.7713360,0.0
          37.4037840,55.7713660,0.0
          37.4041340,55.7713910,0.0
          37.4044850,55.7714210,0.0
          37.4047880,55.7712950,0.0
          37.4048710,55.7711100,0.0
          37.4049360,55.7709110,0.0
          37.4049910,55.7707190,0.0
          37.4050630,55.7705420,0.0
          37.4051300,55.7703420,0.0
          37.4051870,55.7701620,0.0
          37.4052400,55.7699820,0.0
          37.4052500,55.7697700,0.0
          37.4052690,55.7695660,0.0
          37.4052680,55.7693510,0.0
          37.4053460,55.7691760,0.0
          37.4053560,55.7689280,0.0
          37.4053990,55.7687270,0.0
          37.4053670,55.7685360,0.0
          37.4055340,55.7686900,0.0
          37.4058440,55.7687460,0.0
          37.4061430,55.7688130,0.0
          37.4064750,55.7688960,0.0
          37.4068490,55.7689160,0.0
          37.4072400,55.7689540,0.0
          37.4075490,55.7689990,0.0
          37.4078940,55.7690290,0.0
          37.4082830,55.7690490,0.0
          37.4086750,55.7690640,0.0
          37.4090050,55.7690900,0.0
          37.4093200,55.7691240,0.0
          37.4096050,55.7690290,0.0
          37.4098520,55.7688950,0.0
          37.4101560,55.7689900,0.0
          37.4105200,55.7690740,0.0
          37.4108780,55.7691350,0.0
          37.4111890,55.7691980,0.0
          37.4114990,55.7693090,0.0
          37.4118540,55.7693310,0.0
          37.4122310,55.7693910,0.0
          37.4126030,55.7694040,0.0
          37.4129550,55.7694680,0.0
          37.4132780,55.7695270,0.0
          37.4136090,55.7696090,0.0
          37.4139210,55.7696540,0.0
          37.4142240,55.7697370,0.0
          37.4144650,55.7699050,0.0
          37.4148200,55.7699340,0.0
          37.4151790,55.7699320,0.0
          37.4155300,55.7699250,0.0
          37.4158440,55.7698790,0.0
          37.4157680,55.7696910,0.0
          37.4158920,55.7695190,0.0
          37.4162240,55.7695380,0.0
          37.4166180,55.7695390,0.0
          37.4170210,55.7695580,0.0
          37.4174430,55.7696240,0.0
          37.4178100,55.7696280,0.0
          37.4181430,55.7696140,0.0
          37.4184640,55.7696330,0.0
          37.4188620,55.7696720,0.0
          37.4192080,55.7696780,0.0
          37.4195830,55.7697380,0.0
          37.4200140,55.7697900,0.0
          37.4204260,55.7698410,0.0
          37.4208320,55.7698890,0.0
          37.4212490,55.7698970,0.0
          37.4216450,55.7698740,0.0
          37.4220800,55.7698370,0.0
          37.4225210,55.7697810,0.0
          37.4229390,55.7697080,0.0
          37.4233090,55.7696160,0.0
          37.4236790,55.7695140,0.0
          37.4240200,55.7694120,0.0
          37.4243860,55.7692970,0.0
          37.4247610,55.7691690,0.0
          37.4250360,55.7690510,0.0
          37.4253400,55.7689090,0.0
          37.4256350,55.7687680,0.0
          37.4258960,55.7686550,0.0
          37.4262190,55.7685380,0.0
          37.4265460,55.7684120,0.0
          37.4268620,55.7682810,0.0
          37.4272040,55.7681520,0.0
          37.4275130,55.7680080,0.0
          37.4277830,55.7678660,0.0
          37.4280060,55.7677290,0.0
          37.4282150,55.7675760,0.0
          37.4284070,55.7674180,0.0
          37.4285620,55.7672560,0.0
          37.4286640,55.7670690,0.0
          37.4288360,55.7668700,0.0
          37.4289470,55.7666940,0.0
          37.4290510,55.7665060,0.0
          37.4291430,55.7662860,0.0
          37.4291940,55.7660930,0.0
          37.4292220,55.7658670,0.0
          37.4292660,55.7656870,0.0
          37.4293450,55.7654810,0.0
          37.4294230,55.7652650,0.0
          37.4294790,55.7650480,0.0
          37.4295040,55.7648100,0.0
          37.4295640,55.7646040,0.0
          37.4296230,55.7643910,0.0
          37.4296900,55.7642130,0.0
          37.4297600,55.7640220,0.0
          37.4298270,55.7638100,0.0
          37.4298950,55.7635880,0.0
          37.4299650,55.7633680,0.0
          37.4300120,55.7631420,0.0
          37.4300570,55.7629640,0.0
          37.4301170,55.7627850,0.0
          37.4301640,55.7626010,0.0
          37.4302310,55.7623920,0.0
          37.4302940,55.7622150,0.0
          37.4303980,55.7620110,0.0
          37.4304860,55.7617940,0.0
          37.4305550,55.7616080,0.0
          37.4306670,55.7613900,0.0
          37.4307960,55.7611660,0.0
          37.4309100,55.7609720,0.0
          37.4310020,55.7607760,0.0
          37.4310880,55.7605670,0.0
          37.4311700,55.7603710,0.0
          37.4313400,55.7601860,0.0
          37.4316010,55.7600720,0.0
          37.4318200,55.7602110,0.0
          37.4316490,55.7600250,0.0
          37.4316930,55.7598150,0.0
          37.4317590,55.7596290,0.0
          37.4318160,55.7594320,0.0
          37.4319000,55.7592500,0.0
          37.4319540,55.7590370,0.0
          37.4320290,55.7588350,0.0
          37.4321290,55.7586520,0.0
          37.4321980,55.7584720,0.0
          37.4322530,55.7582770,0.0
          37.4323130,55.7580820,0.0
          37.4323610,55.7578660,0.0
          37.4324410,55.7576690,0.0
          37.4325350,55.7574910,0.0
          37.4326050,55.7572990,0.0
          37.4326690,55.7570940,0.0
          37.4327890,55.7568840,0.0
          37.4328640,55.7566630,0.0
          37.4329340,55.7564570,0.0
          37.4330250,55.7562410,0.0
          37.4330830,55.7560210,0.0
          37.4330920,55.7558320,0.0
          37.4332320,55.7556300,0.0
          37.4333720,55.7554680,0.0
          37.4332850,55.7552550,0.0
          37.4331970,55.7550680,0.0
          37.4331010,55.7548530,0.0
          37.4329160,55.7546840,0.0
          37.4327900,55.7544820,0.0
          37.4326090,55.7542920,0.0
          37.4325090,55.7541100,0.0
          37.4326150,55.7539250,0.0
          37.4329750,55.7538670,0.0
          37.4333580,55.7538360,0.0
          37.4336670,55.7537930,0.0
          37.4340440,55.7538040,0.0
          37.4343000,55.7539270,0.0
          37.4343750,55.7541280,0.0
          37.4345340,55.7543260,0.0
          37.4348530,55.7543100,0.0
          37.4351980,55.7542660,0.0
          37.4350190,55.7540820,0.0
          37.4349600,55.7538770,0.0
          37.4349040,55.7536570,0.0
          37.4348250,55.7534500,0.0
          37.4347610,55.7532260,0.0
          37.4349760,55.7530520,0.0
          37.4351080,55.7528780,0.0
          37.4353940,55.7530330,0.0
          37.4354930,55.7532240,0.0
          37.4356290,55.7534040,0.0
          37.4340790,55.7540930,0.0
          37.4360380,55.7531450,0.0
          37.4358160,55.7532780,0.0
          37.4355020,55.7533370,0.0
          37.4357830,55.7534560,0.0
          37.4356510,55.7536310,0.0
          37.4357020,55.7538100,0.0
          37.4357300,55.7539920,0.0
          37.4358130,55.7541930,0.0
          37.4358150,55.7543730,0.0
          37.4357020,55.7545580,0.0
          37.4357170,55.7547500,0.0
          37.4357850,55.7549700,0.0
          37.4358560,55.7551700,0.0
          37.4359140,55.7553730,0.0
          37.4359810,55.7555690,0.0
          37.4360050,55.7557570,0.0
          37.4360560,55.7559570,0.0
          37.4360930,55.7561390,0.0
          37.4361840,55.7563220,0.0
          37.4362760,55.7564970,0.0
          37.4363860,55.7566680,0.0
          37.4365370,55.7568430,0.0
          37.4366630,55.7570380,0.0
          37.4367960,55.7572140,0.0
          37.4369200,55.7574090,0.0
          37.4370450,55.7575920,0.0
          37.4371450,55.7577800,0.0
          37.4372260,55.7579640,0.0
          37.4373270,55.7581570,0.0
          37.4374000,55.7583360,0.0
          37.4375270,55.7585520,0.0
          37.4376440,55.7587400,0.0
          37.4377460,55.7589150,0.0
          37.4378430,55.7591150,0.0
          37.4379530,55.7593290,0.0
          37.4380440,55.7595070,0.0
          37.4381500,55.7597200,0.0
          37.4382470,55.7599040,0.0
          37.4382760,55.7600950,0.0
          37.4384060,55.7603060,0.0
          37.4385050,55.7605040,0.0
          37.4386330,55.7607020,0.0
          37.4387210,55.7608930,0.0
          37.4387970,55.7610800,0.0
          37.4388680,55.7612670,0.0
          37.4389120,55.7614620,0.0
          37.4390200,55.7616470,0.0
          37.4391870,55.7618420,0.0
          37.4392850,55.7620440,0.0
          37.4393430,55.7622490,0.0
          37.4394120,55.7624450,0.0
          37.4394920,55.7626310,0.0
          37.4395870,55.7628140,0.0
          37.4396870,55.7630180,0.0
          37.4397530,55.7632000,0.0
          37.4398320,55.7633880,0.0
          37.4399240,55.7636020,0.0
          37.4400200,55.7637750,0.0
          37.4400990,55.7639720,0.0
          37.4401950,55.7641790,0.0
          37.4402760,55.7643570,0.0
          37.4403650,55.7645520,0.0
          37.4404490,55.7647510,0.0
          37.4405500,55.7649270,0.0
          37.4407060,55.7651350,0.0
          37.4407900,55.7653360,0.0
          37.4408520,55.7655300,0.0
          37.4409390,55.7657130,0.0
          37.4410300,55.7659380,0.0
          37.4410940,55.7661510,0.0
          37.4411380,55.7663380,0.0
          37.4412300,55.7665160,0.0
          37.4413110,55.7667260,0.0
          37.4413640,55.7669310,0.0
          37.4414540,55.7671270,0.0
          37.4415590,55.7673280,0.0
          37.4416480,55.7675230,0.0
          37.4417500,55.7676930,0.0
          37.4418360,55.7678680,0.0
          37.4418870,55.7680820,0.0
          37.4419850,55.7682930,0.0
          37.4421160,55.7685010,0.0
          37.4422030,55.7686950,0.0
          37.4423400,55.7688800,0.0
          37.4424320,55.7690580,0.0
          37.4425520,55.7692360,0.0
          37.4426300,55.7694140,0.0
          37.4427150,55.7696310,0.0
          37.4427950,55.7698280,0.0
          37.4428770,55.7700400,0.0
          37.4429530,55.7702520,0.0
          37.4430360,55.7704580,0.0
          37.4431570,55.7706740,0.0
          37.4432640,55.7708450,0.0
          37.4433800,55.7710550,0.0
          37.4434850,55.7712660,0.0
          37.4435600,55.7714810,0.0
          37.4435880,55.7716800,0.0
          37.4436280,55.7718990,0.0
          37.4437380,55.7720960,0.0
          37.4437790,55.7722890,0.0
          37.4441120,55.7723800,0.0
          37.4444660,55.7724550,0.0
          37.4447700,55.7725600,0.0
          37.4450860,55.7725920,0.0
          37.4454240,55.7726180,0.0
          37.4457840,55.7726620,0.0
          37.4461160,55.7726940,0.0
          37.4464290,55.7727280,0.0
          37.4467380,55.7727860,0.0
          37.4470650,55.7728340,0.0
          37.4473740,55.7728840,0.0
          37.4477390,55.7729230,0.0
          37.4480950,55.7729500,0.0
          37.4484050,55.7730530,0.0
          37.4487590,55.7731010,0.0
          37.4489750,55.7729000,0.0
          37.4490350,55.7726950,0.0
          37.4490610,55.7724790,0.0
          37.4490310,55.7722860,0.0
          37.4489580,55.7720960,0.0
          37.4488570,55.7719080,0.0
          37.4487630,55.7717180,0.0
          37.4487320,55.7715160,0.0
          37.4486290,55.7713160,0.0
          37.4484420,55.7711230,0.0
          37.4483360,55.7709200,0.0
          37.4482150,55.7707350,0.0
          37.4480670,55.7705410,0.0
          37.4479680,55.7703490,0.0
          37.4478660,55.7701610,0.0
          37.4478160,55.7699380,0.0
          37.4478000,55.7697480,0.0
          37.4477120,55.7695540,0.0
          37.4475900,55.7693650,0.0
          37.4474850,55.7691450,0.0
          37.4474340,55.7689640,0.0
          37.4474150,55.7687340,0.0
          37.4472480,55.7685780,0.0
          37.4472110,55.7683550,0.0
          37.4470630,55.7681520,0.0
          37.4469500,55.7679630,0.0
          37.4468780,55.7677340,0.0
          37.4468260,55.7675520,0.0
          37.4467660,55.7673220,0.0
          37.4467160,55.7671410,0.0
          37.4466530,55.7669250,0.0
          37.4465980,55.7667310,0.0
          37.4464900,55.7665400,0.0
          37.4464220,55.7663540,0.0
          37.4464050,55.7661340,0.0
          37.4463660,55.7659400,0.0
          37.4462690,55.7657480,0.0
          37.4461700,55.7655330,0.0
          37.4460240,55.7653300,0.0
          37.4459330,55.7651210,0.0
          37.4457490,55.7649270,0.0
          37.4456720,55.7647140,0.0
          37.4455450,55.7645010,0.0
          37.4454880,55.7642920,0.0
          37.4453990,55.7640750,0.0
          37.4453090,55.7638980,0.0
          37.4452060,55.7637020,0.0
          37.4450760,55.7635120,0.0
          37.4449700,55.7633110,0.0
          37.4448510,55.7631020,0.0
          37.4447580,55.7629250,0.0
          37.4446830,55.7627170,0.0
          37.4446040,55.7624980,0.0
          37.4445500,55.7622560,0.0
          37.4445120,55.7620280,0.0
          37.4444070,55.7618440,0.0
          37.4442430,55.7616840,0.0
          37.4440600,55.7614920,0.0
          37.4439820,55.7612770,0.0
          37.4439720,55.7610800,0.0
          37.4438050,55.7608990,0.0
          37.4437380,55.7606910,0.0
          37.4437100,55.7605020,0.0
          37.4436530,55.7603120,0.0
          37.4435630,55.7601250,0.0
          37.4434410,55.7599180,0.0
          37.4433880,55.7597190,0.0
          37.4433280,55.7595250,0.0
          37.4432460,55.7593320,0.0
          37.4431380,55.7591400,0.0
          37.4429960,55.7589640,0.0
          37.4429480,55.7587680,0.0
          37.4428850,55.7585670,0.0
          37.4427060,55.7583770,0.0
          37.4426040,55.7581740,0.0
          37.4424740,55.7580000,0.0
          37.4423660,55.7578210,0.0
          37.4423300,55.7576220,0.0
          37.4422950,55.7574440,0.0
          37.4422260,55.7572590,0.0
          37.4421340,55.7570770,0.0
          37.4421170,55.7568980,0.0
          37.4421120,55.7567020,0.0
          37.4421440,55.7565100,0.0
          37.4420300,55.7563200,0.0
          37.4419000,55.7561290,0.0
          37.4417860,55.7559530,0.0
          37.4416990,55.7557650,0.0
          37.4416290,55.7555780,0.0
          37.4415950,55.7553880,0.0
          37.4414770,55.7552040,0.0
          37.4413390,55.7550270,0.0
          37.4415320,55.7548750,0.0
          37.4414810,55.7546840,0.0
          37.4414530,55.7544720,0.0
          37.4413780,55.7542940,0.0
          37.4413120,55.7541090,0.0
          37.4413070,55.7538990,0.0
          37.4414690,55.7537120,0.0
          37.4414820,55.7534990,0.0
          37.4414220,55.7532750,0.0
          37.4413120,55.7531020,0.0
          37.4411120,55.7529290,0.0
          37.4407730,55.7528830,0.0
          37.4404340,55.7528250,0.0
          37.4401120,55.7527400,0.0
          37.4397980,55.7526670,0.0
          37.4394830,55.7526000,0.0
          37.4391860,55.7525150,0.0
          37.4388770,55.7524450,0.0
          37.4385650,55.7523650,0.0
          37.4382110,55.7522630,0.0
          37.4379170,55.7521730,0.0
          37.4380890,55.7520210,0.0
          37.4384020,55.7519630,0.0
          37.4385470,55.7518000,0.0
          37.4382240,55.7518540,0.0
          37.4378700,55.7517820,0.0
          37.4375370,55.7516920,0.0
          37.4372650,55.7515380,0.0
          37.4370980,55.7513570,0.0
          37.4371180,55.7511630,0.0
          37.4372460,55.7509670,0.0
          37.4371540,55.7507840,0.0
          37.4368660,55.7506400,0.0
          37.4366140,55.7504700,0.0
          37.4363920,55.7503150,0.0
          37.4361610,55.7501600,0.0
          37.4359600,55.7500170,0.0
          37.4356840,55.7498550,0.0
          37.4355350,55.7496520,0.0
          37.4353850,55.7494830,0.0
          37.4351720,55.7493150,0.0
          37.4351810,55.7491350,0.0
          37.4353170,55.7489700,0.0
          37.4354470,55.7488030,0.0
          37.4353590,55.7486030,0.0
          37.4353380,55.7484030,0.0
          37.4352920,55.7481840,0.0
          37.4352360,55.7479910,0.0
          37.4351940,55.7477850,0.0
          37.4352290,55.7475900,0.0
          37.4352970,55.7473760,0.0
          37.4353680,55.7471460,0.0
          37.4355170,55.7469330,0.0
          37.4357110,55.7467410,0.0
          37.4359580,55.7465770,0.0
          37.4360090,55.7463740,0.0
          37.4361620,55.7461920,0.0
          37.4363500,55.7460290,0.0
          37.4365650,55.7458690,0.0
          37.4368080,55.7456960,0.0
          37.4370530,55.7455610,0.0
          37.4373130,55.7454330,0.0
          37.4375710,55.7452720,0.0
          37.4378780,55.7451360,0.0
          37.4381690,55.7450150,0.0
          37.4383860,55.7448720,0.0
          37.4387120,55.7448350,0.0
          37.4390150,55.7447350,0.0
          37.4392710,55.7446260,0.0
          37.4395180,55.7444940,0.0
          37.4396750,55.7443180,0.0
          37.4398800,55.7441720,0.0
          37.4401610,55.7440480,0.0
          37.4404580,55.7438920,0.0
          37.4407100,55.7437330,0.0
          37.4409440,55.7435520,0.0
          37.4411480,55.7433990,0.0
          37.4414180,55.7432820,0.0
          37.4416830,55.7431780,0.0
          37.4419290,55.7430520,0.0
          37.4421570,55.7429100,0.0
          37.4424200,55.7427950,0.0
          37.4426910,55.7426500,0.0
          37.4429730,55.7425440,0.0
          37.4432120,55.7423900,0.0
          37.4434320,55.7422330,0.0
          37.4437250,55.7421220,0.0
          37.4440140,55.7420180,0.0
          37.4443180,55.7418730,0.0
          37.4445930,55.7417330,0.0
          37.4448470,55.7415770,0.0
          37.4451910,55.7415010,0.0
          37.4455460,55.7414760,0.0
          37.4458760,55.7414000,0.0
          37.4462450,55.7413340,0.0
          37.4465490,55.7412660,0.0
          37.4469150,55.7412460,0.0
          37.4472670,55.7412620,0.0
          37.4476050,55.7412260,0.0
          37.4479480,55.7411480,0.0
          37.4482610,55.7410610,0.0
          37.4486020,55.7409560,0.0
          37.4489690,55.7408650,0.0
          37.4493320,55.7407920,0.0
          37.4496700,55.7407070,0.0
          37.4500010,55.7406240,0.0
          37.4503590,55.7405480,0.0
          37.4506760,55.7404900,0.0
          37.4510590,55.7404410,0.0
          37.4514350,55.7404060,0.0
          37.4518500,55.7403810,0.0
          37.4522580,55.7403450,0.0
          37.4526450,55.7403320,0.0
          37.4530500,55.7403290,0.0
          37.4533770,55.7403360,0.0
          37.4537440,55.7403500,0.0
          37.4540830,55.7403600,0.0
          37.4544980,55.7403560,0.0
          37.4548740,55.7403660,0.0
          37.4552060,55.7403800,0.0
          37.4554690,55.7404830,0.0
          37.4557990,55.7405140,0.0
          37.4561310,55.7404770,0.0
          37.4565320,55.7404850,0.0
          37.4568850,55.7404580,0.0
          37.4572500,55.7404890,0.0
          37.4575890,55.7405320,0.0
          37.4578610,55.7406280,0.0
          37.4582290,55.7407100,0.0
          37.4586020,55.7407620,0.0
          37.4589600,55.7407490,0.0
          37.4593220,55.7408100,0.0
          37.4596810,55.7408950,0.0
          37.4599800,55.7409760,0.0
          37.4602990,55.7410440,0.0
          37.4606700,55.7411100,0.0
          37.4609990,55.7412060,0.0
          37.4613960,55.7412720,0.0
          37.4617740,55.7413610,0.0
          37.4621260,55.7414350,0.0
          37.4624670,55.7415150,0.0
          37.4627680,55.7415810,0.0
          37.4630620,55.7416610,0.0
          37.4633820,55.7417660,0.0
          37.4636820,55.7418530,0.0
          37.4640220,55.7419400,0.0
          37.4643290,55.7420160,0.0
          37.4645900,55.7421620,0.0
          37.4648750,55.7422680,0.0
          37.4651650,55.7423870,0.0
          37.4654240,55.7425080,0.0
          37.4657350,55.7426490,0.0
          37.4660000,55.7427560,0.0
          37.4663010,55.7428880,0.0
          37.4665900,55.7430300,0.0
          37.4668770,55.7431640,0.0
          37.4671390,55.7432860,0.0
          37.4673890,55.7434050,0.0
          37.4676840,55.7435610,0.0
          37.4679520,55.7437090,0.0
          37.4682240,55.7438100,0.0
          37.4685590,55.7439560,0.0
          37.4688830,55.7440810,0.0
          37.4691350,55.7442100,0.0
          37.4694110,55.7443750,0.0
          37.4696400,55.7445070,0.0
          37.4698560,55.7446460,0.0
          37.4700810,55.7448120,0.0
          37.4702590,55.7449800,0.0
          37.4704820,55.7451360,0.0
          37.4707330,55.7452880,0.0
          37.4709810,55.7454230,0.0
          37.4712460,55.7455550,0.0
          37.4714890,55.7457060,0.0
          37.4717440,55.7458580,0.0
          37.4718920,55.7460190,0.0
          37.4721920,55.7461330,0.0
          37.4723940,55.7463010,0.0
          37.4726080,55.7464730,0.0
          37.4727820,55.7466290,0.0
          37.4730210,55.7468030,0.0
          37.4733110,55.7469040,0.0
          37.4736190,55.7469800,0.0
          37.4733460,55.7468720,0.0
          37.4731640,55.7470300,0.0
          37.4732330,55.7468530,0.0
          37.4735760,55.7468850,0.0
          37.4738440,55.7469960,0.0
          37.4740620,55.7471460,0.0
          37.4742680,55.7472920,0.0
          37.4744750,55.7474630,0.0
          37.4747160,55.7476000,0.0
          37.4748750,55.7477750,0.0
          37.4750640,55.7479630,0.0
          37.4753300,55.7480680,0.0
          37.4756740,55.7481250,0.0
          37.4759870,55.7481760,0.0
          37.4762800,55.7481020,0.0
          37.4764600,55.7479500,0.0
          37.4765240,55.7477580,0.0
          37.4765360,55.7475720,0.0
          37.4763210,55.7474370,0.0
          37.4761300,55.7472690,0.0
          37.4761550,55.7470860,0.0
          37.4760550,55.7469140,0.0
          37.4758620,55.7467600,0.0
          37.4757770,55.7465810,0.0
          37.4759460,55.7464140,0.0
          37.4762100,55.7462870,0.0
          37.4764260,55.7464350,0.0
          37.4766440,55.7465700,0.0
          37.4768640,55.7467410,0.0
          37.4770240,55.7469260,0.0
          37.4772490,55.7470650,0.0
          37.4773930,55.7472280,0.0
          37.4774790,55.7474300,0.0
          37.4774890,55.7476150,0.0
          37.4775100,55.7478180,0.0
          37.4776800,55.7480070,0.0
          37.4779430,55.7481540,0.0
          37.4781920,55.7483110,0.0
          37.4785030,55.7484620,0.0
          37.4787060,55.7486110,0.0
          37.4788660,55.7488040,0.0
          37.4789410,55.7489900,0.0
          37.4791200,55.7491640,0.0
          37.4793690,55.7492960,0.0
          37.4796610,55.7494440,0.0
          37.4799750,55.7495220,0.0
          37.4803230,55.7495860,0.0
          37.4805730,55.7497350,0.0
          37.4806630,55.7499090,0.0
          37.4806170,55.7501040,0.0
          37.4805660,55.7503030,0.0
          37.4805240,55.7504950,0.0
          37.4804130,55.7506900,0.0
          37.4804010,55.7508980,0.0
          37.4803700,55.7510850,0.0
          37.4802840,55.7513040,0.0
          37.4801650,55.7514720,0.0
          37.4801070,55.7516780,0.0
          37.4800510,55.7518730,0.0
          37.4799970,55.7520620,0.0
          37.4802280,55.7522130,0.0
          37.4805600,55.7523350,0.0
          37.4808880,55.7523820,0.0
          37.4812490,55.7524260,0.0
          37.4816130,55.7524400,0.0
          37.4819330,55.7524660,0.0
          37.4822650,55.7524880,0.0
          37.4825940,55.7524760,0.0
          37.4829180,55.7525140,0.0
          37.4832430,55.7525560,0.0
          37.4835820,55.7526190,0.0
          37.4839430,55.7526710,0.0
          37.4842430,55.7527370,0.0
          37.4845920,55.7527770,0.0
          37.4849060,55.7528070,0.0
          37.4852280,55.7527850,0.0
          37.4855400,55.7527390,0.0
          37.4859360,55.7527220,0.0
          37.4863470,55.7526740,0.0
          37.4866530,55.7526190,0.0
          37.4870020,55.7525300,0.0
          37.4873380,55.7525540,0.0
          37.4876490,55.7525980,0.0
          37.4879880,55.7526140,0.0
          37.4883860,55.7526070,0.0
          37.4887080,55.7525970,0.0
          37.4890790,55.7526060,0.0
          37.4894200,55.7526170,0.0
          37.4897430,55.7526360,0.0
          37.4900710,55.7526340,0.0
          37.4903960,55.7526290,0.0
          37.4906920,55.7527000,0.0
          37.4910520,55.7527670,0.0
          37.4914080,55.7527610,0.0
          37.4917390,55.7527520,0.0
          37.4920930,55.7527090,0.0
          37.4922490,55.7525350,0.0
          37.4922380,55.7523190,0.0
          37.4921480,55.7521090,0.0
          37.4920420,55.7519130,0.0
          37.4918530,55.7516920,0.0
          37.4917080,55.7514940,0.0
          37.4915740,55.7512660,0.0
          37.4915600,55.7510740,0.0
          37.4915660,55.7508870,0.0
          37.4915410,55.7507060,0.0
          37.4918480,55.7506560,0.0
          37.4920170,55.7504850,0.0
          37.4920590,55.7502960,0.0
          37.4921200,55.7501060,0.0
          37.4922290,55.7499350,0.0
          37.4924190,55.7497610,0.0
          37.4925990,55.7495810,0.0
          37.4927610,55.7494070,0.0
          37.4929290,55.7492400,0.0
          37.4930660,55.7490520,0.0
          37.4932050,55.7488440,0.0
          37.4933380,55.7486260,0.0
          37.4935120,55.7484310,0.0
          37.4936950,55.7482680,0.0
          37.4938610,55.7481080,0.0
          37.4941370,55.7479310,0.0
          37.4943240,55.7477720,0.0
          37.4945200,55.7476180,0.0
          37.4946270,55.7474190,0.0
          37.4946360,55.7472360,0.0
          37.4948460,55.7470830,0.0
          37.4946810,55.7469110,0.0
          37.4944410,55.7467870,0.0
          37.4945800,55.7469970,0.0
          37.4944460,55.7472370,0.0
          37.4942170,55.7473820,0.0
          37.4938440,55.7474320,0.0
          37.4935920,55.7475430,0.0
          37.4932060,55.7476470,0.0
          37.4928280,55.7477240,0.0
          37.4925080,55.7478170,0.0
          37.4921820,55.7478830,0.0
          37.4918000,55.7479570,0.0
          37.4914750,55.7480590,0.0
          37.4912070,55.7481900,0.0
          37.4909060,55.7482660,0.0
          37.4905310,55.7483110,0.0
          37.4902130,55.7482920,0.0
          37.4898920,55.7482140,0.0
          37.4895640,55.7481900,0.0
          37.4892450,55.7481610,0.0
          37.4889280,55.7481920,0.0
          37.4886060,55.7482840,0.0
          37.4882400,55.7482860,0.0
          37.4878610,55.7483540,0.0
          37.4875360,55.7484110,0.0
          37.4871640,55.7484370,0.0
          37.4868340,55.7484520,0.0
          37.4864810,55.7484470,0.0
          37.4861390,55.7484860,0.0
          37.4857920,55.7485140,0.0
          37.4857220,55.7483300,0.0
          37.4854580,55.7484540,0.0
          37.4857780,55.7484430,0.0
          37.4858070,55.7482560,0.0
          37.4859140,55.7480850,0.0
          37.4860950,55.7479260,0.0
          37.4862640,55.7477680,0.0
          37.4864730,55.7475640,0.0
          37.4866070,55.7473650,0.0
          37.4866360,55.7471800,0.0
          37.4867400,55.7469690,0.0
          37.4868460,55.7467720,0.0
          37.4870330,55.7465820,0.0
          37.4871120,55.7463930,0.0
          37.4869420,55.7462010,0.0
          37.4867410,55.7460540,0.0
          37.4865780,55.7458820,0.0
          37.4864090,55.7457270,0.0
          37.4862170,55.7455590,0.0
          37.4860580,55.7453520,0.0
          37.4859150,55.7451900,0.0
          37.4857680,55.7449890,0.0
          37.4856040,55.7448090,0.0
          37.4854390,55.7446420,0.0
          37.4851710,55.7445420,0.0
          37.4848310,55.7444760,0.0
          37.4844970,55.7444040,0.0
          37.4841890,55.7443040,0.0
          37.4838440,55.7442580,0.0
          37.4835770,55.7441370,0.0
          37.4832760,55.7440580,0.0
          37.4829790,55.7439650,0.0
          37.4826520,55.7438920,0.0
          37.4823480,55.7438070,0.0
          37.4820000,55.7437760,0.0
          37.4816840,55.7436930,0.0
          37.4814080,55.7436010,0.0
          37.4812010,55.7434380,0.0
          37.4808580,55.7434060,0.0
          37.4805620,55.7435420,0.0
          37.4803150,55.7436610,0.0
          37.4802090,55.7438510,0.0
          37.4800710,55.7440140,0.0
          37.4797680,55.7441690,0.0
          37.4795030,55.7443110,0.0
          37.4792090,55.7443990,0.0
          37.4788900,55.7444930,0.0
          37.4786670,55.7446620,0.0
          37.4784060,55.7448140,0.0
          37.4781330,55.7449540,0.0
          37.4778680,55.7450540,0.0
          37.4776010,55.7451830,0.0
          37.4772630,55.7452890,0.0
          37.4769610,55.7454320,0.0
          37.4766990,55.7455620,0.0
          37.4764670,55.7457000,0.0
          37.4762350,55.7458350,0.0
          37.4760760,55.7459940,0.0
          37.4759690,55.7461670,0.0
          37.4756720,55.7463170,0.0
          37.4755720,55.7464940,0.0
          37.4756630,55.7466960,0.0
          37.4757880,55.7468830,0.0
          37.4758920,55.7470600,0.0
          37.4759430,55.7472570,0.0
          37.4758910,55.7474420,0.0
          37.4757910,55.7476580,0.0
          37.4757320,55.7478900,0.0
          37.4755600,55.7480600,0.0
          37.4755110,55.7478740,0.0
          37.4754470,55.7476800,0.0
          37.4752600,55.7475090,0.0
          37.4750510,55.7473460,0.0
          37.4748090,55.7472070,0.0
          37.4745020,55.7471300,0.0
          37.4743470,55.7469710,0.0
          37.4740730,55.7468570,0.0
          37.4737870,55.7467720,0.0
          37.4735040,55.7466740,0.0
          37.4732460,55.7468440,0.0
          37.4729830,55.7466720,0.0
          37.4728440,55.7464990,0.0
          37.4726610,55.7463380,0.0
          37.4724540,55.7461960,0.0
          37.4722350,55.7460400,0.0
          37.4720050,55.7459060,0.0
          37.4717660,55.7457560,0.0
          37.4715010,55.7456480,0.0
          37.4711950,55.7454810,0.0
          37.4709600,55.7453110,0.0
          37.4707680,55.7451650,0.0
          37.4704460,55.7450320,0.0
          37.4701630,55.7448630,0.0
          37.4699010,55.7447140,0.0
          37.4696200,55.7445690,0.0
          37.4693850,55.7444340,0.0
          37.4691480,55.7442820,0.0
          37.4689110,55.7441470,0.0
          37.4686250,55.7439970,0.0
          37.4683790,55.7438660,0.0
          37.4680760,55.7437150,0.0
          37.4677420,55.7435590,0.0
          37.4674420,55.7434150,0.0
          37.4671060,55.7432800,0.0
          37.4668290,55.7431800,0.0
          37.4665670,55.7430760,0.0
          37.4662980,55.7429460,0.0
          37.4659940,55.7428010,0.0
          37.4657070,55.7426840,0.0
          37.4654270,55.7425560,0.0
          37.4651600,55.7424350,0.0
          37.4648490,55.7423000,0.0
          37.4645260,55.7421640,0.0
          37.4642200,55.7420570,0.0
          37.4638920,55.7419420,0.0
          37.4636200,55.7418420,0.0
          37.4633540,55.7417360,0.0
          37.4630620,55.7416490,0.0
          37.4627040,55.7415530,0.0
          37.4623550,55.7415080,0.0
          37.4620460,55.7414180,0.0
          37.4617200,55.7413450,0.0
          37.4613790,55.7412510,0.0
          37.4610210,55.7411730,0.0
          37.4606390,55.7410680,0.0
          37.4602820,55.7409730,0.0
          37.4599710,55.7408610,0.0
          37.4596350,55.7407890,0.0
          37.4592660,55.7407150,0.0
          37.4589330,55.7406280,0.0
          37.4585510,55.7405420,0.0
          37.4581840,55.7404850,0.0
          37.4578370,55.7404570,0.0
          37.4575130,55.7404220,0.0
          37.4571840,55.7403710,0.0
          37.4568710,55.7403300,0.0
          37.4565220,55.7403140,0.0
          37.4561500,55.7403270,0.0
          37.4557690,55.7402980,0.0
          37.4553670,55.7402580,0.0
          37.4549970,55.7402100,0.0
          37.4545860,55.7401950,0.0
          37.4542630,55.7401640,0.0
          37.4538850,55.7401480,0.0
          37.4535640,55.7401450,0.0
          37.4532080,55.7401500,0.0
          37.4528600,55.7401510,0.0
          37.4524230,55.7401590,0.0
          37.4520410,55.7401520,0.0
          37.4516800,55.7401830,0.0
          37.4513300,55.7402130,0.0
          37.4509200,55.7402730,0.0
          37.4505400,55.7403230,0.0
          37.4501750,55.7403880,0.0
          37.4498090,55.7404980,0.0
          37.4494930,55.7405740,0.0
          37.4491970,55.7406600,0.0
          37.4488330,55.7407130,0.0
          37.4485140,55.7408010,0.0
          37.4481910,55.7408800,0.0
          37.4478190,55.7409750,0.0
          37.4474470,55.7410620,0.0
          37.4471360,55.7411400,0.0
          37.4468200,55.7412240,0.0
          37.4464520,55.7413230,0.0
          37.4461150,55.7414400,0.0
          37.4457850,55.7415610,0.0
          37.4454730,55.7416570,0.0
          37.4451130,55.7417890,0.0
          37.4447660,55.7418900,0.0
          37.4444950,55.7419940,0.0
          37.4441470,55.7420930,0.0
          37.4438250,55.7422290,0.0
          37.4435260,55.7423520,0.0
          37.4432380,55.7424810,0.0
          37.4429220,55.7425900,0.0
          37.4426520,55.7426860,0.0
          37.4423930,55.7427970,0.0
          37.4421820,55.7429380,0.0
          37.4419160,55.7430910,0.0
          37.4416980,55.7432440,0.0
          37.4414290,55.7433940,0.0
          37.4411420,55.7435030,0.0
          37.4408660,55.7436180,0.0
          37.4406080,55.7437690,0.0
          37.4403540,55.7439240,0.0
          37.4400780,55.7440910,0.0
          37.4398900,55.7442640,0.0
          37.4396050,55.7443900,0.0
          37.4393720,55.7445160,0.0
          37.4391100,55.7446890,0.0
          37.4388120,55.7448450,0.0
          37.4386000,55.7449880,0.0
          37.4383170,55.7451300,0.0
          37.4380600,55.7452610,0.0
          37.4377890,55.7454130,0.0
          37.4375280,55.7455780,0.0
          37.4372470,55.7457140,0.0
          37.4369900,55.7458850,0.0
          37.4367420,55.7460590,0.0
          37.4364670,55.7462000,0.0
          37.4362700,55.7463590,0.0
          37.4359940,55.7465130,0.0
          37.4357180,55.7466720,0.0
          37.4354950,55.7468610,0.0
          37.4352880,55.7470330,0.0
          37.4351040,55.7471990,0.0
          37.4349410,55.7473880,0.0
          37.4348680,55.7476040,0.0
          37.4348560,55.7477980,0.0
          37.4348740,55.7479920,0.0
          37.4349660,55.7482000,0.0
          37.4350260,55.7483770,0.0
          37.4350560,55.7485880,0.0
          37.4351290,55.7487910,0.0
          37.4352130,55.7489760,0.0
          37.4350520,55.7491350,0.0
          37.4348320,55.7492790,0.0
          37.4344970,55.7493430,0.0
          37.4341340,55.7493940,0.0
          37.4338090,55.7494470,0.0
          37.4334960,55.7495100,0.0
          37.4331820,55.7495630,0.0
          37.4328420,55.7496320,0.0
          37.4325380,55.7497000,0.0
          37.4325140,55.7499140,0.0
          37.4328090,55.7500220,0.0
          37.4331920,55.7499910,0.0
          37.4335240,55.7499260,0.0
          37.4338920,55.7498960,0.0
          37.4342700,55.7498230,0.0
          37.4346300,55.7497650,0.0
          37.4349680,55.7497050,0.0
          37.4353380,55.7496350,0.0
          37.4357090,55.7495520,0.0
          37.4360740,55.7494650,0.0
          37.4364120,55.7493890,0.0
          37.4367870,55.7493080,0.0
          37.4371440,55.7492420,0.0
          37.4375180,55.7491660,0.0
          37.4379010,55.7490810,0.0
          37.4382880,55.7490050,0.0
          37.4386690,55.7489140,0.0
          37.4390500,55.7488490,0.0
          37.4394320,55.7487780,0.0
          37.4397310,55.7487130,0.0
          37.4400820,55.7486700,0.0
          37.4404560,55.7486240,0.0
          37.4408760,55.7485820,0.0
          37.4412800,55.7485840,0.0
          37.4417270,55.7485980,0.0
          37.4421620,55.7486190,0.0
          37.4425930,55.7486340,0.0
          37.4429960,55.7486840,0.0
          37.4434040,55.7487700,0.0
          37.4437950,55.7488510,0.0
          37.4441530,55.7489290,0.0
          37.4445250,55.7490010,0.0
          37.4449140,55.7490830,0.0
          37.4452800,55.7491740,0.0
          37.4456470,55.7492740,0.0
          37.4459940,55.7493640,0.0
          37.4463110,55.7494360,0.0
          37.4466400,55.7495000,0.0
          37.4469320,55.7495780,0.0
          37.4472400,55.7496650,0.0
          37.4475510,55.7497490,0.0
          37.4478750,55.7498210,0.0
          37.4481900,55.7498950,0.0
          37.4485660,55.7499940,0.0
          37.4488960,55.7500820,0.0
          37.4492650,55.7501710,0.0
          37.4496360,55.7502610,0.0
          37.4499430,55.7503410,0.0
          37.4502590,55.7504080,0.0
          37.4506040,55.7504840,0.0
          37.4509330,55.7505530,0.0
          37.4512970,55.7506300,0.0
          37.4516450,55.7507210,0.0
          37.4520100,55.7508120,0.0
          37.4522960,55.7508930,0.0
          37.4526440,55.7510130,0.0
          37.4530200,55.7511090,0.0
          37.4533280,55.7511830,0.0
          37.4536710,55.7512630,0.0
          37.4540090,55.7513510,0.0
          37.4543700,55.7514370,0.0
          37.4547110,55.7515160,0.0
          37.4549910,55.7516090,0.0
          37.4552780,55.7516990,0.0
          37.4555960,55.7518420,0.0
          37.4558490,55.7519610,0.0
          37.4560550,55.7521110,0.0
          37.4562550,55.7522620,0.0
          37.4564300,55.7524170,0.0
          37.4566240,55.7525750,0.0
          37.4568130,55.7527380,0.0
          37.4569680,55.7528960,0.0
          37.4571730,55.7531000,0.0
          37.4573770,55.7532780,0.0
          37.4575630,55.7534650,0.0
          37.4577550,55.7536520,0.0
          37.4579340,55.7538340,0.0
          37.4581100,55.7540070,0.0
          37.4582720,55.7541780,0.0
          37.4584680,55.7543430,0.0
          37.4586970,55.7545060,0.0
          37.4589220,55.7546680,0.0
          37.4591510,55.7548210,0.0
          37.4594030,55.7549600,0.0
          37.4596190,55.7550990,0.0
          37.4598470,55.7552390,0.0
          37.4601080,55.7553940,0.0
          37.4603390,55.7555250,0.0
          37.4606090,55.7556860,0.0
          37.4608670,55.7558120,0.0
          37.4611080,55.7559340,0.0
          37.4613430,55.7560570,0.0
          37.4615970,55.7561870,0.0
          37.4618680,55.7563310,0.0
          37.4621250,55.7564600,0.0
          37.4623610,55.7565970,0.0
          37.4626310,55.7567340,0.0
          37.4628740,55.7568780,0.0
          37.4631210,55.7570320,0.0
          37.4634260,55.7571890,0.0
          37.4636810,55.7573240,0.0
          37.4639700,55.7574880,0.0
          37.4642200,55.7576370,0.0
          37.4644330,55.7577810,0.0
          37.4646360,55.7579460,0.0
          37.4648710,55.7581160,0.0
          37.4649870,55.7583230,0.0
          37.4650860,55.7584950,0.0
          37.4651920,55.7587160,0.0
          37.4653070,55.7589340,0.0
          37.4654310,55.7591430,0.0
          37.4655200,55.7593350,0.0
          37.4656920,55.7595490,0.0
          37.4658360,55.7597480,0.0
          37.4659540,55.7599490,0.0
          37.4660660,55.7601440,0.0
          37.4661520,55.7603290,0.0
          37.4662310,55.7605100,0.0
          37.4663050,55.7607260,0.0
          37.4664260,55.7609110,0.0
          37.4665270,55.7611030,0.0
          37.4665680,55.7613210,0.0
          37.4666620,55.7615100,0.0
          37.4667780,55.7617000,0.0
          37.4668910,55.7618900,0.0
          37.4670210,55.7620930,0.0
          37.4671210,55.7623000,0.0
          37.4671830,55.7625100,0.0
          37.4672850,55.7627000,0.0
          37.4673780,55.7628920,0.0
          37.4674570,55.7630750,0.0
          37.4675440,55.7632890,0.0
          37.4676120,55.7634650,0.0
          37.4676790,55.7636520,0.0
          37.4678130,55.7638450,0.0
          37.4679100,55.7640260,0.0
          37.4680310,55.7642000,0.0
          37.4681410,55.7643750,0.0
          37.4683050,55.7645420,0.0
          37.4685310,55.7647260,0.0
          37.4687470,55.7648640,0.0
          37.4690130,55.7650270,0.0
          37.4692720,55.7651430,0.0
          37.4695930,55.7652560,0.0
          37.4698280,55.7653780,0.0
          37.4701730,55.7654820,0.0
          37.4705060,55.7655640,0.0
          37.4708260,55.7655850,0.0
          37.4711850,55.7656040,0.0
          37.4715230,55.7656230,0.0
          37.4718480,55.7656490,0.0
          37.4722290,55.7656850,0.0
          37.4725840,55.7657170,0.0
          37.4729350,55.7657490,0.0
          37.4732670,55.7657840,0.0
          37.4735940,55.7658280,0.0
          37.4739370,55.7658780,0.0
          37.4742720,55.7659570,0.0
          37.4745810,55.7660340,0.0
          37.4749440,55.7661030,0.0
          37.4751940,55.7662620,0.0
          37.4753780,55.7664340,0.0
          37.4754580,55.7666530,0.0
          37.4753910,55.7668720,0.0
          37.4753040,55.7670820,0.0
          37.4752160,55.7672940,0.0
          37.4751630,55.7674870,0.0
          37.4750890,55.7677040,0.0
          37.4750240,55.7679060,0.0
          37.4749720,55.7681220,0.0
          37.4749450,55.7683410,0.0
          37.4749030,55.7685560,0.0
          37.4748390,55.7687650,0.0
          37.4746070,55.7688950,0.0
          37.4742880,55.7689510,0.0
          37.4739530,55.7689810,0.0
          37.4735930,55.7689580,0.0
          37.4732300,55.7689660,0.0
          37.4728630,55.7689430,0.0
          37.4725420,55.7688780,0.0
          37.4721930,55.7688000,0.0
          37.4718080,55.7687280,0.0
          37.4714360,55.7686460,0.0
          37.4710480,55.7686340,0.0
          37.4707120,55.7686250,0.0
          37.4703570,55.7685710,0.0
          37.4699630,55.7685730,0.0
          37.4696110,55.7686280,0.0
          37.4692460,55.7686400,0.0
          37.4689020,55.7687080,0.0
          37.4685730,55.7687560,0.0
          37.4682520,55.7688360,0.0
          37.4679080,55.7689130,0.0
          37.4675780,55.7690150,0.0
          37.4672660,55.7691210,0.0
          37.4669700,55.7692300,0.0
          37.4667220,55.7693560,0.0
          37.4665080,55.7694950,0.0
          37.4662520,55.7696610,0.0
          37.4660170,55.7698340,0.0
          37.4658160,55.7699800,0.0
          37.4656230,55.7701700,0.0
          37.4654480,55.7703210,0.0
          37.4652680,55.7704930,0.0
          37.4651220,55.7706610,0.0
          37.4649970,55.7708500,0.0
          37.4648430,55.7710460,0.0
          37.4646730,55.7712240,0.0
          37.4645330,55.7714190,0.0
          37.4644240,55.7716040,0.0
          37.4642620,55.7717900,0.0
          37.4640600,55.7719690,0.0
          37.4638960,55.7721270,0.0
          37.4637200,55.7722850,0.0
          37.4634840,55.7724620,0.0
          37.4632640,55.7725990,0.0
          37.4630020,55.7727630,0.0
          37.4627960,55.7729070,0.0
          37.4625250,55.7730580,0.0
          37.4622310,55.7732050,0.0
          37.4619950,55.7733900,0.0
          37.4617470,55.7735740,0.0
          37.4614930,55.7737550,0.0
          37.4612590,55.7738940,0.0
          37.4610280,55.7740280,0.0
          37.4608050,55.7741650,0.0
          37.4605660,55.7743050,0.0
          37.4602800,55.7744650,0.0
          37.4599910,55.7746390,0.0
          37.4597350,55.7747910,0.0
          37.4595210,55.7749470,0.0
          37.4592960,55.7751000,0.0
          37.4590500,55.7752540,0.0
          37.4588110,55.7754050,0.0
          37.4585800,55.7755510,0.0
          37.4583310,55.7756990,0.0
          37.4580830,55.7758510,0.0
          37.4578630,55.7759930,0.0
          37.4576820,55.7761900,0.0
          37.4575300,55.7763790,0.0
          37.4573770,55.7765580,0.0
          37.4572130,55.7767560,0.0
          37.4569920,55.7768990,0.0
          37.4567310,55.7770220,0.0
          37.4563610,55.7771560,0.0
          37.4560860,55.7772510,0.0
          37.4558050,55.7773470,0.0
          37.4554430,55.7774710,0.0
          37.4551850,55.7775930,0.0
          37.4549000,55.7776990,0.0
          37.4546220,55.7777910,0.0
          37.4543000,55.7778840,0.0
          37.4539680,55.7779880,0.0
          37.4536040,55.7780870,0.0
          37.4532450,55.7781640,0.0
          37.4528570,55.7782520,0.0
          37.4524720,55.7783300,0.0
          37.4521660,55.7784020,0.0
          37.4518460,55.7784450,0.0
          37.4516170,55.7785880,0.0
          37.4513280,55.7787090,0.0
          37.4511040,55.7788540,0.0
          37.4507480,55.7791680,0.0
          37.4504740,55.7792920,0.0
          37.4501510,55.7792340,0.0
          37.4498560,55.7793260,0.0
          37.4495840,55.7794480,0.0
          37.4492630,55.7795100,0.0
          37.4489480,55.7795460,0.0
          37.4487940,55.7797400,0.0
          37.4486290,55.7798950,0.0
          37.4484640,55.7800750,0.0
          37.4481670,55.7801790,0.0
          37.4479460,55.7803310,0.0
          37.4477080,55.7804870,0.0
          37.4476460,55.7806720,0.0
          37.4476420,55.7808560,0.0
          37.4475950,55.7810660,0.0
          37.4475290,55.7812640,0.0
          37.4474260,55.7814600,0.0
          37.4472130,55.7816080,0.0
          37.4470300,55.7817910,0.0
          37.4468880,55.7819720,0.0
          37.4468700,55.7821530,0.0
          37.4468850,55.7823720,0.0
          37.4467730,55.7825740,0.0
          37.4467990,55.7827840,0.0
          37.4468420,55.7829640,0.0
          37.4468060,55.7831710,0.0
          37.4468000,55.7833800,0.0
          37.4467060,55.7835640,0.0
          37.4466720,55.7837460,0.0
          37.4466810,55.7839650,0.0
          37.4466680,55.7841640,0.0
          37.4467300,55.7843450,0.0
          37.4468430,55.7845490,0.0
          37.4469120,55.7847310,0.0
          37.4469530,55.7849300,0.0
          37.4469990,55.7851470,0.0
          37.4470270,55.7853270,0.0
          37.4470870,55.7855440,0.0
          37.4471120,55.7857370,0.0
          37.4471080,55.7859570,0.0
          37.4470070,55.7861420,0.0
          37.4469350,55.7863560,0.0
          37.4469540,55.7865650,0.0
          37.4469550,55.7867490,0.0
          37.4469540,55.7869470,0.0
          37.4469450,55.7871700,0.0
          37.4469060,55.7873740,0.0
          37.4469850,55.7875790,0.0
          37.4470730,55.7877620,0.0
          37.4471530,55.7879390,0.0
          37.4471760,55.7881460,0.0
          37.4471940,55.7883560,0.0
          37.4472230,55.7885600,0.0
          37.4471790,55.7887630,0.0
          37.4469780,55.7889230,0.0
          37.4468340,55.7891180,0.0
          37.4467920,55.7893050,0.0
          37.4468500,55.7894880,0.0
          37.4470400,55.7896410,0.0
          37.4471140,55.7898380,0.0
          37.4471600,55.7900430,0.0
          37.4472010,55.7902470,0.0
          37.4471970,55.7904370,0.0
          37.4471710,55.7906370,0.0
          37.4471760,55.7908350,0.0
          37.4471900,55.7910200,0.0
          37.4470720,55.7912140,0.0
          37.4470170,55.7914340,0.0
          37.4470490,55.7916520,0.0
          37.4470340,55.7918320,0.0
          37.4470640,55.7920320,0.0
          37.4470980,55.7922130,0.0
          37.4471550,55.7924100,0.0
          37.4471850,55.7925930,0.0
          37.4471870,55.7928060,0.0
          37.4471450,55.7929960,0.0
          37.4471550,55.7932070,0.0
          37.4471950,55.7934020,0.0
          37.4473940,55.7935480,0.0
          37.4476160,55.7936900,0.0
          37.4477580,55.7938620,0.0
          37.4477170,55.7940460,0.0
          37.4477830,55.7942780,0.0
          37.4480010,55.7944450,0.0
          37.4478950,55.7946250,0.0
          37.4477200,55.7947920,0.0
          37.4477680,55.7949710,0.0
          37.4477740,55.7951570,0.0
          37.4479420,55.7953280,0.0
          37.4478510,55.7955100,0.0
          37.4479180,55.7957030,0.0
          37.4481040,55.7958660,0.0
          37.4483280,55.7960000,0.0
          37.4483670,55.7961800,0.0
          37.4487180,55.7961990,0.0
          37.4490450,55.7962540,0.0
          37.4493550,55.7963300,0.0
          37.4496640,55.7963920,0.0
          37.4500210,55.7964840,0.0
          37.4503310,55.7965550,0.0
          37.4506610,55.7966530,0.0
          37.4509670,55.7967110,0.0
          37.4512760,55.7967570,0.0
          37.4515970,55.7968140,0.0
          37.4519220,55.7967760,0.0
          37.4521760,55.7966320,0.0
          37.4524280,55.7965160,0.0
          37.4527220,55.7964240,0.0
          37.4529820,55.7963120,0.0
          37.4529100,55.7965410,0.0
          37.4527260,55.7967000,0.0
          37.4525600,55.7968610,0.0
          37.4523860,55.7970360,0.0
          37.4521920,55.7972150,0.0
          37.4519620,55.7974080,0.0
          37.4518070,55.7975670,0.0
          37.4516210,55.7977310,0.0
          37.4514030,55.7978920,0.0
          37.4512050,55.7980520,0.0
          37.4510070,55.7982290,0.0
          37.4508420,55.7984120,0.0
          37.4506870,55.7985900,0.0
          37.4505850,55.7987920,0.0
          37.4505720,55.7989770,0.0
          37.4505520,55.7991960,0.0
          37.4505490,55.7994020,0.0
          37.4505510,55.7996150,0.0
          37.4505350,55.7997980,0.0
          37.4505430,55.7999810,0.0
          37.4505310,55.8001710,0.0
          37.4505120,55.8003690,0.0
          37.4504820,55.8005700,0.0
          37.4504780,55.8007790,0.0
          37.4504810,55.8010110,0.0
          37.4504750,55.8012200,0.0
          37.4504810,55.8014140,0.0
          37.4504790,55.8016300,0.0
          37.4505110,55.8018400,0.0
          37.4505530,55.8020330,0.0
          37.4505760,55.8022320,0.0
          37.4506300,55.8024600,0.0
          37.4506190,55.8026750,0.0
          37.4506180,55.8028740,0.0
          37.4507180,55.8030450,0.0
          37.4506910,55.8032430,0.0
          37.4506710,55.8034480,0.0
          37.4506780,55.8036600,0.0
          37.4506780,55.8038460,0.0
          37.4506750,55.8040440,0.0
          37.4506980,55.8042480,0.0
          37.4507290,55.8044330,0.0
          37.4508320,55.8046140,0.0
          37.4510330,55.8047860,0.0
          37.4512530,55.8049300,0.0
          37.4515480,55.8050470,0.0
          37.4517750,55.8051920,0.0
          37.4519510,55.8053490,0.0
          37.4522740,55.8053860,0.0
          37.4526550,55.8054430,0.0
          37.4529910,55.8054780,0.0
          37.4533330,55.8054320,0.0
          37.4534080,55.8056080,0.0
          37.4531190,55.8057200,0.0
          37.4527320,55.8057060,0.0
          37.4524060,55.8056840,0.0
          37.4520610,55.8056560,0.0
          37.4516690,55.8056290,0.0
          37.4512870,55.8056020,0.0
          37.4509360,55.8055710,0.0
          37.4505940,55.8055460,0.0
          37.4502310,55.8055190,0.0
          37.4498410,55.8054870,0.0
          37.4494710,55.8054530,0.0
          37.4491250,55.8054290,0.0
          37.4487550,55.8054170,0.0
          37.4483660,55.8053960,0.0
          37.4479820,55.8053640,0.0
          37.4476060,55.8053550,0.0
          37.4472400,55.8053240,0.0
          37.4468940,55.8053080,0.0
          37.4465650,55.8052920,0.0
          37.4462190,55.8052790,0.0
          37.4458240,55.8052680,0.0
          37.4454760,55.8052600,0.0
          37.4451290,55.8052610,0.0
          37.4447520,55.8052610,0.0
          37.4443490,55.8052550,0.0
          37.4439850,55.8052400,0.0
          37.4436160,55.8052250,0.0
          37.4431840,55.8052110,0.0
          37.4427500,55.8051860,0.0
          37.4423300,55.8051610,0.0
          37.4418890,55.8051300,0.0
          37.4414610,55.8051100,0.0
          37.4410360,55.8050960,0.0
          37.4405850,55.8050860,0.0
          37.4401040,55.8050850,0.0
          37.4396570,55.8050790,0.0
          37.4393330,55.8050700,0.0
          37.4388520,55.8050510,0.0
          37.4384900,55.8050380,0.0
          37.4381430,55.8050280,0.0
          37.4377590,55.8050150,0.0
          37.4373970,55.8049980,0.0
          37.4370100,55.8049800,0.0
          37.4366740,55.8049650,0.0
          37.4363260,55.8049520,0.0
          37.4358480,55.8049270,0.0
          37.4355160,55.8049010,0.0
          37.4350700,55.8048760,0.0
          37.4346480,55.8048480,0.0
          37.4342650,55.8048100,0.0
          37.4339150,55.8047560,0.0
          37.4335560,55.8046950,0.0
          37.4332050,55.8046360,0.0
          37.4328930,55.8045840,0.0
          37.4325710,55.8045480,0.0
          37.4322160,55.8045010,0.0
          37.4318880,55.8044600,0.0
          37.4315310,55.8044130,0.0
          37.4311540,55.8043450,0.0
          37.4308290,55.8043020,0.0
          37.4305120,55.8042430,0.0
          37.4301990,55.8041800,0.0
          37.4298760,55.8041100,0.0
          37.4294860,55.8040600,0.0
          37.4291170,55.8039980,0.0
          37.4287880,55.8039460,0.0
          37.4284360,55.8038830,0.0
          37.4280630,55.8038320,0.0
          37.4276830,55.8037760,0.0
          37.4273440,55.8037650,0.0
          37.4269580,55.8037760,0.0
          37.4266060,55.8037770,0.0
          37.4262500,55.8037830,0.0
          37.4258860,55.8037820,0.0
          37.4255200,55.8037910,0.0
          37.4251500,55.8038000,0.0
          37.4247940,55.8038070,0.0
          37.4244450,55.8038410,0.0
          37.4240960,55.8038790,0.0
          37.4237350,55.8039110,0.0
          37.4233750,55.8039490,0.0
          37.4229850,55.8040010,0.0
          37.4226540,55.8040460,0.0
          37.4223340,55.8040810,0.0
          37.4219450,55.8041140,0.0
          37.4216000,55.8041610,0.0
          37.4212620,55.8042140,0.0
          37.4209020,55.8042670,0.0
          37.4205690,55.8043200,0.0
          37.4202420,55.8043520,0.0
          37.4200180,55.8042040,0.0
          37.4196580,55.8041970,0.0
          37.4193310,55.8042220,0.0
          37.4189460,55.8042690,0.0
          37.4186220,55.8043140,0.0
          37.4182890,55.8043440,0.0
          37.4179610,55.8043940,0.0
          37.4176160,55.8044330,0.0
          37.4172670,55.8044730,0.0
          37.4169060,55.8044940,0.0
          37.4165780,55.8045040,0.0
          37.4161980,55.8045530,0.0
          37.4158740,55.8046060,0.0
          37.4155360,55.8046750,0.0
          37.4151680,55.8047330,0.0
          37.4148190,55.8047620,0.0
          37.4145050,55.8047950,0.0
          37.4141700,55.8048600,0.0
          37.4138690,55.8049330,0.0
          37.4135250,55.8049460,0.0
          37.4132080,55.8049770,0.0
          37.4128270,55.8049380,0.0
          37.4124850,55.8049460,0.0
          37.4121600,55.8050280,0.0
          37.4118420,55.8050410,0.0
          37.4114790,55.8050120,0.0
          37.4111180,55.8049840,0.0
          37.4108230,55.8048650,0.0
          37.4106060,55.8046940,0.0
          37.4103840,55.8045300,0.0
          37.4102560,55.8043360,0.0
          37.4102180,55.8041440,0.0
          37.4101000,55.8039550,0.0
          37.4098770,55.8037880,0.0
          37.4096730,55.8036280,0.0
          37.4095150,55.8034630,0.0
          37.4093360,55.8033060,0.0
          37.4092190,55.8031380,0.0
          37.4091350,55.8029480,0.0
          37.4087720,55.8029460,0.0
          37.4084320,55.8029460,0.0
          37.4080950,55.8029640,0.0
          37.4077510,55.8029720,0.0
          37.4076000,55.8028120,0.0
          37.4072470,55.8027540,0.0
          37.4069260,55.8028080,0.0
          37.4065750,55.8029030,0.0
          37.4062340,55.8030000,0.0
          37.4059300,55.8030840,0.0
          37.4056060,55.8031400,0.0
          37.4052630,55.8032080,0.0
          37.4048960,55.8032610,0.0
          37.4045760,55.8033110,0.0
          37.4042310,55.8033560,0.0
          37.4038890,55.8034240,0.0
          37.4035690,55.8034770,0.0
          37.4031960,55.8035330,0.0
          37.4028770,55.8036010,0.0
          37.4025330,55.8037020,0.0
          37.4022100,55.8037860,0.0
          37.4018820,55.8038680,0.0
          37.4015500,55.8039300,0.0
          37.4011860,55.8040080,0.0
          37.4008480,55.8040700,0.0
          37.4005320,55.8041260,0.0
        </coordinates>
      </LineString>
    </Placemark>
  </Document>
</kml>
