<?xml version="1.0" encoding="UTF-8"?>
<kml xmlns="http://www.opengis.net/kml/2.2">
  <Document>
    <name>Филевский парк</name>
    <description><![CDATA[<a href="https://www.mnogotrop.com/route/445" target="_blank">Источник: mnogotrop.com/route/445</a>
<p>Короткий маршрут по Филевскому парку и набережной Москвы-реки: парковые аллеи, видовые участки у воды, площадки, прокат и родник.</p>
<p>Подходит для легкой прогулки без выезда далеко из города, особенно в непиковое время, когда в парке меньше пешеходов.</p>
<p>Особенности: в людные часы на дорожках может быть тесно, поэтому маршрут лучше воспринимать как прогулочный.</p>]]></description>
    <Style id="route-line">
      <LineStyle>
        <color>ffd18802</color>
        <width>5</width>
      </LineStyle>
    </Style>
    <Style id="poi-point">
      <IconStyle>
        <color>ff3644db</color>
        <scale>1.0</scale>
        <Icon>
          <href>https://www.gstatic.com/mapspro/images/stock/503-wht-blank_maps.png</href>
        </Icon>
      </IconStyle>
    </Style>
    <Placemark>
      <name>Старт</name>
      <description><![CDATA[<p><b>Адрес:</b> Институт Современного Искусства</p>]]></description>
      <styleUrl>#poi-point</styleUrl>
      <Point>
        <coordinates>37.4964710,55.7506150,0.0</coordinates>
      </Point>
    </Placemark>
    <Placemark>
      <name>Вход в парк</name>
      <description><![CDATA[<p><b>Адрес:</b> Барклая ул., 22</p>]]></description>
      <styleUrl>#poi-point</styleUrl>
      <Point>
        <coordinates>37.4923800,55.7506160,0.0</coordinates>
      </Point>
    </Placemark>
    <Placemark>
      <name>Аллея</name>
      <description><![CDATA[<p><b>Адрес:</b> Барклая ул., 22 строение 5</p>]]></description>
      <styleUrl>#poi-point</styleUrl>
      <Point>
        <coordinates>37.4908750,55.7496550,0.0</coordinates>
      </Point>
    </Placemark>
    <Placemark>
      <name>Главная сцена</name>
      <description><![CDATA[<p><b>Адрес:</b> район Филевский парк</p>]]></description>
      <styleUrl>#poi-point</styleUrl>
      <Point>
        <coordinates>37.4863060,55.7488010,0.0</coordinates>
      </Point>
    </Placemark>
    <Placemark>
      <name>Указатель</name>
      <description><![CDATA[<p><b>Адрес:</b> Большая Филевская ул., 31</p>]]></description>
      <styleUrl>#poi-point</styleUrl>
      <Point>
        <coordinates>37.4847760,55.7446820,0.0</coordinates>
      </Point>
    </Placemark>
    <Placemark>
      <name>Велодорожка</name>
      <description><![CDATA[<p><b>Адрес:</b> район Филевский парк</p>]]></description>
      <styleUrl>#poi-point</styleUrl>
      <Point>
        <coordinates>37.4764000,55.7464110,0.0</coordinates>
      </Point>
    </Placemark>
    <Placemark>
      <name>Велотупик</name>
      <description><![CDATA[<p><b>Адрес:</b> Большая Филевская ул., 41 корпус 1</p>]]></description>
      <styleUrl>#poi-point</styleUrl>
      <Point>
        <coordinates>37.4751630,55.7418740,0.0</coordinates>
      </Point>
    </Placemark>
    <Placemark>
      <name>К реке</name>
      <description><![CDATA[<p><b>Адрес:</b> район Филевский парк</p>]]></description>
      <styleUrl>#poi-point</styleUrl>
      <Point>
        <coordinates>37.4760740,55.7459960,0.0</coordinates>
      </Point>
    </Placemark>
    <Placemark>
      <name>Спуск</name>
      <description><![CDATA[<p><b>Адрес:</b> район Филевский парк</p>]]></description>
      <styleUrl>#poi-point</styleUrl>
      <Point>
        <coordinates>37.4756870,55.7464670,0.0</coordinates>
      </Point>
    </Placemark>
    <Placemark>
      <name>К пляжу</name>
      <description><![CDATA[<p><b>Адрес:</b> район Филевский парк</p>]]></description>
      <styleUrl>#poi-point</styleUrl>
      <Point>
        <coordinates>37.4760680,55.7477340,0.0</coordinates>
      </Point>
    </Placemark>
    <Placemark>
      <name>Набережная</name>
      <description><![CDATA[<p><b>Адрес:</b> Филевская наб.</p>]]></description>
      <styleUrl>#poi-point</styleUrl>
      <Point>
        <coordinates>37.4732750,55.7468600,0.0</coordinates>
      </Point>
    </Placemark>
    <Placemark>
      <name>Набережная</name>
      <description><![CDATA[<p><b>Адрес:</b> район Филевский парк</p>]]></description>
      <styleUrl>#poi-point</styleUrl>
      <Point>
        <coordinates>37.4623420,55.7414770,0.0</coordinates>
      </Point>
    </Placemark>
    <Placemark>
      <name>Крылатское</name>
      <description><![CDATA[<p><b>Адрес:</b> Филевская наб.</p>]]></description>
      <styleUrl>#poi-point</styleUrl>
      <Point>
        <coordinates>37.4357650,55.7467600,0.0</coordinates>
      </Point>
    </Placemark>
    <Placemark>
      <name>Мост</name>
      <description><![CDATA[<p><b>Адрес:</b> Филевская наб.</p>]]></description>
      <styleUrl>#poi-point</styleUrl>
      <Point>
        <coordinates>37.4354240,55.7490170,0.0</coordinates>
      </Point>
    </Placemark>
    <Placemark>
      <name>Кормушки</name>
      <description><![CDATA[<p><b>Адрес:</b> район Филевский парк</p>]]></description>
      <styleUrl>#poi-point</styleUrl>
      <Point>
        <coordinates>37.4764450,55.7463520,0.0</coordinates>
      </Point>
    </Placemark>
    <Placemark>
      <name>Конец велодорожки</name>
      <description><![CDATA[<p><b>Адрес:</b> Барклая ул., 22</p>]]></description>
      <styleUrl>#poi-point</styleUrl>
      <Point>
        <coordinates>37.4912840,55.7506990,0.0</coordinates>
      </Point>
    </Placemark>
    <Placemark>
      <name>Филевский парк</name>
      <styleUrl>#route-line</styleUrl>
      <LineString>
        <tessellate>1</tessellate>
        <altitudeMode>clampToGround</altitudeMode>
        <coordinates>
          37.4964710,55.7506150,0.0
          37.4964710,55.7506150,0.0
          37.4963840,55.7506280,0.0
          37.4963500,55.7506700,0.0
          37.4962520,55.7507150,0.0
          37.4961510,55.7507110,0.0
          37.4960610,55.7507040,0.0
          37.4959300,55.7506930,0.0
          37.4958480,55.7506810,0.0
          37.4957320,55.7506710,0.0
          37.4956170,55.7506820,0.0
          37.4955000,55.7506910,0.0
          37.4953570,55.7506760,0.0
          37.4952740,55.7506510,0.0
          37.4951550,55.7506390,0.0
          37.4950730,55.7506300,0.0
          37.4949870,55.7506420,0.0
          37.4948840,55.7506550,0.0
          37.4947670,55.7506680,0.0
          37.4946390,55.7506740,0.0
          37.4945250,55.7506400,0.0
          37.4944010,55.7506500,0.0
          37.4942810,55.7506410,0.0
          37.4942000,55.7506310,0.0
          37.4940550,55.7506600,0.0
          37.4939700,55.7506550,0.0
          37.4938210,55.7506610,0.0
          37.4937290,55.7506700,0.0
          37.4936410,55.7506690,0.0
          37.4935480,55.7506650,0.0
          37.4934550,55.7506640,0.0
          37.4933060,55.7506740,0.0
          37.4931650,55.7506660,0.0
          37.4930340,55.7506670,0.0
          37.4928950,55.7506640,0.0
          37.4928100,55.7506650,0.0
          37.4926900,55.7506710,0.0
          37.4925830,55.7506770,0.0
          37.4924670,55.7506940,0.0
          37.4924020,55.7506590,0.0
          37.4923800,55.7506160,0.0
          37.4923000,55.7506320,0.0
          37.4923620,55.7506850,0.0
          37.4923390,55.7507360,0.0
          37.4922470,55.7507530,0.0
          37.4921580,55.7507560,0.0
          37.4920610,55.7507290,0.0
          37.4919560,55.7507200,0.0
          37.4918540,55.7507120,0.0
          37.4917590,55.7506880,0.0
          37.4916740,55.7506550,0.0
          37.4916020,55.7506200,0.0
          37.4915470,55.7505530,0.0
          37.4915450,55.7505000,0.0
          37.4915460,55.7504540,0.0
          37.4914920,55.7503890,0.0
          37.4914680,55.7503460,0.0
          37.4914190,55.7503020,0.0
          37.4913640,55.7502460,0.0
          37.4913500,55.7501690,0.0
          37.4913130,55.7501110,0.0
          37.4912390,55.7500640,0.0
          37.4911870,55.7500150,0.0
          37.4911460,55.7499470,0.0
          37.4910780,55.7499170,0.0
          37.4910170,55.7498750,0.0
          37.4909640,55.7498350,0.0
          37.4909200,55.7497650,0.0
          37.4908830,55.7497070,0.0
          37.4908750,55.7496550,0.0
          37.4908420,55.7496140,0.0
          37.4908160,55.7496570,0.0
          37.4907690,55.7496130,0.0
          37.4907150,55.7495600,0.0
          37.4907040,55.7495070,0.0
          37.4906400,55.7494350,0.0
          37.4905620,55.7493790,0.0
          37.4905480,55.7493260,0.0
          37.4904790,55.7492620,0.0
          37.4904350,55.7491830,0.0
          37.4903760,55.7491070,0.0
          37.4903240,55.7490550,0.0
          37.4902820,55.7490040,0.0
          37.4901820,55.7489360,0.0
          37.4901220,55.7489020,0.0
          37.4900890,55.7488580,0.0
          37.4900450,55.7487710,0.0
          37.4899670,55.7487050,0.0
          37.4898980,55.7486620,0.0
          37.4898480,55.7485980,0.0
          37.4897940,55.7485370,0.0
          37.4897760,55.7484920,0.0
          37.4897370,55.7484250,0.0
          37.4896880,55.7483790,0.0
          37.4896340,55.7483390,0.0
          37.4895650,55.7483170,0.0
          37.4894460,55.7483150,0.0
          37.4893560,55.7483080,0.0
          37.4892580,55.7483140,0.0
          37.4891400,55.7483290,0.0
          37.4890970,55.7483680,0.0
          37.4890040,55.7483890,0.0
          37.4889260,55.7484050,0.0
          37.4888240,55.7484210,0.0
          37.4887140,55.7484430,0.0
          37.4885790,55.7484360,0.0
          37.4884610,55.7484380,0.0
          37.4883110,55.7484350,0.0
          37.4881720,55.7484330,0.0
          37.4880830,55.7484500,0.0
          37.4880040,55.7484550,0.0
          37.4879060,55.7484680,0.0
          37.4877950,55.7484740,0.0
          37.4877270,55.7485140,0.0
          37.4876230,55.7485350,0.0
          37.4875280,55.7485420,0.0
          37.4874480,55.7485470,0.0
          37.4873160,55.7485480,0.0
          37.4871810,55.7485390,0.0
          37.4870990,55.7485510,0.0
          37.4870140,55.7485760,0.0
          37.4868930,55.7485780,0.0
          37.4867830,55.7485970,0.0
          37.4866820,55.7486170,0.0
          37.4865740,55.7486010,0.0
          37.4865170,55.7486440,0.0
          37.4864560,55.7486770,0.0
          37.4863900,55.7487200,0.0
          37.4863350,55.7487520,0.0
          37.4863060,55.7488010,0.0
          37.4862490,55.7487660,0.0
          37.4862250,55.7488360,0.0
          37.4861080,55.7488700,0.0
          37.4860360,55.7489260,0.0
          37.4859560,55.7489650,0.0
          37.4858170,55.7490020,0.0
          37.4857010,55.7490240,0.0
          37.4856260,55.7489930,0.0
          37.4855680,55.7489360,0.0
          37.4855040,55.7488900,0.0
          37.4854890,55.7488290,0.0
          37.4854640,55.7487820,0.0
          37.4854790,55.7487340,0.0
          37.4854990,55.7486860,0.0
          37.4854960,55.7486400,0.0
          37.4855040,55.7485830,0.0
          37.4855170,55.7485260,0.0
          37.4855350,55.7484430,0.0
          37.4855310,55.7483950,0.0
          37.4855340,55.7483200,0.0
          37.4855540,55.7482740,0.0
          37.4855880,55.7482180,0.0
          37.4855680,55.7481690,0.0
          37.4856190,55.7481250,0.0
          37.4856440,55.7480600,0.0
          37.4856880,55.7480030,0.0
          37.4857160,55.7479460,0.0
          37.4857440,55.7478950,0.0
          37.4857290,55.7478270,0.0
          37.4857750,55.7477720,0.0
          37.4858610,55.7477050,0.0
          37.4858580,55.7476300,0.0
          37.4858640,55.7475480,0.0
          37.4858900,55.7474700,0.0
          37.4859050,55.7474080,0.0
          37.4858980,55.7473530,0.0
          37.4859310,55.7472890,0.0
          37.4859280,55.7472420,0.0
          37.4864170,55.7466460,0.0
          37.4864760,55.7466040,0.0
          37.4865160,55.7465620,0.0
          37.4865710,55.7465130,0.0
          37.4866000,55.7464650,0.0
          37.4865930,55.7464080,0.0
          37.4865480,55.7463500,0.0
          37.4864960,55.7462820,0.0
          37.4864740,55.7462350,0.0
          37.4864380,55.7461860,0.0
          37.4863840,55.7461020,0.0
          37.4863290,55.7460140,0.0
          37.4862640,55.7459390,0.0
          37.4861830,55.7458630,0.0
          37.4861480,55.7458010,0.0
          37.4861160,55.7457460,0.0
          37.4860780,55.7456880,0.0
          37.4860400,55.7456430,0.0
          37.4859980,55.7456050,0.0
          37.4859620,55.7455450,0.0
          37.4858950,55.7454810,0.0
          37.4857850,55.7454150,0.0
          37.4857260,55.7453600,0.0
          37.4856510,55.7452790,0.0
          37.4855900,55.7452090,0.0
          37.4855600,55.7451600,0.0
          37.4855030,55.7450900,0.0
          37.4854700,55.7450430,0.0
          37.4853990,55.7449800,0.0
          37.4853390,55.7449170,0.0
          37.4852850,55.7448820,0.0
          37.4851850,55.7448370,0.0
          37.4851010,55.7448160,0.0
          37.4849720,55.7447880,0.0
          37.4849150,55.7447520,0.0
          37.4848260,55.7447260,0.0
          37.4847760,55.7446820,0.0
          37.4847640,55.7446260,0.0
          37.4847030,55.7446550,0.0
          37.4846290,55.7447220,0.0
          37.4845280,55.7447300,0.0
          37.4844710,55.7447630,0.0
          37.4844060,55.7447900,0.0
          37.4843320,55.7448310,0.0
          37.4842760,55.7448640,0.0
          37.4841950,55.7448970,0.0
          37.4841180,55.7449140,0.0
          37.4840390,55.7449230,0.0
          37.4839810,55.7449580,0.0
          37.4839130,55.7449880,0.0
          37.4838160,55.7449960,0.0
          37.4837070,55.7450070,0.0
          37.4836460,55.7450400,0.0
          37.4835280,55.7450500,0.0
          37.4834070,55.7450740,0.0
          37.4833240,55.7450740,0.0
          37.4832180,55.7450520,0.0
          37.4831420,55.7450690,0.0
          37.4830220,55.7450960,0.0
          37.4830100,55.7451450,0.0
          37.4829040,55.7451660,0.0
          37.4828280,55.7451940,0.0
          37.4827400,55.7452080,0.0
          37.4826650,55.7452250,0.0
          37.4825560,55.7452420,0.0
          37.4824210,55.7452750,0.0
          37.4823300,55.7452990,0.0
          37.4822450,55.7453240,0.0
          37.4821650,55.7453610,0.0
          37.4820920,55.7453850,0.0
          37.4819610,55.7453840,0.0
          37.4818340,55.7453850,0.0
          37.4818090,55.7454330,0.0
          37.4817810,55.7455040,0.0
          37.4816870,55.7455410,0.0
          37.4816200,55.7455700,0.0
          37.4815150,55.7455880,0.0
          37.4813900,55.7455820,0.0
          37.4812570,55.7455800,0.0
          37.4811520,55.7456100,0.0
          37.4810960,55.7456540,0.0
          37.4809960,55.7456910,0.0
          37.4808650,55.7456970,0.0
          37.4807570,55.7457320,0.0
          37.4806840,55.7457590,0.0
          37.4807050,55.7458050,0.0
          37.4806530,55.7458480,0.0
          37.4805810,55.7458810,0.0
          37.4805480,55.7458300,0.0
          37.4804480,55.7458050,0.0
          37.4803490,55.7457970,0.0
          37.4802620,55.7458080,0.0
          37.4801050,55.7458390,0.0
          37.4799490,55.7458920,0.0
          37.4798120,55.7459220,0.0
          37.4797010,55.7459100,0.0
          37.4796190,55.7458970,0.0
          37.4795060,55.7458790,0.0
          37.4794950,55.7459280,0.0
          37.4794150,55.7459290,0.0
          37.4792780,55.7459600,0.0
          37.4791370,55.7459500,0.0
          37.4790570,55.7459220,0.0
          37.4789790,55.7459520,0.0
          37.4790340,55.7459940,0.0
          37.4789910,55.7460320,0.0
          37.4788780,55.7460370,0.0
          37.4787800,55.7460620,0.0
          37.4786860,55.7460850,0.0
          37.4785720,55.7461080,0.0
          37.4784880,55.7461310,0.0
          37.4783890,55.7461470,0.0
          37.4782690,55.7461650,0.0
          37.4781640,55.7461900,0.0
          37.4780680,55.7462090,0.0
          37.4779340,55.7462020,0.0
          37.4778440,55.7462250,0.0
          37.4777450,55.7462430,0.0
          37.4776500,55.7462610,0.0
          37.4775530,55.7462820,0.0
          37.4774250,55.7462780,0.0
          37.4773300,55.7462770,0.0
          37.4772440,55.7462920,0.0
          37.4771270,55.7462920,0.0
          37.4770010,55.7462880,0.0
          37.4768950,55.7462940,0.0
          37.4767450,55.7463080,0.0
          37.4766800,55.7463410,0.0
          37.4766610,55.7463980,0.0
          37.4765630,55.7464210,0.0
          37.4764770,55.7464230,0.0
          37.4764000,55.7464110,0.0
          37.4764470,55.7463750,0.0
          37.4765210,55.7463560,0.0
          37.4765460,55.7463020,0.0
          37.4765110,55.7462570,0.0
          37.4764250,55.7462080,0.0
          37.4763650,55.7461650,0.0
          37.4763530,55.7461130,0.0
          37.4763050,55.7460650,0.0
          37.4762590,55.7460120,0.0
          37.4762070,55.7459450,0.0
          37.4761410,55.7459070,0.0
          37.4761000,55.7458600,0.0
          37.4760710,55.7458170,0.0
          37.4760410,55.7457680,0.0
          37.4760090,55.7457180,0.0
          37.4759660,55.7456630,0.0
          37.4759320,55.7456010,0.0
          37.4759030,55.7455550,0.0
          37.4758580,55.7455130,0.0
          37.4757830,55.7454500,0.0
          37.4757170,55.7453610,0.0
          37.4756790,55.7453100,0.0
          37.4756310,55.7452720,0.0
          37.4755970,55.7452180,0.0
          37.4755200,55.7451510,0.0
          37.4755040,55.7450920,0.0
          37.4754820,55.7449490,0.0
          37.4754520,55.7448980,0.0
          37.4753770,55.7448210,0.0
          37.4753370,55.7447680,0.0
          37.4753040,55.7447120,0.0
          37.4752920,55.7446230,0.0
          37.4752640,55.7445750,0.0
          37.4752640,55.7445200,0.0
          37.4752260,55.7444630,0.0
          37.4751960,55.7444080,0.0
          37.4751730,55.7443620,0.0
          37.4751320,55.7442990,0.0
          37.4751020,55.7442180,0.0
          37.4750910,55.7441440,0.0
          37.4750690,55.7440760,0.0
          37.4750650,55.7439800,0.0
          37.4750690,55.7439270,0.0
          37.4750720,55.7438500,0.0
          37.4750760,55.7437900,0.0
          37.4750800,55.7437450,0.0
          37.4750610,55.7436990,0.0
          37.4750790,55.7436220,0.0
          37.4750950,55.7435550,0.0
          37.4750900,55.7434900,0.0
          37.4750810,55.7434040,0.0
          37.4750860,55.7433310,0.0
          37.4750780,55.7432480,0.0
          37.4750700,55.7431930,0.0
          37.4750850,55.7431210,0.0
          37.4751090,55.7430440,0.0
          37.4750880,55.7429690,0.0
          37.4750740,55.7429210,0.0
          37.4750660,55.7428190,0.0
          37.4750710,55.7427540,0.0
          37.4750900,55.7427050,0.0
          37.4750870,55.7426290,0.0
          37.4750910,55.7425710,0.0
          37.4750790,55.7425260,0.0
          37.4750720,55.7424800,0.0
          37.4750670,55.7424170,0.0
          37.4750660,55.7423230,0.0
          37.4750770,55.7422640,0.0
          37.4750720,55.7421810,0.0
          37.4750200,55.7421140,0.0
          37.4750280,55.7420670,0.0
          37.4750640,55.7420040,0.0
          37.4751040,55.7419590,0.0
          37.4751610,55.7419260,0.0
          37.4751660,55.7418770,0.0
          37.4751430,55.7419210,0.0
          37.4751630,55.7418740,0.0
          37.4752200,55.7419380,0.0
          37.4751960,55.7420230,0.0
          37.4752210,55.7420770,0.0
          37.4752190,55.7421360,0.0
          37.4752180,55.7421950,0.0
          37.4752160,55.7422430,0.0
          37.4752080,55.7422940,0.0
          37.4751850,55.7423720,0.0
          37.4752010,55.7424500,0.0
          37.4751810,55.7425370,0.0
          37.4751770,55.7425850,0.0
          37.4751980,55.7426310,0.0
          37.4751960,55.7427020,0.0
          37.4752040,55.7427690,0.0
          37.4751830,55.7428220,0.0
          37.4751700,55.7428900,0.0
          37.4751750,55.7429410,0.0
          37.4751540,55.7430100,0.0
          37.4751770,55.7430660,0.0
          37.4751700,55.7431520,0.0
          37.4751480,55.7432490,0.0
          37.4751030,55.7433500,0.0
          37.4750930,55.7434060,0.0
          37.4750520,55.7434730,0.0
          37.4750310,55.7435180,0.0
          37.4750210,55.7435780,0.0
          37.4750410,55.7436590,0.0
          37.4749980,55.7437310,0.0
          37.4750280,55.7437910,0.0
          37.4750470,55.7438480,0.0
          37.4750880,55.7439420,0.0
          37.4750900,55.7439970,0.0
          37.4751070,55.7440710,0.0
          37.4751040,55.7441190,0.0
          37.4751400,55.7441890,0.0
          37.4751650,55.7442440,0.0
          37.4752870,55.7443070,0.0
          37.4754190,55.7444080,0.0
          37.4754570,55.7444500,0.0
          37.4755050,55.7445280,0.0
          37.4757460,55.7450510,0.0
          37.4757770,55.7451160,0.0
          37.4757940,55.7452230,0.0
          37.4758030,55.7453140,0.0
          37.4758380,55.7453780,0.0
          37.4758590,55.7454690,0.0
          37.4758560,55.7455190,0.0
          37.4759360,55.7455470,0.0
          37.4759460,55.7455930,0.0
          37.4760420,55.7456340,0.0
          37.4760720,55.7456860,0.0
          37.4760560,55.7457400,0.0
          37.4760860,55.7457890,0.0
          37.4760340,55.7458360,0.0
          37.4760540,55.7458950,0.0
          37.4760790,55.7459440,0.0
          37.4760740,55.7459960,0.0
          37.4761140,55.7460640,0.0
          37.4761400,55.7461210,0.0
          37.4760960,55.7461840,0.0
          37.4760480,55.7462360,0.0
          37.4759860,55.7462780,0.0
          37.4758780,55.7463170,0.0
          37.4758130,55.7463500,0.0
          37.4757300,55.7463860,0.0
          37.4757360,55.7464330,0.0
          37.4757790,55.7463900,0.0
          37.4757150,55.7464230,0.0
          37.4756870,55.7464670,0.0
          37.4756880,55.7465150,0.0
          37.4757460,55.7465960,0.0
          37.4757560,55.7466920,0.0
          37.4757870,55.7467340,0.0
          37.4758230,55.7467800,0.0
          37.4758320,55.7468440,0.0
          37.4758720,55.7468850,0.0
          37.4759140,55.7469440,0.0
          37.4759890,55.7470020,0.0
          37.4760300,55.7470670,0.0
          37.4760590,55.7471400,0.0
          37.4760730,55.7471930,0.0
          37.4760900,55.7472560,0.0
          37.4760890,55.7473260,0.0
          37.4760850,55.7473880,0.0
          37.4760760,55.7474550,0.0
          37.4760940,55.7475230,0.0
          37.4761370,55.7475800,0.0
          37.4761660,55.7476600,0.0
          37.4760970,55.7476890,0.0
          37.4760680,55.7477340,0.0
          37.4761490,55.7477350,0.0
          37.4761420,55.7478100,0.0
          37.4762090,55.7479070,0.0
          37.4761860,55.7479590,0.0
          37.4761170,55.7480070,0.0
          37.4760460,55.7480530,0.0
          37.4760130,55.7480970,0.0
          37.4758820,55.7481640,0.0
          37.4757420,55.7481360,0.0
          37.4756170,55.7480700,0.0
          37.4755900,55.7480010,0.0
          37.4755280,55.7479290,0.0
          37.4755030,55.7478820,0.0
          37.4754530,55.7478230,0.0
          37.4754140,55.7477760,0.0
          37.4753700,55.7477280,0.0
          37.4753290,55.7476720,0.0
          37.4752530,55.7476280,0.0
          37.4751640,55.7475850,0.0
          37.4751020,55.7475470,0.0
          37.4750690,55.7475000,0.0
          37.4750170,55.7474620,0.0
          37.4749600,55.7474260,0.0
          37.4749060,55.7473920,0.0
          37.4748150,55.7473720,0.0
          37.4747500,55.7473450,0.0
          37.4746040,55.7473230,0.0
          37.4745210,55.7473070,0.0
          37.4744490,55.7472690,0.0
          37.4743720,55.7472260,0.0
          37.4742940,55.7471760,0.0
          37.4741890,55.7471270,0.0
          37.4740780,55.7470850,0.0
          37.4740050,55.7470620,0.0
          37.4738460,55.7470010,0.0
          37.4737720,55.7469800,0.0
          37.4736840,55.7469430,0.0
          37.4735640,55.7469090,0.0
          37.4734840,55.7468820,0.0
          37.4734080,55.7468660,0.0
          37.4733230,55.7468860,0.0
          37.4732490,55.7468630,0.0
          37.4733210,55.7468920,0.0
          37.4733930,55.7469170,0.0
          37.4733100,55.7469090,0.0
          37.4732750,55.7468600,0.0
          37.4733400,55.7468310,0.0
          37.4733060,55.7467770,0.0
          37.4732240,55.7467260,0.0
          37.4731920,55.7466510,0.0
          37.4731030,55.7466080,0.0
          37.4730150,55.7465640,0.0
          37.4729270,55.7464960,0.0
          37.4728040,55.7464640,0.0
          37.4727020,55.7464060,0.0
          37.4726140,55.7463360,0.0
          37.4725660,55.7462770,0.0
          37.4724780,55.7461950,0.0
          37.4723610,55.7461210,0.0
          37.4722390,55.7460700,0.0
          37.4721300,55.7460270,0.0
          37.4720890,55.7459840,0.0
          37.4719800,55.7459350,0.0
          37.4718690,55.7458770,0.0
          37.4717480,55.7458390,0.0
          37.4716440,55.7457650,0.0
          37.4716080,55.7457110,0.0
          37.4715390,55.7456560,0.0
          37.4714350,55.7456080,0.0
          37.4713130,55.7455670,0.0
          37.4712070,55.7455250,0.0
          37.4711600,55.7454800,0.0
          37.4710540,55.7454410,0.0
          37.4709600,55.7453620,0.0
          37.4709100,55.7452940,0.0
          37.4708720,55.7452370,0.0
          37.4708340,55.7451660,0.0
          37.4707010,55.7451390,0.0
          37.4705940,55.7450900,0.0
          37.4705060,55.7450500,0.0
          37.4704560,55.7449900,0.0
          37.4703560,55.7449240,0.0
          37.4702880,55.7448910,0.0
          37.4701680,55.7448380,0.0
          37.4700820,55.7448080,0.0
          37.4700170,55.7447800,0.0
          37.4699370,55.7447480,0.0
          37.4698520,55.7446750,0.0
          37.4697890,55.7446190,0.0
          37.4697230,55.7445630,0.0
          37.4695850,55.7445150,0.0
          37.4695320,55.7444760,0.0
          37.4694740,55.7444440,0.0
          37.4694010,55.7444140,0.0
          37.4693310,55.7443840,0.0
          37.4692540,55.7443480,0.0
          37.4691470,55.7442780,0.0
          37.4690840,55.7442430,0.0
          37.4690180,55.7442170,0.0
          37.4689240,55.7441570,0.0
          37.4688480,55.7441010,0.0
          37.4687470,55.7440690,0.0
          37.4686870,55.7440090,0.0
          37.4686330,55.7439470,0.0
          37.4684980,55.7438950,0.0
          37.4683630,55.7438550,0.0
          37.4682860,55.7438240,0.0
          37.4682150,55.7437580,0.0
          37.4681510,55.7437230,0.0
          37.4680900,55.7436830,0.0
          37.4680070,55.7436640,0.0
          37.4679000,55.7436020,0.0
          37.4677360,55.7435250,0.0
          37.4676190,55.7435020,0.0
          37.4675370,55.7434650,0.0
          37.4674690,55.7433880,0.0
          37.4672920,55.7433110,0.0
          37.4672080,55.7432740,0.0
          37.4671510,55.7432340,0.0
          37.4670760,55.7432000,0.0
          37.4670090,55.7431520,0.0
          37.4669130,55.7430970,0.0
          37.4668260,55.7430590,0.0
          37.4667540,55.7430070,0.0
          37.4666880,55.7429660,0.0
          37.4665720,55.7429470,0.0
          37.4665040,55.7428990,0.0
          37.4663850,55.7428490,0.0
          37.4663050,55.7428090,0.0
          37.4661600,55.7427530,0.0
          37.4660610,55.7427180,0.0
          37.4659740,55.7426940,0.0
          37.4659110,55.7426490,0.0
          37.4657890,55.7425890,0.0
          37.4656970,55.7425650,0.0
          37.4655910,55.7425020,0.0
          37.4655100,55.7424560,0.0
          37.4654500,55.7424130,0.0
          37.4653780,55.7423880,0.0
          37.4653000,55.7423570,0.0
          37.4651540,55.7422960,0.0
          37.4650770,55.7422560,0.0
          37.4649480,55.7422310,0.0
          37.4648450,55.7421890,0.0
          37.4647730,55.7421590,0.0
          37.4646980,55.7420900,0.0
          37.4645860,55.7420510,0.0
          37.4644730,55.7420230,0.0
          37.4643550,55.7420140,0.0
          37.4642510,55.7419980,0.0
          37.4641330,55.7419770,0.0
          37.4640410,55.7419480,0.0
          37.4638870,55.7419040,0.0
          37.4638120,55.7418830,0.0
          37.4636930,55.7418610,0.0
          37.4635970,55.7418320,0.0
          37.4635040,55.7417950,0.0
          37.4634140,55.7417560,0.0
          37.4633330,55.7417240,0.0
          37.4632220,55.7416820,0.0
          37.4631200,55.7416460,0.0
          37.4630120,55.7416160,0.0
          37.4629340,55.7416020,0.0
          37.4628510,55.7415950,0.0
          37.4627380,55.7415670,0.0
          37.4626070,55.7415500,0.0
          37.4624860,55.7415280,0.0
          37.4623970,55.7415180,0.0
          37.4623420,55.7414770,0.0
          37.4622420,55.7414760,0.0
          37.4621050,55.7414630,0.0
          37.4620190,55.7414500,0.0
          37.4619540,55.7414170,0.0
          37.4618690,55.7413600,0.0
          37.4617890,55.7413360,0.0
          37.4617000,55.7413070,0.0
          37.4616300,55.7412810,0.0
          37.4615280,55.7412730,0.0
          37.4614410,55.7412510,0.0
          37.4613180,55.7412070,0.0
          37.4612410,55.7411890,0.0
          37.4611060,55.7411920,0.0
          37.4610150,55.7411860,0.0
          37.4609090,55.7411630,0.0
          37.4608180,55.7411010,0.0
          37.4606540,55.7410590,0.0
          37.4605070,55.7410400,0.0
          37.4604070,55.7410230,0.0
          37.4603080,55.7410020,0.0
          37.4602240,55.7409840,0.0
          37.4601670,55.7409500,0.0
          37.4600990,55.7409230,0.0
          37.4599620,55.7409080,0.0
          37.4598690,55.7408740,0.0
          37.4597950,55.7408360,0.0
          37.4597200,55.7408200,0.0
          37.4595760,55.7407900,0.0
          37.4594380,55.7407600,0.0
          37.4593010,55.7407380,0.0
          37.4592050,55.7407290,0.0
          37.4591260,55.7407080,0.0
          37.4590060,55.7406890,0.0
          37.4589150,55.7406880,0.0
          37.4588300,55.7406920,0.0
          37.4587470,55.7406760,0.0
          37.4586610,55.7406640,0.0
          37.4585510,55.7406680,0.0
          37.4584710,55.7406470,0.0
          37.4583260,55.7406140,0.0
          37.4582220,55.7406010,0.0
          37.4581440,55.7405820,0.0
          37.4580480,55.7405450,0.0
          37.4579410,55.7404970,0.0
          37.4577980,55.7404890,0.0
          37.4576950,55.7404410,0.0
          37.4575700,55.7404230,0.0
          37.4574430,55.7404000,0.0
          37.4573480,55.7403920,0.0
          37.4572280,55.7403880,0.0
          37.4571440,55.7403820,0.0
          37.4569810,55.7403680,0.0
          37.4568210,55.7403500,0.0
          37.4567360,55.7403630,0.0
          37.4565930,55.7403530,0.0
          37.4565020,55.7403510,0.0
          37.4564070,55.7403480,0.0
          37.4563280,55.7403400,0.0
          37.4562340,55.7403360,0.0
          37.4561220,55.7403300,0.0
          37.4559930,55.7403250,0.0
          37.4558530,55.7403120,0.0
          37.4557370,55.7402940,0.0
          37.4555800,55.7402540,0.0
          37.4555080,55.7401960,0.0
          37.4554500,55.7401640,0.0
          37.4554020,55.7401260,0.0
          37.4553200,55.7401170,0.0
          37.4552260,55.7401000,0.0
          37.4551320,55.7401110,0.0
          37.4551680,55.7400700,0.0
          37.4552490,55.7400680,0.0
          37.4551710,55.7400810,0.0
          37.4551180,55.7400470,0.0
          37.4550200,55.7400370,0.0
          37.4548780,55.7400280,0.0
          37.4547900,55.7400260,0.0
          37.4546720,55.7400330,0.0
          37.4545180,55.7400160,0.0
          37.4543690,55.7400020,0.0
          37.4542630,55.7399920,0.0
          37.4541810,55.7399900,0.0
          37.4540890,55.7399820,0.0
          37.4540120,55.7399680,0.0
          37.4538720,55.7399540,0.0
          37.4537830,55.7399920,0.0
          37.4536980,55.7400020,0.0
          37.4535760,55.7400080,0.0
          37.4534430,55.7400130,0.0
          37.4532890,55.7399980,0.0
          37.4531580,55.7399990,0.0
          37.4530610,55.7400190,0.0
          37.4529540,55.7400370,0.0
          37.4528390,55.7400440,0.0
          37.4527590,55.7400300,0.0
          37.4526420,55.7400360,0.0
          37.4525280,55.7400250,0.0
          37.4524350,55.7400400,0.0
          37.4523280,55.7400490,0.0
          37.4521960,55.7400480,0.0
          37.4520840,55.7400860,0.0
          37.4519690,55.7400930,0.0
          37.4518730,55.7401130,0.0
          37.4517540,55.7401230,0.0
          37.4516280,55.7401300,0.0
          37.4514930,55.7401430,0.0
          37.4513900,55.7401540,0.0
          37.4513170,55.7401860,0.0
          37.4512360,55.7401780,0.0
          37.4511530,55.7401920,0.0
          37.4510390,55.7402080,0.0
          37.4509630,55.7402230,0.0
          37.4508420,55.7402500,0.0
          37.4507380,55.7402180,0.0
          37.4506500,55.7402200,0.0
          37.4505710,55.7402540,0.0
          37.4504220,55.7402720,0.0
          37.4502830,55.7403050,0.0
          37.4501580,55.7403110,0.0
          37.4500900,55.7403670,0.0
          37.4499890,55.7403990,0.0
          37.4499160,55.7404200,0.0
          37.4497970,55.7404630,0.0
          37.4497100,55.7404720,0.0
          37.4496030,55.7405200,0.0
          37.4495280,55.7405430,0.0
          37.4494550,55.7405670,0.0
          37.4493710,55.7405740,0.0
          37.4492660,55.7405920,0.0
          37.4491690,55.7406200,0.0
          37.4490960,55.7406450,0.0
          37.4489800,55.7406460,0.0
          37.4488430,55.7406930,0.0
          37.4487570,55.7407450,0.0
          37.4486460,55.7407590,0.0
          37.4485390,55.7407960,0.0
          37.4484570,55.7408290,0.0
          37.4483570,55.7408790,0.0
          37.4482460,55.7409150,0.0
          37.4481670,55.7409410,0.0
          37.4480490,55.7409650,0.0
          37.4479850,55.7409190,0.0
          37.4478960,55.7409480,0.0
          37.4477950,55.7409670,0.0
          37.4477500,55.7410050,0.0
          37.4476690,55.7410130,0.0
          37.4475810,55.7410480,0.0
          37.4474890,55.7410170,0.0
          37.4474080,55.7410210,0.0
          37.4473230,55.7409910,0.0
          37.4472310,55.7409940,0.0
          37.4471310,55.7409850,0.0
          37.4470160,55.7410020,0.0
          37.4468900,55.7410140,0.0
          37.4467600,55.7410440,0.0
          37.4466760,55.7410470,0.0
          37.4465550,55.7410570,0.0
          37.4464510,55.7410510,0.0
          37.4463820,55.7410870,0.0
          37.4462620,55.7411360,0.0
          37.4461830,55.7411390,0.0
          37.4460490,55.7411770,0.0
          37.4460020,55.7412160,0.0
          37.4459470,55.7412670,0.0
          37.4459230,55.7413120,0.0
          37.4458070,55.7413670,0.0
          37.4457200,55.7413910,0.0
          37.4456390,55.7413920,0.0
          37.4455330,55.7413890,0.0
          37.4454090,55.7414040,0.0
          37.4453300,55.7414270,0.0
          37.4452090,55.7414220,0.0
          37.4450740,55.7414130,0.0
          37.4449620,55.7414040,0.0
          37.4448860,55.7414180,0.0
          37.4448060,55.7414510,0.0
          37.4447390,55.7414990,0.0
          37.4446590,55.7415350,0.0
          37.4445450,55.7415580,0.0
          37.4444790,55.7415980,0.0
          37.4444070,55.7416420,0.0
          37.4443380,55.7416810,0.0
          37.4442650,55.7417220,0.0
          37.4442150,55.7417610,0.0
          37.4441720,55.7418010,0.0
          37.4440700,55.7418310,0.0
          37.4439900,55.7418770,0.0
          37.4439150,55.7419120,0.0
          37.4438590,55.7419550,0.0
          37.4437430,55.7419910,0.0
          37.4436460,55.7420380,0.0
          37.4435880,55.7420850,0.0
          37.4434960,55.7421600,0.0
          37.4434170,55.7421940,0.0
          37.4433470,55.7422190,0.0
          37.4432850,55.7422470,0.0
          37.4432220,55.7422890,0.0
          37.4431570,55.7423250,0.0
          37.4430960,55.7423830,0.0
          37.4429240,55.7424280,0.0
          37.4428560,55.7424780,0.0
          37.4427380,55.7425240,0.0
          37.4426350,55.7425670,0.0
          37.4425720,55.7426040,0.0
          37.4425220,55.7426630,0.0
          37.4424570,55.7427040,0.0
          37.4424040,55.7427460,0.0
          37.4422860,55.7428080,0.0
          37.4421600,55.7428620,0.0
          37.4421060,55.7429000,0.0
          37.4420420,55.7429300,0.0
          37.4419350,55.7429800,0.0
          37.4418650,55.7430270,0.0
          37.4418130,55.7430630,0.0
          37.4417340,55.7430950,0.0
          37.4416110,55.7431450,0.0
          37.4415320,55.7431780,0.0
          37.4414220,55.7432230,0.0
          37.4413400,55.7432320,0.0
          37.4412600,55.7432760,0.0
          37.4411890,55.7433160,0.0
          37.4410990,55.7433410,0.0
          37.4410390,55.7433860,0.0
          37.4409400,55.7434410,0.0
          37.4408810,55.7434740,0.0
          37.4407740,55.7435260,0.0
          37.4406540,55.7435970,0.0
          37.4405780,55.7436550,0.0
          37.4405180,55.7436890,0.0
          37.4404380,55.7437290,0.0
          37.4403240,55.7438010,0.0
          37.4402680,55.7438430,0.0
          37.4401660,55.7439200,0.0
          37.4401110,55.7439560,0.0
          37.4400190,55.7440170,0.0
          37.4399910,55.7440590,0.0
          37.4399090,55.7441000,0.0
          37.4398340,55.7441300,0.0
          37.4397370,55.7441980,0.0
          37.4396550,55.7442630,0.0
          37.4396160,55.7443060,0.0
          37.4395410,55.7443730,0.0
          37.4394970,55.7444120,0.0
          37.4394450,55.7444460,0.0
          37.4393540,55.7444940,0.0
          37.4392600,55.7445480,0.0
          37.4391440,55.7446140,0.0
          37.4390860,55.7446520,0.0
          37.4390070,55.7446770,0.0
          37.4389450,55.7447060,0.0
          37.4388210,55.7447650,0.0
          37.4387170,55.7448180,0.0
          37.4386400,55.7448430,0.0
          37.4385920,55.7448070,0.0
          37.4386470,55.7448410,0.0
          37.4385540,55.7448410,0.0
          37.4384810,55.7448630,0.0
          37.4384580,55.7449290,0.0
          37.4384060,55.7449760,0.0
          37.4383080,55.7450320,0.0
          37.4382410,55.7450690,0.0
          37.4381830,55.7451260,0.0
          37.4381340,55.7451670,0.0
          37.4380540,55.7452150,0.0
          37.4380000,55.7452690,0.0
          37.4379000,55.7453160,0.0
          37.4378580,55.7453610,0.0
          37.4377960,55.7453950,0.0
          37.4377000,55.7454540,0.0
          37.4376050,55.7454890,0.0
          37.4375280,55.7455170,0.0
          37.4374680,55.7455580,0.0
          37.4373920,55.7455780,0.0
          37.4372850,55.7456490,0.0
          37.4371880,55.7456570,0.0
          37.4370880,55.7457140,0.0
          37.4370280,55.7457540,0.0
          37.4369380,55.7457930,0.0
          37.4368980,55.7458450,0.0
          37.4368420,55.7458960,0.0
          37.4367740,55.7459300,0.0
          37.4366950,55.7459660,0.0
          37.4366120,55.7459880,0.0
          37.4365610,55.7460270,0.0
          37.4365170,55.7460730,0.0
          37.4364060,55.7461360,0.0
          37.4363560,55.7461800,0.0
          37.4362820,55.7462430,0.0
          37.4362030,55.7462970,0.0
          37.4361530,55.7463550,0.0
          37.4360880,55.7464170,0.0
          37.4360170,55.7464760,0.0
          37.4359890,55.7465300,0.0
          37.4359320,55.7465940,0.0
          37.4358840,55.7466300,0.0
          37.4358290,55.7466720,0.0
          37.4357900,55.7467170,0.0
          37.4357650,55.7467600,0.0
          37.4356860,55.7468030,0.0
          37.4356310,55.7468550,0.0
          37.4355790,55.7468900,0.0
          37.4354980,55.7469380,0.0
          37.4354400,55.7469830,0.0
          37.4353930,55.7470330,0.0
          37.4353070,55.7470880,0.0
          37.4352630,55.7471490,0.0
          37.4351790,55.7472240,0.0
          37.4350890,55.7472580,0.0
          37.4350590,55.7473010,0.0
          37.4350380,55.7473520,0.0
          37.4350130,55.7474250,0.0
          37.4350010,55.7474900,0.0
          37.4350020,55.7475380,0.0
          37.4350060,55.7475840,0.0
          37.4350040,55.7476420,0.0
          37.4350180,55.7476890,0.0
          37.4350230,55.7477430,0.0
          37.4350080,55.7478070,0.0
          37.4350310,55.7478700,0.0
          37.4349940,55.7479170,0.0
          37.4350110,55.7479970,0.0
          37.4350660,55.7480620,0.0
          37.4350780,55.7481480,0.0
          37.4351090,55.7482390,0.0
          37.4351420,55.7483010,0.0
          37.4351940,55.7483790,0.0
          37.4352250,55.7484510,0.0
          37.4352510,55.7485260,0.0
          37.4353140,55.7485990,0.0
          37.4352930,55.7486430,0.0
          37.4353250,55.7487150,0.0
          37.4353270,55.7487700,0.0
          37.4353610,55.7488350,0.0
          37.4353570,55.7488840,0.0
          37.4353510,55.7489310,0.0
          37.4354020,55.7489730,0.0
          37.4354240,55.7490170,0.0
          37.4353190,55.7489970,0.0
          37.4353950,55.7489760,0.0
          37.4353660,55.7489230,0.0
          37.4353720,55.7488640,0.0
          37.4353690,55.7487920,0.0
          37.4353470,55.7487370,0.0
          37.4353150,55.7486660,0.0
          37.4352690,55.7485970,0.0
          37.4352120,55.7485300,0.0
          37.4351880,55.7484840,0.0
          37.4351390,55.7484040,0.0
          37.4350840,55.7483020,0.0
          37.4350610,55.7482530,0.0
          37.4350280,55.7482100,0.0
          37.4349930,55.7481070,0.0
          37.4349920,55.7480340,0.0
          37.4349830,55.7479760,0.0
          37.4349540,55.7479210,0.0
          37.4349410,55.7478660,0.0
          37.4349430,55.7478180,0.0
          37.4349210,55.7477460,0.0
          37.4349610,55.7476700,0.0
          37.4349740,55.7476070,0.0
          37.4349740,55.7475310,0.0
          37.4350060,55.7474640,0.0
          37.4350300,55.7474070,0.0
          37.4350490,55.7473530,0.0
          37.4350680,55.7472890,0.0
          37.4351130,55.7472370,0.0
          37.4351760,55.7471540,0.0
          37.4352460,55.7471050,0.0
          37.4353110,55.7470540,0.0
          37.4353780,55.7470070,0.0
          37.4354420,55.7469670,0.0
          37.4355140,55.7469160,0.0
          37.4355760,55.7468750,0.0
          37.4356440,55.7468310,0.0
          37.4357200,55.7467890,0.0
          37.4357860,55.7467360,0.0
          37.4358750,55.7466850,0.0
          37.4359710,55.7466230,0.0
          37.4360430,55.7465700,0.0
          37.4361120,55.7465250,0.0
          37.4362050,55.7464720,0.0
          37.4362910,55.7464360,0.0
          37.4363760,55.7463870,0.0
          37.4364570,55.7463390,0.0
          37.4365430,55.7462910,0.0
          37.4366090,55.7462440,0.0
          37.4366750,55.7461870,0.0
          37.4367590,55.7461400,0.0
          37.4368490,55.7460880,0.0
          37.4369250,55.7460360,0.0
          37.4370100,55.7459860,0.0
          37.4371100,55.7459410,0.0
          37.4371700,55.7458910,0.0
          37.4372450,55.7458420,0.0
          37.4373680,55.7457870,0.0
          37.4374560,55.7457400,0.0
          37.4375450,55.7456910,0.0
          37.4376460,55.7456500,0.0
          37.4377450,55.7455980,0.0
          37.4378430,55.7455390,0.0
          37.4379260,55.7454860,0.0
          37.4380490,55.7453800,0.0
          37.4381370,55.7453370,0.0
          37.4382020,55.7453010,0.0
          37.4383100,55.7452510,0.0
          37.4383980,55.7452000,0.0
          37.4385060,55.7451480,0.0
          37.4385860,55.7451030,0.0
          37.4386870,55.7450390,0.0
          37.4388110,55.7449840,0.0
          37.4389080,55.7449250,0.0
          37.4389920,55.7448750,0.0
          37.4391020,55.7448230,0.0
          37.4391390,55.7447710,0.0
          37.4392040,55.7447330,0.0
          37.4393080,55.7446800,0.0
          37.4394160,55.7446260,0.0
          37.4395240,55.7445770,0.0
          37.4396160,55.7445230,0.0
          37.4397160,55.7444740,0.0
          37.4398100,55.7444220,0.0
          37.4398980,55.7443710,0.0
          37.4399690,55.7443060,0.0
          37.4400760,55.7442580,0.0
          37.4401770,55.7442040,0.0
          37.4403650,55.7441250,0.0
          37.4404840,55.7440760,0.0
          37.4405790,55.7440300,0.0
          37.4406810,55.7439580,0.0
          37.4407700,55.7438980,0.0
          37.4408900,55.7438320,0.0
          37.4410210,55.7437550,0.0
          37.4411220,55.7437010,0.0
          37.4412280,55.7436430,0.0
          37.4413190,55.7435890,0.0
          37.4414160,55.7435270,0.0
          37.4415350,55.7434680,0.0
          37.4416350,55.7434080,0.0
          37.4417230,55.7433610,0.0
          37.4418160,55.7433090,0.0
          37.4419160,55.7432610,0.0
          37.4419650,55.7432090,0.0
          37.4420400,55.7431670,0.0
          37.4421240,55.7431190,0.0
          37.4422530,55.7430530,0.0
          37.4423690,55.7430010,0.0
          37.4424700,55.7429550,0.0
          37.4425880,55.7428960,0.0
          37.4426990,55.7428450,0.0
          37.4428010,55.7427950,0.0
          37.4429130,55.7427510,0.0
          37.4431390,55.7426450,0.0
          37.4432320,55.7426070,0.0
          37.4433170,55.7425620,0.0
          37.4434200,55.7425100,0.0
          37.4435140,55.7424710,0.0
          37.4436150,55.7424160,0.0
          37.4437290,55.7423720,0.0
          37.4438420,55.7423290,0.0
          37.4439570,55.7422850,0.0
          37.4440650,55.7422450,0.0
          37.4441790,55.7422090,0.0
          37.4442770,55.7421690,0.0
          37.4443530,55.7421390,0.0
          37.4444500,55.7421090,0.0
          37.4445640,55.7420740,0.0
          37.4446650,55.7420440,0.0
          37.4447660,55.7420100,0.0
          37.4449690,55.7419240,0.0
          37.4450920,55.7418880,0.0
          37.4452000,55.7418470,0.0
          37.4453000,55.7418180,0.0
          37.4453840,55.7417740,0.0
          37.4455360,55.7417350,0.0
          37.4455980,55.7416910,0.0
          37.4456140,55.7416460,0.0
          37.4457020,55.7416260,0.0
          37.4458320,55.7415860,0.0
          37.4459690,55.7415430,0.0
          37.4461330,55.7414710,0.0
          37.4462900,55.7414500,0.0
          37.4463640,55.7414190,0.0
          37.4464380,55.7413930,0.0
          37.4465400,55.7413690,0.0
          37.4466370,55.7413400,0.0
          37.4467460,55.7413040,0.0
          37.4468450,55.7412850,0.0
          37.4469080,55.7412520,0.0
          37.4470160,55.7412230,0.0
          37.4471260,55.7411970,0.0
          37.4472840,55.7411680,0.0
          37.4474470,55.7411080,0.0
          37.4475860,55.7410740,0.0
          37.4476920,55.7410500,0.0
          37.4478470,55.7410220,0.0
          37.4479830,55.7409910,0.0
          37.4481240,55.7409680,0.0
          37.4482310,55.7409430,0.0
          37.4483430,55.7409060,0.0
          37.4485010,55.7408750,0.0
          37.4486220,55.7408320,0.0
          37.4488180,55.7407700,0.0
          37.4489490,55.7407410,0.0
          37.4490810,55.7407090,0.0
          37.4492080,55.7406800,0.0
          37.4493810,55.7406660,0.0
          37.4494710,55.7406030,0.0
          37.4495770,55.7405750,0.0
          37.4497140,55.7405410,0.0
          37.4498350,55.7405050,0.0
          37.4499930,55.7404820,0.0
          37.4501330,55.7404450,0.0
          37.4502570,55.7404040,0.0
          37.4504020,55.7403740,0.0
          37.4505310,55.7403470,0.0
          37.4507120,55.7403090,0.0
          37.4508060,55.7402540,0.0
          37.4509150,55.7402160,0.0
          37.4510420,55.7401810,0.0
          37.4511430,55.7401580,0.0
          37.4513050,55.7401410,0.0
          37.4514040,55.7401290,0.0
          37.4515540,55.7401080,0.0
          37.4517110,55.7401070,0.0
          37.4518230,55.7400870,0.0
          37.4519770,55.7400710,0.0
          37.4521240,55.7400660,0.0
          37.4522680,55.7400630,0.0
          37.4524150,55.7400610,0.0
          37.4525590,55.7400630,0.0
          37.4527130,55.7400620,0.0
          37.4528600,55.7400570,0.0
          37.4530120,55.7400510,0.0
          37.4531400,55.7400430,0.0
          37.4532760,55.7400430,0.0
          37.4533810,55.7400650,0.0
          37.4535290,55.7400980,0.0
          37.4536900,55.7401460,0.0
          37.4538420,55.7401640,0.0
          37.4539730,55.7401820,0.0
          37.4540970,55.7401770,0.0
          37.4542360,55.7401890,0.0
          37.4543990,55.7401900,0.0
          37.4545640,55.7402040,0.0
          37.4547350,55.7401970,0.0
          37.4548810,55.7401880,0.0
          37.4550170,55.7401810,0.0
          37.4551660,55.7402030,0.0
          37.4552910,55.7402130,0.0
          37.4554040,55.7402260,0.0
          37.4554860,55.7402140,0.0
          37.4555910,55.7402070,0.0
          37.4556980,55.7402210,0.0
          37.4558010,55.7402280,0.0
          37.4559280,55.7402260,0.0
          37.4560860,55.7402120,0.0
          37.4561680,55.7401950,0.0
          37.4562470,55.7402140,0.0
          37.4563280,55.7402210,0.0
          37.4564490,55.7402360,0.0
          37.4565230,55.7402530,0.0
          37.4566750,55.7402630,0.0
          37.4567550,55.7402920,0.0
          37.4569120,55.7403170,0.0
          37.4569860,55.7403380,0.0
          37.4570970,55.7403610,0.0
          37.4571940,55.7403640,0.0
          37.4572870,55.7403760,0.0
          37.4573940,55.7403880,0.0
          37.4574860,55.7403900,0.0
          37.4575860,55.7404000,0.0
          37.4576790,55.7404290,0.0
          37.4577850,55.7404350,0.0
          37.4578980,55.7404510,0.0
          37.4580080,55.7404880,0.0
          37.4581220,55.7404920,0.0
          37.4582480,55.7405100,0.0
          37.4583630,55.7405450,0.0
          37.4584720,55.7405590,0.0
          37.4585870,55.7405780,0.0
          37.4587250,55.7406080,0.0
          37.4588530,55.7406290,0.0
          37.4589820,55.7406560,0.0
          37.4590950,55.7406820,0.0
          37.4592020,55.7407020,0.0
          37.4593280,55.7407270,0.0
          37.4594420,55.7407580,0.0
          37.4595410,55.7407870,0.0
          37.4596510,55.7408370,0.0
          37.4597690,55.7408500,0.0
          37.4598980,55.7408640,0.0
          37.4600130,55.7408760,0.0
          37.4601460,55.7408840,0.0
          37.4602650,55.7409100,0.0
          37.4604070,55.7409630,0.0
          37.4605430,55.7410140,0.0
          37.4606670,55.7410520,0.0
          37.4607970,55.7410820,0.0
          37.4609350,55.7411170,0.0
          37.4610560,55.7411740,0.0
          37.4611830,55.7412100,0.0
          37.4613200,55.7412470,0.0
          37.4614520,55.7412780,0.0
          37.4616000,55.7413130,0.0
          37.4617310,55.7413390,0.0
          37.4618530,55.7413660,0.0
          37.4619830,55.7414040,0.0
          37.4621220,55.7414400,0.0
          37.4622310,55.7414810,0.0
          37.4623570,55.7415140,0.0
          37.4624840,55.7415440,0.0
          37.4626230,55.7415850,0.0
          37.4627520,55.7416170,0.0
          37.4628820,55.7416620,0.0
          37.4630160,55.7416930,0.0
          37.4631270,55.7417290,0.0
          37.4632440,55.7417680,0.0
          37.4633660,55.7418070,0.0
          37.4634850,55.7418460,0.0
          37.4636120,55.7418960,0.0
          37.4637340,55.7419350,0.0
          37.4638540,55.7419680,0.0
          37.4639770,55.7420080,0.0
          37.4640980,55.7420500,0.0
          37.4641980,55.7420850,0.0
          37.4643080,55.7421180,0.0
          37.4644150,55.7421750,0.0
          37.4645310,55.7422180,0.0
          37.4646380,55.7422390,0.0
          37.4647430,55.7422710,0.0
          37.4648440,55.7423010,0.0
          37.4649490,55.7423260,0.0
          37.4650350,55.7423710,0.0
          37.4651020,55.7424140,0.0
          37.4652110,55.7424700,0.0
          37.4653180,55.7425430,0.0
          37.4654050,55.7425800,0.0
          37.4655000,55.7426230,0.0
          37.4656050,55.7426490,0.0
          37.4656860,55.7427170,0.0
          37.4657670,55.7427620,0.0
          37.4658730,55.7427950,0.0
          37.4659700,55.7428410,0.0
          37.4660860,55.7429270,0.0
          37.4661830,55.7429760,0.0
          37.4662770,55.7430130,0.0
          37.4668480,55.7433700,0.0
          37.4669270,55.7434160,0.0
          37.4670020,55.7434970,0.0
          37.4670710,55.7435670,0.0
          37.4671570,55.7435790,0.0
          37.4672490,55.7436090,0.0
          37.4673410,55.7436510,0.0
          37.4674390,55.7436580,0.0
          37.4675280,55.7437020,0.0
          37.4675740,55.7436630,0.0
          37.4676700,55.7436590,0.0
          37.4677460,55.7436790,0.0
          37.4678340,55.7437220,0.0
          37.4679080,55.7437740,0.0
          37.4679850,55.7438210,0.0
          37.4680700,55.7438710,0.0
          37.4681570,55.7438940,0.0
          37.4682370,55.7439330,0.0
          37.4683200,55.7439600,0.0
          37.4683900,55.7440060,0.0
          37.4684490,55.7440460,0.0
          37.4685210,55.7440760,0.0
          37.4686500,55.7441690,0.0
          37.4687240,55.7442040,0.0
          37.4688520,55.7441380,0.0
          37.4688950,55.7441780,0.0
          37.4689620,55.7442320,0.0
          37.4690250,55.7442790,0.0
          37.4690950,55.7443150,0.0
          37.4692240,55.7443700,0.0
          37.4693280,55.7444060,0.0
          37.4694260,55.7444850,0.0
          37.4694960,55.7445290,0.0
          37.4695840,55.7445510,0.0
          37.4696850,55.7445940,0.0
          37.4697310,55.7446560,0.0
          37.4698010,55.7447020,0.0
          37.4698450,55.7447440,0.0
          37.4699020,55.7447760,0.0
          37.4699650,55.7448170,0.0
          37.4700460,55.7448800,0.0
          37.4701230,55.7449260,0.0
          37.4702030,55.7449550,0.0
          37.4702620,55.7449930,0.0
          37.4703670,55.7450480,0.0
          37.4704270,55.7450890,0.0
          37.4705210,55.7451630,0.0
          37.4706430,55.7452250,0.0
          37.4707220,55.7452600,0.0
          37.4707850,55.7452890,0.0
          37.4708440,55.7453480,0.0
          37.4709030,55.7453830,0.0
          37.4709580,55.7454170,0.0
          37.4710300,55.7454490,0.0
          37.4711040,55.7454930,0.0
          37.4711820,55.7455440,0.0
          37.4712490,55.7455840,0.0
          37.4713060,55.7456160,0.0
          37.4713640,55.7456560,0.0
          37.4714340,55.7456980,0.0
          37.4715030,55.7457470,0.0
          37.4715590,55.7458110,0.0
          37.4716430,55.7458490,0.0
          37.4717120,55.7458890,0.0
          37.4717750,55.7459240,0.0
          37.4718380,55.7459590,0.0
          37.4718980,55.7459980,0.0
          37.4719660,55.7460470,0.0
          37.4720300,55.7460940,0.0
          37.4720990,55.7461450,0.0
          37.4721770,55.7461760,0.0
          37.4722430,55.7462220,0.0
          37.4723130,55.7462660,0.0
          37.4723690,55.7462990,0.0
          37.4724370,55.7463340,0.0
          37.4725010,55.7463830,0.0
          37.4725680,55.7464250,0.0
          37.4726340,55.7464770,0.0
          37.4727030,55.7465160,0.0
          37.4727680,55.7465530,0.0
          37.4728390,55.7465770,0.0
          37.4729540,55.7466590,0.0
          37.4729950,55.7467180,0.0
          37.4730510,55.7467710,0.0
          37.4731230,55.7468090,0.0
          37.4732290,55.7468440,0.0
          37.4732760,55.7468810,0.0
          37.4732740,55.7469540,0.0
          37.4733310,55.7470030,0.0
          37.4733710,55.7470580,0.0
          37.4734130,55.7470070,0.0
          37.4733980,55.7469580,0.0
          37.4734000,55.7469120,0.0
          37.4734710,55.7468850,0.0
          37.4735570,55.7468830,0.0
          37.4736460,55.7468920,0.0
          37.4737490,55.7469240,0.0
          37.4738550,55.7469440,0.0
          37.4739340,55.7469540,0.0
          37.4740280,55.7469870,0.0
          37.4740900,55.7470220,0.0
          37.4741530,55.7470710,0.0
          37.4742390,55.7470940,0.0
          37.4743460,55.7470930,0.0
          37.4744110,55.7471380,0.0
          37.4744800,55.7471700,0.0
          37.4745710,55.7472020,0.0
          37.4746410,55.7472450,0.0
          37.4747410,55.7472700,0.0
          37.4747740,55.7473300,0.0
          37.4747940,55.7473790,0.0
          37.4748480,55.7474190,0.0
          37.4749360,55.7474780,0.0
          37.4749950,55.7475270,0.0
          37.4750810,55.7475600,0.0
          37.4751380,55.7476020,0.0
          37.4751880,55.7476740,0.0
          37.4752460,55.7477330,0.0
          37.4752810,55.7477780,0.0
          37.4753200,55.7478500,0.0
          37.4753690,55.7478880,0.0
          37.4754290,55.7479310,0.0
          37.4755010,55.7479780,0.0
          37.4755670,55.7480130,0.0
          37.4756620,55.7480210,0.0
          37.4757420,55.7480500,0.0
          37.4757930,55.7480870,0.0
          37.4758720,55.7480790,0.0
          37.4759220,55.7480070,0.0
          37.4759300,55.7479530,0.0
          37.4759050,55.7479100,0.0
          37.4759230,55.7478480,0.0
          37.4759340,55.7477920,0.0
          37.4758860,55.7477250,0.0
          37.4759000,55.7476760,0.0
          37.4759140,55.7476280,0.0
          37.4759040,55.7475780,0.0
          37.4759290,55.7475330,0.0
          37.4759550,55.7474840,0.0
          37.4759860,55.7474200,0.0
          37.4759860,55.7473680,0.0
          37.4760230,55.7473000,0.0
          37.4760280,55.7472480,0.0
          37.4760470,55.7471860,0.0
          37.4760360,55.7471350,0.0
          37.4760330,55.7470850,0.0
          37.4760410,55.7470370,0.0
          37.4760010,55.7469860,0.0
          37.4759750,55.7469420,0.0
          37.4759060,55.7468900,0.0
          37.4758690,55.7468480,0.0
          37.4758230,55.7467900,0.0
          37.4758070,55.7467450,0.0
          37.4757590,55.7467020,0.0
          37.4757250,55.7466600,0.0
          37.4756880,55.7466100,0.0
          37.4756900,55.7465530,0.0
          37.4757270,55.7465090,0.0
          37.4757480,55.7464480,0.0
          37.4758260,55.7464110,0.0
          37.4759180,55.7463780,0.0
          37.4760070,55.7463720,0.0
          37.4760680,55.7463330,0.0
          37.4761360,55.7462990,0.0
          37.4762230,55.7462670,0.0
          37.4763080,55.7462600,0.0
          37.4763630,55.7462950,0.0
          37.4764590,55.7463310,0.0
          37.4765310,55.7463530,0.0
          37.4765650,55.7464110,0.0
          37.4766250,55.7464410,0.0
          37.4763750,55.7463960,0.0
          37.4764450,55.7463520,0.0
          37.4765550,55.7463700,0.0
          37.4766350,55.7463890,0.0
          37.4767150,55.7464150,0.0
          37.4767580,55.7464570,0.0
          37.4768680,55.7464840,0.0
          37.4769660,55.7465240,0.0
          37.4770320,55.7465760,0.0
          37.4771040,55.7466070,0.0
          37.4771930,55.7466610,0.0
          37.4773300,55.7466910,0.0
          37.4773670,55.7467320,0.0
          37.4774500,55.7467810,0.0
          37.4775260,55.7468200,0.0
          37.4775730,55.7468810,0.0
          37.4775960,55.7469290,0.0
          37.4776410,55.7470100,0.0
          37.4776940,55.7470730,0.0
          37.4777230,55.7471250,0.0
          37.4777230,55.7472040,0.0
          37.4778030,55.7472630,0.0
          37.4778930,55.7473460,0.0
          37.4779500,55.7473940,0.0
          37.4779920,55.7474710,0.0
          37.4780930,55.7475120,0.0
          37.4781520,55.7475460,0.0
          37.4782470,55.7475980,0.0
          37.4782970,55.7476400,0.0
          37.4783740,55.7476600,0.0
          37.4784360,55.7476960,0.0
          37.4784770,55.7477550,0.0
          37.4785700,55.7478150,0.0
          37.4786730,55.7478560,0.0
          37.4787360,55.7479040,0.0
          37.4787990,55.7479570,0.0
          37.4808640,55.7494450,0.0
          37.4809040,55.7495070,0.0
          37.4809330,55.7495650,0.0
          37.4809630,55.7496130,0.0
          37.4809850,55.7496770,0.0
          37.4809870,55.7497570,0.0
          37.4809780,55.7498190,0.0
          37.4809550,55.7498680,0.0
          37.4809420,55.7499300,0.0
          37.4809580,55.7499900,0.0
          37.4809450,55.7500610,0.0
          37.4809150,55.7501330,0.0
          37.4809000,55.7501880,0.0
          37.4808780,55.7502430,0.0
          37.4808660,55.7503020,0.0
          37.4808290,55.7503570,0.0
          37.4808050,55.7504420,0.0
          37.4808090,55.7504870,0.0
          37.4808050,55.7505460,0.0
          37.4807780,55.7506090,0.0
          37.4807890,55.7506680,0.0
          37.4808040,55.7507640,0.0
          37.4807730,55.7508200,0.0
          37.4807370,55.7508740,0.0
          37.4807150,55.7509310,0.0
          37.4807160,55.7509970,0.0
          37.4807020,55.7510660,0.0
          37.4806740,55.7511320,0.0
          37.4806360,55.7511880,0.0
          37.4806020,55.7512530,0.0
          37.4805620,55.7513060,0.0
          37.4805290,55.7513610,0.0
          37.4804790,55.7514370,0.0
          37.4804570,55.7515060,0.0
          37.4804060,55.7515750,0.0
          37.4803690,55.7516480,0.0
          37.4803470,55.7517500,0.0
          37.4803070,55.7518420,0.0
          37.4802700,55.7519260,0.0
          37.4801950,55.7519790,0.0
          37.4801830,55.7520250,0.0
          37.4803210,55.7520650,0.0
          37.4803690,55.7521010,0.0
          37.4804440,55.7521300,0.0
          37.4805140,55.7521550,0.0
          37.4806680,55.7521750,0.0
          37.4808750,55.7521880,0.0
          37.4810350,55.7521950,0.0
          37.4812660,55.7521630,0.0
          37.4813670,55.7521630,0.0
          37.4814670,55.7521770,0.0
          37.4815840,55.7521740,0.0
          37.4817040,55.7521820,0.0
          37.4818460,55.7521840,0.0
          37.4819560,55.7522140,0.0
          37.4820580,55.7522180,0.0
          37.4822260,55.7521930,0.0
          37.4823680,55.7521740,0.0
          37.4824490,55.7521870,0.0
          37.4825590,55.7522110,0.0
          37.4826830,55.7521560,0.0
          37.4827980,55.7521760,0.0
          37.4829430,55.7522020,0.0
          37.4830370,55.7522220,0.0
          37.4832070,55.7522360,0.0
          37.4833190,55.7522460,0.0
          37.4834170,55.7522500,0.0
          37.4835800,55.7522700,0.0
          37.4837270,55.7522930,0.0
          37.4838610,55.7522990,0.0
          37.4839820,55.7523260,0.0
          37.4853870,55.7523460,0.0
          37.4854690,55.7523360,0.0
          37.4855780,55.7523520,0.0
          37.4856610,55.7523440,0.0
          37.4857630,55.7523580,0.0
          37.4858690,55.7523590,0.0
          37.4859770,55.7523560,0.0
          37.4860700,55.7523690,0.0
          37.4861690,55.7523940,0.0
          37.4862840,55.7524070,0.0
          37.4863730,55.7523990,0.0
          37.4864730,55.7523760,0.0
          37.4866050,55.7523260,0.0
          37.4866920,55.7523070,0.0
          37.4868030,55.7522720,0.0
          37.4869620,55.7522770,0.0
          37.4871350,55.7522820,0.0
          37.4872140,55.7522730,0.0
          37.4873230,55.7522990,0.0
          37.4874740,55.7523600,0.0
          37.4875430,55.7524210,0.0
          37.4876180,55.7524390,0.0
          37.4877500,55.7524340,0.0
          37.4878660,55.7523890,0.0
          37.4880000,55.7523600,0.0
          37.4881380,55.7523330,0.0
          37.4882580,55.7522950,0.0
          37.4884480,55.7522450,0.0
          37.4885290,55.7522040,0.0
          37.4886300,55.7521940,0.0
          37.4887720,55.7521700,0.0
          37.4889470,55.7521640,0.0
          37.4891110,55.7521620,0.0
          37.4892660,55.7521940,0.0
          37.4893470,55.7522140,0.0
          37.4894430,55.7522280,0.0
          37.4894900,55.7522670,0.0
          37.4895930,55.7522650,0.0
          37.4896860,55.7522610,0.0
          37.4897920,55.7522760,0.0
          37.4898830,55.7522770,0.0
          37.4899650,55.7522800,0.0
          37.4900460,55.7522800,0.0
          37.4901240,55.7522960,0.0
          37.4902140,55.7522950,0.0
          37.4915990,55.7522030,0.0
          37.4916010,55.7521160,0.0
          37.4916340,55.7520630,0.0
          37.4916540,55.7519930,0.0
          37.4916490,55.7518990,0.0
          37.4916330,55.7518530,0.0
          37.4916370,55.7517610,0.0
          37.4916730,55.7517080,0.0
          37.4916610,55.7516600,0.0
          37.4917120,55.7515980,0.0
          37.4917050,55.7515380,0.0
          37.4916790,55.7514900,0.0
          37.4916460,55.7514470,0.0
          37.4916210,55.7514040,0.0
          37.4916040,55.7513520,0.0
          37.4916070,55.7512980,0.0
          37.4915940,55.7512360,0.0
          37.4915780,55.7511720,0.0
          37.4915890,55.7511170,0.0
          37.4915330,55.7510550,0.0
          37.4914220,55.7509630,0.0
          37.4913790,55.7509050,0.0
          37.4913190,55.7508650,0.0
          37.4912780,55.7508050,0.0
          37.4912640,55.7507460,0.0
          37.4912570,55.7506980,0.0
          37.4913360,55.7506740,0.0
          37.4912730,55.7506400,0.0
          37.4912840,55.7506990,0.0
          37.4912700,55.7506540,0.0
          37.4913000,55.7506980,0.0
          37.4912980,55.7506470,0.0
          37.4913080,55.7506020,0.0
          37.4913520,55.7505420,0.0
          37.4914390,55.7505410,0.0
          37.4915220,55.7505690,0.0
          37.4916330,55.7506150,0.0
          37.4916970,55.7506450,0.0
          37.4917960,55.7506740,0.0
          37.4919610,55.7506940,0.0
          37.4920800,55.7507000,0.0
          37.4921600,55.7507000,0.0
          37.4922510,55.7507040,0.0
          37.4923570,55.7506900,0.0
          37.4924250,55.7506620,0.0
          37.4924950,55.7506390,0.0
          37.4926400,55.7506270,0.0
          37.4927660,55.7506430,0.0
          37.4928750,55.7506520,0.0
          37.4929580,55.7506320,0.0
          37.4930700,55.7506370,0.0
          37.4932010,55.7506270,0.0
          37.4933440,55.7506390,0.0
          37.4935220,55.7506390,0.0
          37.4936280,55.7506360,0.0
          37.4938610,55.7507070,0.0
          37.4939690,55.7506630,0.0
          37.4940760,55.7506610,0.0
          37.4942050,55.7506620,0.0
          37.4942580,55.7506160,0.0
          37.4943340,55.7505990,0.0
          37.4944250,55.7505860,0.0
          37.4945560,55.7505870,0.0
          37.4946970,55.7505960,0.0
          37.4948240,55.7505940,0.0
          37.4949230,55.7505950,0.0
          37.4950440,55.7505560,0.0
          37.4951790,55.7505420,0.0
          37.4953060,55.7505410,0.0
          37.4954480,55.7505700,0.0
          37.4955730,55.7506010,0.0
          37.4957070,55.7506040,0.0
          37.4957840,55.7505780,0.0
          37.4959130,55.7505830,0.0
          37.4960520,55.7506070,0.0
          37.4961900,55.7506110,0.0
          37.4962730,55.7506010,0.0
          37.4964590,55.7505980,0.0
          37.4965650,55.7506000,0.0
          37.4964690,55.7505770,0.0
          37.4965380,55.7506010,0.0
        </coordinates>
      </LineString>
    </Placemark>
  </Document>
</kml>
