<?xml version="1.0" encoding="UTF-8"?>
<kml xmlns="http://www.opengis.net/kml/2.2">
  <Document>
    <name>Канал имени Москвы</name>
    <description><![CDATA[<a href="https://www.mnogotrop.com/route/72399" target="_blank">Источник: mnogotrop.com/route/72399</a>
<p>Маршрут выходного дня от района Бескудниково к каналу имени Москвы и окрестностям Долгопрудного.</p>
<p>Основной интерес - вода, лесные проходы, дорожки вдоль канала и спокойный северный пригородный ритм.</p>
<p>Особенности: в источнике отмечены сложные тропы, местами лесные препятствия и участки по шоссе; маршрут лучше выбирать уверенным райдерам.</p>]]></description>
    <Style id="route-line">
      <LineStyle>
        <color>ffd18802</color>
        <width>5</width>
      </LineStyle>
    </Style>
    <Style id="poi-point">
      <IconStyle>
        <color>ff3644db</color>
        <scale>1.0</scale>
        <Icon>
          <href>https://www.gstatic.com/mapspro/images/stock/503-wht-blank_maps.png</href>
        </Icon>
      </IconStyle>
    </Style>
    <Placemark>
      <name>Точка маршрута</name>
      <description><![CDATA[<p><b>Адрес:</b> Дубнинская ул., 52с4, Москва, Россия, 127253</p>]]></description>
      <styleUrl>#poi-point</styleUrl>
      <Point>
        <coordinates>37.5541960,55.8969360,0.0</coordinates>
      </Point>
    </Placemark>
    <Placemark>
      <name>Точка маршрута</name>
      <description><![CDATA[<p><b>Адрес:</b> МКАД, Москва, Россия, 127253</p>]]></description>
      <styleUrl>#poi-point</styleUrl>
      <Point>
        <coordinates>37.5638600,55.9097600,0.0</coordinates>
      </Point>
    </Placemark>
    <Placemark>
      <name>Точка маршрута</name>
      <description><![CDATA[<p><b>Адрес:</b> Челобитьевское ш., 1к85, Москва, Россия, 127495</p>]]></description>
      <styleUrl>#poi-point</styleUrl>
      <Point>
        <coordinates>37.5701080,55.9195840,0.0</coordinates>
      </Point>
    </Placemark>
    <Placemark>
      <name>Точка маршрута</name>
      <description><![CDATA[<p><b>Адрес:</b> Северный пр-д, Москва, Россия, 127204</p>]]></description>
      <styleUrl>#poi-point</styleUrl>
      <Point>
        <coordinates>37.5638280,55.9388320,0.0</coordinates>
      </Point>
    </Placemark>
    <Placemark>
      <name>Точка маршрута</name>
      <description><![CDATA[<p><b>Адрес:</b> Северный пр-д, Москва, Россия, 127204</p>]]></description>
      <styleUrl>#poi-point</styleUrl>
      <Point>
        <coordinates>37.5607050,55.9458820,0.0</coordinates>
      </Point>
    </Placemark>
    <Placemark>
      <name>Точка маршрута</name>
      <description><![CDATA[<p><b>Адрес:</b> Московское ш., 57А, Долгопрудный, Московская обл., Россия, 141704</p>]]></description>
      <styleUrl>#poi-point</styleUrl>
      <Point>
        <coordinates>37.5131720,55.9521200,0.0</coordinates>
      </Point>
    </Placemark>
    <Placemark>
      <name>Точка маршрута</name>
      <description><![CDATA[<p><b>Адрес:</b> Парковая ул., 33А, Долгопрудный, Московская обл., Россия, 141702</p>]]></description>
      <styleUrl>#poi-point</styleUrl>
      <Point>
        <coordinates>37.4864560,55.9550960,0.0</coordinates>
      </Point>
    </Placemark>
    <Placemark>
      <name>Точка маршрута</name>
      <description><![CDATA[<p><b>Адрес:</b> Лихачевское ш., 68, Долгопрудный, Московская обл., Россия, 141701</p>]]></description>
      <styleUrl>#poi-point</styleUrl>
      <Point>
        <coordinates>37.4899080,55.9260720,0.0</coordinates>
      </Point>
    </Placemark>
    <Placemark>
      <name>Точка маршрута</name>
      <description><![CDATA[<p><b>Адрес:</b> Береговая ул., Долгопрудный, Московская обл., Россия, 141701</p>]]></description>
      <styleUrl>#poi-point</styleUrl>
      <Point>
        <coordinates>37.4881160,55.9166200,0.0</coordinates>
      </Point>
    </Placemark>
    <Placemark>
      <name>Точка маршрута</name>
      <description><![CDATA[<p><b>Адрес:</b> Лихачевский просп., 24, Долгопрудный, Московская обл., Россия, 141701</p>]]></description>
      <styleUrl>#poi-point</styleUrl>
      <Point>
        <coordinates>37.4947620,55.9163460,0.0</coordinates>
      </Point>
    </Placemark>
    <Placemark>
      <name>Точка маршрута</name>
      <description><![CDATA[<p><b>Адрес:</b> Ижорская ул., 5Ас1, Москва, Россия, 125599</p>]]></description>
      <styleUrl>#poi-point</styleUrl>
      <Point>
        <coordinates>37.5063720,55.8859200,0.0</coordinates>
      </Point>
    </Placemark>
    <Placemark>
      <name>Точка маршрута</name>
      <description><![CDATA[<p><b>Адрес:</b> Ангарская ул., 37/18, Москва, Россия, 125412</p>]]></description>
      <styleUrl>#poi-point</styleUrl>
      <Point>
        <coordinates>37.5243640,55.8781920,0.0</coordinates>
      </Point>
    </Placemark>
    <Placemark>
      <name>Точка маршрута</name>
      <description><![CDATA[<p><b>Адрес:</b> Софьи Ковалевской ул., 2, Москва, Россия, 127247</p>]]></description>
      <styleUrl>#poi-point</styleUrl>
      <Point>
        <coordinates>37.5334880,55.8764160,0.0</coordinates>
      </Point>
    </Placemark>
    <Placemark>
      <name>Канал имени Москвы</name>
      <styleUrl>#route-line</styleUrl>
      <LineString>
        <tessellate>1</tessellate>
        <altitudeMode>clampToGround</altitudeMode>
        <coordinates>
          37.5575920,55.8797760,0.0
          37.5575920,55.8797760,0.0
          37.5575900,55.8801150,0.0
          37.5575800,55.8808850,0.0
          37.5575570,55.8825370,0.0
          37.5575560,55.8826250,0.0
          37.5575400,55.8837770,0.0
          37.5575120,55.8858150,0.0
          37.5574960,55.8869160,0.0
          37.5574910,55.8873240,0.0
          37.5574730,55.8886180,0.0
          37.5574610,55.8894810,0.0
          37.5574510,55.8901830,0.0
          37.5574380,55.8911530,0.0
          37.5574260,55.8919900,0.0
          37.5574210,55.8923630,0.0
          37.5574120,55.8930460,0.0
          37.5574080,55.8932840,0.0
          37.5574020,55.8937720,0.0
          37.5573990,55.8939350,0.0
          37.5574080,55.8944620,0.0
          37.5573880,55.8947270,0.0
          37.5573200,55.8951530,0.0
          37.5571820,55.8953810,0.0
          37.5567090,55.8956420,0.0
          37.5549270,55.8962520,0.0
          37.5547790,55.8963040,0.0
          37.5548360,55.8963540,0.0
          37.5550610,55.8965550,0.0
          37.5549710,55.8966240,0.0
          37.5549100,55.8966480,0.0
          37.5541960,55.8969360,0.0
          37.5514940,55.8978940,0.0
          37.5514240,55.8979170,0.0
          37.5515020,55.8980170,0.0
          37.5516920,55.8980120,0.0
          37.5520510,55.8980400,0.0
          37.5521840,55.8981440,0.0
          37.5523780,55.8983350,0.0
          37.5524920,55.8984400,0.0
          37.5525580,55.8984120,0.0
          37.5527290,55.8983400,0.0
          37.5528180,55.8983020,0.0
          37.5536640,55.8989960,0.0
          37.5546150,55.8998420,0.0
          37.5545870,55.8999090,0.0
          37.5545230,55.9000970,0.0
          37.5545840,55.9001530,0.0
          37.5547200,55.9000870,0.0
          37.5547980,55.9001550,0.0
          37.5563770,55.9015040,0.0
          37.5564970,55.9016060,0.0
          37.5567140,55.9017920,0.0
          37.5567950,55.9018610,0.0
          37.5568810,55.9019320,0.0
          37.5569640,55.9020000,0.0
          37.5570380,55.9020600,0.0
          37.5581640,55.9030440,0.0
          37.5591990,55.9039380,0.0
          37.5602300,55.9048560,0.0
          37.5613660,55.9057120,0.0
          37.5617130,55.9060160,0.0
          37.5624350,55.9066340,0.0
          37.5634380,55.9075270,0.0
          37.5636360,55.9076970,0.0
          37.5637120,55.9077760,0.0
          37.5637590,55.9078350,0.0
          37.5638110,55.9078920,0.0
          37.5638420,55.9079460,0.0
          37.5638460,55.9080060,0.0
          37.5638580,55.9080970,0.0
          37.5638460,55.9085100,0.0
          37.5638910,55.9091070,0.0
          37.5638980,55.9093940,0.0
          37.5638960,55.9095320,0.0
          37.5638830,55.9096500,0.0
          37.5638600,55.9097600,0.0
          37.5638600,55.9097520,0.0
          37.5638280,55.9098470,0.0
          37.5637850,55.9099480,0.0
          37.5637230,55.9100470,0.0
          37.5636350,55.9101570,0.0
          37.5635440,55.9102560,0.0
          37.5633920,55.9103820,0.0
          37.5631880,55.9105020,0.0
          37.5630260,55.9105750,0.0
          37.5628480,55.9106490,0.0
          37.5626500,55.9107160,0.0
          37.5624290,55.9107820,0.0
          37.5622030,55.9108440,0.0
          37.5615700,55.9109940,0.0
          37.5611890,55.9110840,0.0
          37.5612700,55.9112020,0.0
          37.5613700,55.9112880,0.0
          37.5612350,55.9113590,0.0
          37.5610790,55.9114880,0.0
          37.5610050,55.9116110,0.0
          37.5608670,55.9117150,0.0
          37.5607750,55.9118320,0.0
          37.5606920,55.9123260,0.0
          37.5605920,55.9127450,0.0
          37.5605450,55.9133120,0.0
          37.5604670,55.9142380,0.0
          37.5602180,55.9146430,0.0
          37.5602550,55.9148940,0.0
          37.5645500,55.9148970,0.0
          37.5647520,55.9149100,0.0
          37.5649730,55.9149260,0.0
          37.5650830,55.9150070,0.0
          37.5651500,55.9150810,0.0
          37.5651810,55.9151560,0.0
          37.5651670,55.9152340,0.0
          37.5648000,55.9160810,0.0
          37.5647640,55.9161920,0.0
          37.5647730,55.9162850,0.0
          37.5648380,55.9163640,0.0
          37.5650240,55.9164820,0.0
          37.5654830,55.9167390,0.0
          37.5658100,55.9169270,0.0
          37.5697790,55.9192110,0.0
          37.5698490,55.9192540,0.0
          37.5704060,55.9195980,0.0
          37.5701080,55.9195840,0.0
          37.5699550,55.9195790,0.0
          37.5699130,55.9196140,0.0
          37.5698480,55.9197570,0.0
          37.5698390,55.9198510,0.0
          37.5697190,55.9200090,0.0
          37.5695730,55.9201250,0.0
          37.5695310,55.9202020,0.0
          37.5695960,55.9202870,0.0
          37.5696600,55.9205060,0.0
          37.5695960,55.9207530,0.0
          37.5696380,55.9208910,0.0
          37.5696020,55.9210850,0.0
          37.5695280,55.9211630,0.0
          37.5694660,55.9213010,0.0
          37.5693560,55.9214170,0.0
          37.5693120,55.9214860,0.0
          37.5692990,55.9216670,0.0
          37.5691750,55.9219480,0.0
          37.5691250,55.9220760,0.0
          37.5691040,55.9221670,0.0
          37.5690540,55.9224150,0.0
          37.5689710,55.9225550,0.0
          37.5689780,55.9226620,0.0
          37.5689230,55.9227750,0.0
          37.5689160,55.9228620,0.0
          37.5689450,55.9230010,0.0
          37.5688780,55.9231200,0.0
          37.5676830,55.9273060,0.0
          37.5663210,55.9320770,0.0
          37.5662020,55.9325040,0.0
          37.5656260,55.9324340,0.0
          37.5651720,55.9339590,0.0
          37.5651000,55.9341840,0.0
          37.5646010,55.9356840,0.0
          37.5644830,55.9358040,0.0
          37.5644180,55.9359120,0.0
          37.5644510,55.9360320,0.0
          37.5646440,55.9364290,0.0
          37.5646440,55.9366450,0.0
          37.5644930,55.9373180,0.0
          37.5642790,55.9375880,0.0
          37.5642250,55.9378050,0.0
          37.5642250,55.9379670,0.0
          37.5643110,55.9381470,0.0
          37.5643110,55.9382550,0.0
          37.5642040,55.9384540,0.0
          37.5640860,55.9386580,0.0
          37.5639360,55.9387900,0.0
          37.5638280,55.9388320,0.0
          37.5638200,55.9388440,0.0
          37.5633780,55.9390340,0.0
          37.5611890,55.9389160,0.0
          37.5610710,55.9389280,0.0
          37.5610390,55.9389770,0.0
          37.5608360,55.9423120,0.0
          37.5608070,55.9427950,0.0
          37.5606200,55.9458680,0.0
          37.5607050,55.9458820,0.0
          37.5620960,55.9461160,0.0
          37.5621960,55.9461780,0.0
          37.5632950,55.9461980,0.0
          37.5634720,55.9449490,0.0
          37.5634300,55.9444800,0.0
          37.5637000,55.9437090,0.0
          37.5636580,55.9429040,0.0
          37.5635310,55.9428040,0.0
          37.5631420,55.9427480,0.0
          37.5623990,55.9427810,0.0
          37.5613760,55.9428230,0.0
          37.5608070,55.9427950,0.0
          37.5606200,55.9458680,0.0
          37.5558500,55.9451530,0.0
          37.5554210,55.9450880,0.0
          37.5549500,55.9450220,0.0
          37.5521100,55.9445800,0.0
          37.5517970,55.9445390,0.0
          37.5514560,55.9444830,0.0
          37.5484410,55.9440220,0.0
          37.5475530,55.9438860,0.0
          37.5451020,55.9435040,0.0
          37.5435620,55.9432590,0.0
          37.5438190,55.9427080,0.0
          37.5433030,55.9426400,0.0
          37.5433330,55.9425390,0.0
          37.5432740,55.9424460,0.0
          37.5407620,55.9422560,0.0
          37.5402440,55.9422170,0.0
          37.5389810,55.9421240,0.0
          37.5374380,55.9420110,0.0
          37.5350470,55.9418750,0.0
          37.5334670,55.9417710,0.0
          37.5313000,55.9415930,0.0
          37.5303170,55.9415090,0.0
          37.5231600,55.9410160,0.0
          37.5223970,55.9407680,0.0
          37.5221060,55.9410960,0.0
          37.5220020,55.9415400,0.0
          37.5220020,55.9421190,0.0
          37.5220230,55.9422400,0.0
          37.5220590,55.9424460,0.0
          37.5216320,55.9424530,0.0
          37.5215480,55.9424990,0.0
          37.5214980,55.9436570,0.0
          37.5213740,55.9442600,0.0
          37.5208920,55.9455640,0.0
          37.5201200,55.9468380,0.0
          37.5198840,55.9471880,0.0
          37.5193690,55.9479550,0.0
          37.5192300,55.9480910,0.0
          37.5191520,55.9481610,0.0
          37.5186420,55.9493680,0.0
          37.5186030,55.9494320,0.0
          37.5184460,55.9497390,0.0
          37.5183480,55.9499370,0.0
          37.5180130,55.9505850,0.0
          37.5177990,55.9510010,0.0
          37.5174410,55.9516660,0.0
          37.5152800,55.9512670,0.0
          37.5144360,55.9514780,0.0
          37.5139180,55.9515500,0.0
          37.5137060,55.9516310,0.0
          37.5136520,55.9516770,0.0
          37.5136000,55.9517200,0.0
          37.5132610,55.9520540,0.0
          37.5131760,55.9521200,0.0
          37.5131720,55.9521200,0.0
          37.5132610,55.9520540,0.0
          37.5136000,55.9517200,0.0
          37.5136520,55.9516770,0.0
          37.5137060,55.9516310,0.0
          37.5136350,55.9516050,0.0
          37.5135410,55.9515700,0.0
          37.5131600,55.9514290,0.0
          37.5130720,55.9513740,0.0
          37.5128680,55.9512600,0.0
          37.5127720,55.9512040,0.0
          37.5122720,55.9510350,0.0
          37.5122340,55.9511140,0.0
          37.5117560,55.9510420,0.0
          37.5115400,55.9510090,0.0
          37.5114130,55.9509380,0.0
          37.5112950,55.9508700,0.0
          37.5111380,55.9507810,0.0
          37.5109090,55.9506500,0.0
          37.5107970,55.9505870,0.0
          37.5106240,55.9504890,0.0
          37.5103930,55.9503570,0.0
          37.5102770,55.9502490,0.0
          37.5101630,55.9500410,0.0
          37.5100390,55.9498670,0.0
          37.5098120,55.9498340,0.0
          37.5092430,55.9497190,0.0
          37.5081330,55.9494880,0.0
          37.5080600,55.9494740,0.0
          37.5063020,55.9491300,0.0
          37.5062260,55.9491150,0.0
          37.5058130,55.9499750,0.0
          37.5052130,55.9512990,0.0
          37.5044720,55.9511970,0.0
          37.5035620,55.9510990,0.0
          37.5033450,55.9510840,0.0
          37.5030220,55.9510680,0.0
          37.5024150,55.9511110,0.0
          37.5013630,55.9511860,0.0
          37.5009940,55.9512130,0.0
          37.5006660,55.9512590,0.0
          37.4980420,55.9520020,0.0
          37.4968560,55.9523200,0.0
          37.4963780,55.9524470,0.0
          37.4957620,55.9526120,0.0
          37.4952200,55.9527570,0.0
          37.4947890,55.9528720,0.0
          37.4934770,55.9532200,0.0
          37.4930430,55.9533190,0.0
          37.4928610,55.9533470,0.0
          37.4925860,55.9533500,0.0
          37.4920280,55.9533420,0.0
          37.4913390,55.9533330,0.0
          37.4902160,55.9533290,0.0
          37.4888000,55.9533240,0.0
          37.4882300,55.9533220,0.0
          37.4880760,55.9533670,0.0
          37.4879400,55.9534260,0.0
          37.4878540,55.9535230,0.0
          37.4878190,55.9536330,0.0
          37.4877890,55.9541730,0.0
          37.4877800,55.9543370,0.0
          37.4876960,55.9544510,0.0
          37.4875210,55.9545350,0.0
          37.4864930,55.9548870,0.0
          37.4864560,55.9550960,0.0
          37.4864180,55.9551720,0.0
          37.4858850,55.9554070,0.0
          37.4854990,55.9555360,0.0
          37.4853650,55.9555520,0.0
          37.4852470,55.9555510,0.0
          37.4849640,55.9553500,0.0
          37.4847350,55.9551030,0.0
          37.4839240,55.9544270,0.0
          37.4831630,55.9535330,0.0
          37.4824340,55.9521430,0.0
          37.4814380,55.9502610,0.0
          37.4810690,55.9491920,0.0
          37.4806380,55.9479410,0.0
          37.4805970,55.9473600,0.0
          37.4804830,55.9457630,0.0
          37.4805610,55.9453550,0.0
          37.4809580,55.9438540,0.0
          37.4819380,55.9422230,0.0
          37.4821770,55.9419350,0.0
          37.4838710,55.9399000,0.0
          37.4863860,55.9369010,0.0
          37.4881680,55.9349650,0.0
          37.4891710,55.9334500,0.0
          37.4897910,55.9320010,0.0
          37.4900700,55.9307000,0.0
          37.4899880,55.9283440,0.0
          37.4899080,55.9260720,0.0
          37.4898240,55.9237210,0.0
          37.4896230,55.9216700,0.0
          37.4894620,55.9200340,0.0
          37.4888420,55.9177240,0.0
          37.4883590,55.9169930,0.0
          37.4881120,55.9166200,0.0
          37.4881160,55.9166200,0.0
          37.4883590,55.9169930,0.0
          37.4902330,55.9170760,0.0
          37.4909470,55.9171460,0.0
          37.4917250,55.9170260,0.0
          37.4924860,55.9169780,0.0
          37.4947300,55.9165240,0.0
          37.4949980,55.9164560,0.0
          37.4950220,55.9163580,0.0
          37.4949170,55.9163590,0.0
          37.4947620,55.9163460,0.0
          37.4949170,55.9163590,0.0
          37.4950220,55.9163580,0.0
          37.4951150,55.9159840,0.0
          37.4951870,55.9156430,0.0
          37.4952430,55.9152560,0.0
          37.4952600,55.9149230,0.0
          37.4952510,55.9147440,0.0
          37.4952230,55.9145650,0.0
          37.4951870,55.9143710,0.0
          37.4951490,55.9141820,0.0
          37.4949910,55.9134490,0.0
          37.4947990,55.9124640,0.0
          37.4946320,55.9116750,0.0
          37.4944790,55.9109450,0.0
          37.4943900,55.9105320,0.0
          37.4938600,55.9081180,0.0
          37.4937980,55.9078390,0.0
          37.4937860,55.9077830,0.0
          37.4937110,55.9074440,0.0
          37.4935930,55.9069900,0.0
          37.4935030,55.9067250,0.0
          37.4934310,55.9065730,0.0
          37.4933550,55.9063970,0.0
          37.4932830,55.9062370,0.0
          37.4931610,55.9059760,0.0
          37.4926830,55.9040310,0.0
          37.4925910,55.9037990,0.0
          37.4924480,55.9035980,0.0
          37.4917220,55.9027950,0.0
          37.4901330,55.9010730,0.0
          37.4897410,55.9006070,0.0
          37.4893820,55.9001350,0.0
          37.4892540,55.8998210,0.0
          37.4893160,55.8991600,0.0
          37.4893990,55.8987810,0.0
          37.4895200,55.8984180,0.0
          37.4897770,55.8979470,0.0
          37.4900810,55.8976190,0.0
          37.4906480,55.8971580,0.0
          37.4911260,55.8968650,0.0
          37.4916330,55.8966120,0.0
          37.4925480,55.8963060,0.0
          37.4930630,55.8960980,0.0
          37.4933600,55.8959460,0.0
          37.4936950,55.8957260,0.0
          37.4939770,55.8955050,0.0
          37.4941750,55.8953200,0.0
          37.4942360,55.8952620,0.0
          37.4942860,55.8950890,0.0
          37.4944000,55.8946370,0.0
          37.4944550,55.8942110,0.0
          37.4945930,55.8937930,0.0
          37.4948550,55.8934030,0.0
          37.4951470,55.8930440,0.0
          37.4959300,55.8923250,0.0
          37.4966560,55.8918180,0.0
          37.4975230,55.8912670,0.0
          37.4983920,55.8908440,0.0
          37.5014230,55.8893660,0.0
          37.5020050,55.8890030,0.0
          37.5026020,55.8886310,0.0
          37.5030870,55.8882870,0.0
          37.5037800,55.8877960,0.0
          37.5044790,55.8873170,0.0
          37.5052220,55.8868110,0.0
          37.5057470,55.8864530,0.0
          37.5061430,55.8861820,0.0
          37.5060480,55.8861170,0.0
          37.5059440,55.8860420,0.0
          37.5058270,55.8859500,0.0
          37.5057330,55.8858750,0.0
          37.5058860,55.8857970,0.0
          37.5063070,55.8855840,0.0
          37.5067500,55.8859430,0.0
          37.5065080,55.8860690,0.0
          37.5064550,55.8859790,0.0
          37.5063720,55.8859200,0.0
          37.5064550,55.8859790,0.0
          37.5065080,55.8860690,0.0
          37.5067500,55.8859430,0.0
          37.5063070,55.8855840,0.0
          37.5058860,55.8857970,0.0
          37.5057330,55.8858750,0.0
          37.5058270,55.8859500,0.0
          37.5059440,55.8860420,0.0
          37.5060480,55.8861170,0.0
          37.5061430,55.8861820,0.0
          37.5062580,55.8862580,0.0
          37.5065470,55.8864530,0.0
          37.5072620,55.8869350,0.0
          37.5074290,55.8870480,0.0
          37.5081850,55.8875260,0.0
          37.5089360,55.8879610,0.0
          37.5100960,55.8885500,0.0
          37.5116600,55.8893190,0.0
          37.5136770,55.8873400,0.0
          37.5143440,55.8866870,0.0
          37.5145170,55.8865170,0.0
          37.5147810,55.8862580,0.0
          37.5150350,55.8860090,0.0
          37.5156660,55.8853890,0.0
          37.5160800,55.8849840,0.0
          37.5161760,55.8848890,0.0
          37.5162360,55.8848300,0.0
          37.5172830,55.8838030,0.0
          37.5174330,55.8836550,0.0
          37.5175250,55.8835650,0.0
          37.5180920,55.8830090,0.0
          37.5186070,55.8833570,0.0
          37.5187480,55.8832200,0.0
          37.5190390,55.8829370,0.0
          37.5196710,55.8823220,0.0
          37.5204240,55.8815890,0.0
          37.5206810,55.8813390,0.0
          37.5208460,55.8811790,0.0
          37.5218720,55.8801810,0.0
          37.5230040,55.8791140,0.0
          37.5232770,55.8788580,0.0
          37.5235410,55.8786080,0.0
          37.5245220,55.8789100,0.0
          37.5245850,55.8788340,0.0
          37.5246420,55.8787650,0.0
          37.5247080,55.8786850,0.0
          37.5247050,55.8786310,0.0
          37.5244030,55.8785550,0.0
          37.5243090,55.8784570,0.0
          37.5243640,55.8781920,0.0
          37.5244070,55.8780050,0.0
          37.5253270,55.8770100,0.0
          37.5257770,55.8765640,0.0
          37.5258930,55.8763650,0.0
          37.5262640,55.8759740,0.0
          37.5278140,55.8754530,0.0
          37.5283480,55.8754250,0.0
          37.5322200,55.8760860,0.0
          37.5332600,55.8763040,0.0
          37.5335220,55.8762150,0.0
          37.5334880,55.8764160,0.0
          37.5335220,55.8762150,0.0
          37.5332600,55.8763040,0.0
          37.5322200,55.8760860,0.0
          37.5283480,55.8754250,0.0
          37.5278140,55.8754530,0.0
          37.5279320,55.8754140,0.0
          37.5280230,55.8753690,0.0
          37.5281460,55.8752790,0.0
          37.5267190,55.8750230,0.0
          37.5266320,55.8750330,0.0
          37.5267890,55.8749130,0.0
          37.5269460,55.8749400,0.0
          37.5278400,55.8750940,0.0
          37.5298320,55.8754390,0.0
          37.5322800,55.8758610,0.0
          37.5327400,55.8759410,0.0
          37.5337500,55.8761150,0.0
          37.5339520,55.8761500,0.0
          37.5348470,55.8763050,0.0
          37.5349400,55.8763210,0.0
          37.5363670,55.8765670,0.0
          37.5381490,55.8768750,0.0
          37.5385420,55.8769430,0.0
          37.5390190,55.8770250,0.0
          37.5392740,55.8770690,0.0
          37.5400510,55.8772020,0.0
          37.5413740,55.8774320,0.0
          37.5421780,55.8775710,0.0
          37.5428040,55.8776790,0.0
          37.5435220,55.8778030,0.0
          37.5450380,55.8780650,0.0
          37.5454640,55.8781390,0.0
          37.5459100,55.8782160,0.0
          37.5462480,55.8783050,0.0
          37.5466010,55.8783980,0.0
          37.5468510,55.8784430,0.0
          37.5472380,55.8785140,0.0
          37.5477160,55.8786010,0.0
          37.5485700,55.8787560,0.0
          37.5497270,55.8789660,0.0
          37.5507440,55.8791510,0.0
          37.5522410,55.8793980,0.0
          37.5528560,55.8794990,0.0
          37.5530620,55.8795330,0.0
          37.5538530,55.8796640,0.0
          37.5544860,55.8797680,0.0
          37.5550100,55.8798390,0.0
          37.5559920,55.8799400,0.0
        </coordinates>
      </LineString>
    </Placemark>
  </Document>
</kml>
